Identifier,Property Address,City,State,Zip,Y,X,Council District,Property Type,Square Footage
NOR900334,"1217 S SARATOGA ST","New Orleans","LA","70113","29.943918711000435","-90.07936461799966",B,VACANT LOT,3250.43
NOR900335,"1308 S SARATOGA ST","New Orleans","LA","70113","29.943202143000462","-90.07981706299967",B,VACANT LOT,3020.16
NOR900336,"2066 N JOHNSON ST","New Orleans","LA","70116","29.97754291400048","-90.05929835099965",C,VACANT LOT,986.61
NOR900339,"6437 MARQUE ST","New Orleans","LA","70117","29.959916531000488","-90.00673188599967",E,VACANT LOT,2603.89
NOR900340,"2412 CLARA ST","New Orleans","LA","70113","29.942406220000464","-90.09025644899964",B,VACANT LOT,2192.13
NOR900341,"2919 GRAVIER ST","New Orleans","LA","70119","29.962176385000475","-90.0947891839997",B,VACANT LOT,3587.21
NOR900342,"2102-10 ERATO ST / 1301 S. SARATOGA ST","New Orleans","LA","70113","29.943358486000477","-90.07977442399965",B,VACANT LOT,3103.99
NOR900343,"3209 GRAVIER ST","New Orleans","LA","70119","29.96328617600045","-90.09719945699965",B,VACANT LOT,3896.48
NOR900346,"1320 WILLOW ST","New Orleans","LA","70113","29.94679208900044","-90.08674704299966",B,VACANT LOT,822.15
NOR900347,"2008 SPAIN ST","New Orleans","LA","70117","29.97815762300047","-90.05405260099968",D,STRUCTURE,4684.45
NOR900354,"2200 GORDON ST","New Orleans","LA","70117","29.971083144000488","-90.00707891799965",E,VACANT LOT,2438.27
NOR900356,"1131 S DUPRE ST","New Orleans","LA","70125","29.955748594000454","-90.0992745429997",B,VACANT LOT,3435.03
NOR900357,"3101 PINE ST","New Orleans","LA","70125","29.95823111700048","-90.11152725999966",B,VACANT LOT,3998.72
NOR900358,"3107-3109 PINE ST","New Orleans","LA","70125","29.951773492000484","-90.11643930199966",B,VACANT LOT,3792.07
NOR900359,"3111 PINE ST","New Orleans","LA","70125","29.95837206100049","-90.1114076349997",B,VACANT LOT,3821.34
NOR900360,"1221 S SARATOGA ST","New Orleans","LA","70113","29.94384764700044","-90.07941436299967",B,VACANT LOT,3250.4
NOR900365,"2421 FLOOD ST","New Orleans","LA","70117","29.975311487000454","-90.01225123499967",E,VACANT LOT,8060.26
NOR900367,"2404-2406 CHARBONNET ST","New Orleans","LA","70117","29.952951451000445","-90.01639690199966",E,VACANT LOT,3359.73
NOR900369,"2044 HOPE ST","New Orleans","LA","70119","29.98439353900045","-90.06359894299965",D,VACANT LOT,6236.92
NOR900371,"3826-3828 THIRD ST","New Orleans","LA","70125","29.94332407000047","-90.09279597599965",B,VACANT LOT,1805.03
NOR900372,"3212 JACKSON AVE","New Orleans","LA","70125","29.94767092100045","-90.09233271799968",B,VACANT LOT,3356.91
NOR900375,"2311-2313 S ROMAN ST","New Orleans","LA","70125","29.941960117000463","-90.10689605999966",B,VACANT LOT,2429.18
NOR900378,"3231 JACKSON AVE","New Orleans","LA","70125","29.947930306000444","-90.09247840099965",B,VACANT LOT,3601.53
NOR900379,"50189 FLOOD ST","New Orleans","LA","70117","29.95456339600048","-90.0190273829997",E,VACANT LOT,4032.06
NOR900381,"2141 ST. MAURICE AVE","New Orleans","LA","70117","29.970087056000466","-90.00498369699966",E,VACANT LOT,8164.47
NOR900382,"5926 N DERBIGNY ST","New Orleans","LA","70117","29.96617376700044","-90.00984925299969",E,VACANT LOT,3246.47
NOR900384,"2022 ALABO ST","New Orleans","LA","70117","29.97025050400049","-90.00989070699967",E,VACANT LOT,3969.91
NOR900385,"2130-2132 ALABO ST","New Orleans","LA","70117","29.95258389300045","-90.01561750099967",E,VACANT LOT,3795.43
NOR900386,"2715-2717 S MIRO ST","New Orleans","LA","70125","29.945153007000442","-90.10785702699968",B,VACANT LOT,3006.53
NOR900387,"3200 JACKSON AVE","New Orleans","LA","70125","29.947610515000463","-90.09228297299967",B,VACANT LOT,9967.33
NOR900389,"2122-2124 PAUGER ST","New Orleans","LA","70116","29.96476204400045","-90.06015853199966",C,VACANT LOT,4064
NOR900391,"1616-1618 ANDRY ST","New Orleans","LA","70117","29.955161232000478","-90.02073675199966",E,VACANT LOT,3882.62
NOR900392,"6228 N GALVEZ ST","New Orleans","LA","70117","29.968884880000473","-90.00481077399968",E,VACANT LOT,4327.05
NOR900395,"2307-2309 DESIRE ST","New Orleans","LA","70117","29.961290163000456","-90.04189573499968",D,VACANT LOT,5101.74
NOR900396,"1219-1221 TOURO ST","New Orleans","LA","70116","29.964443197000435","-90.05895843099967",C,VACANT LOT,4316
NOR900397,"4220 ERATO ST","New Orleans","LA","70125","29.954904833000455","-90.10018632499964",B,VACANT LOT,1661.3
NOR900398,"3026-3028 FIRST ST","New Orleans","LA","70125","29.944223039000462","-90.09118845999967",B,VACANT LOT,2113.3
NOR900399,"4200 N GALVEZ ST","New Orleans","LA","70117","29.975413346000437","-90.03034664399968",D,VACANT LOT,2822.18
NOR900401,"3400 JACKSON AVE","New Orleans","LA","70125","29.948211012000456","-90.09280292899967",B,VACANT LOT,1966.5
NOR900402,"2402 REX PL","New Orleans","LA","70125","29.945586360000448","-90.09234693099967",B,VACANT LOT,1764.61
NOR900403,"2321-2323 S ROMAN ST","New Orleans","LA","70117","29.941960117000463","-90.10689605999966",B,VACANT LOT,2735.44
NOR900405,"2337 SEMINOLE PL","New Orleans","LA","70125","29.94657534200047","-90.09278516299969",B,VACANT LOT,1523.51
NOR900406,"2515-2517 S MIRO ST","New Orleans","LA","70125","29.945153007000442","-90.10785702699968",B,VACANT LOT,1885.68
NOR900412,"3621-3623 THIRD ST","New Orleans","LA","70125","29.94332407000047","-90.09279597599965",B,VACANT LOT,6789.02
NOR900413,"3617-3619 THIRD ST","New Orleans","LA","70125","29.94332407000047","-90.09279597599965",B,VACANT LOT,1804
NOR900414,"3625-3627 THIRD ST","New Orleans","LA","70125","29.94332407000047","-90.09279597599965",B,VACANT LOT,1812.58
NOR900417,"2712 S ROCHEBLAVE ST","New Orleans","LA","70125","29.94895600500047","-90.09862667099969",B,VACANT LOT,1788.99
NOR900420,"3336-3338 FIRST ST","New Orleans","LA","70125","29.944223039000462","-90.09118845999967",B,VACANT LOT,2054.39
NOR900429,"2334-2338 CLOUET ST","New Orleans","LA","70117","29.961511584000448","-90.04603630599968",D,VACANT LOT,3145.02
NOR900430,"411 TOLEDANO ST","New Orleans","LA","70125","29.918795016000445","-90.08546314299969",B,VACANT LOT,1075.9
NOR900431,"608 FOURTH ST","New Orleans","LA","70125","29.922623028000487","-90.07866463199969",B,VACANT LOT,1027.74
NOR900434,"2413 REX PL","New Orleans","LA","70125","29.94548568500045","-90.09263474299968",B,VACANT LOT,1896.23
NOR900436,"1956 N PRIEUR ST","New Orleans","LA","70116","29.976363242000446","-90.06179863999967",C,VACANT LOT,939.27
NOR900442,"3420 THIRD ST","New Orleans","LA","70113","29.947032524000463","-90.09564432799965",B,VACANT LOT,2749.76
NOR900446,"2114 FRANCE ST","New Orleans","LA","70117","29.975929748000453","-90.03036085699966",D,VACANT LOT,4942.78
NOR900465,"5139 PAULINE DR","New Orleans","LA","70126","30.014470436000465","-90.03267045599966",D,STRUCTURE,5569.67
NOR900472,"2755 ST. ANN ST","New Orleans","LA","70119","29.97220478000048","-90.08361427999967",A,STRUCTURE,2963.99
NOR900475,"2415-17 ST. PHILIP ST","New Orleans","LA","70119","29.96946059500044","-90.07566685299969",D,VACANT LOT,5545.77
NOR900479,"1312-1314 S ROMAN ST","New Orleans","LA","70125","29.941960117000463","-90.10689605999966",B,VACANT LOT,3893.91
NOR900481,"2131-2133 EUTERPE ST","New Orleans","LA","70113","29.938381955000466","-90.07779692299965",B,VACANT LOT,1271.25
NOR900486,"3635 THIRD ST","New Orleans","LA","70125","29.948809138000456","-90.09687729799964",B,VACANT LOT,1524.88
NOR900487,"3829-3831 FOURTH ST","New Orleans","LA","70125","29.94285022900044","-90.09361966099965",B,VACANT LOT,1697.78
NOR900488,"1719 FLOOD ST","New Orleans","LA","70117","29.968010786000434","-90.01461057799969",E,VACANT LOT,3425.49
NOR900494,"5022 N ROBERTSON ST","New Orleans","LA","70117","29.966543303000435","-90.02054683899968",E,VACANT LOT,3265.13
NOR900495,"1500 CATON ST","New Orleans","LA","70122","29.99797225900045","-90.07482154399969",D,STRUCTURE,3440.81
NOR900497,"3226-3228 DELACHAISE ST","New Orleans","LA","70125","29.940813157000434","-90.09863705999965",B,VACANT LOT,5712.21
NOR900499,"1631 N DORGENOIS ST","New Orleans","LA","70119","29.978890772000454","-90.07342243499966",A,VACANT LOT,2929.07
NOR900500,"1826 THIRD ST","New Orleans","LA","70113","29.934112985000468","-90.08604468799967",B,VACANT LOT,2508.56
NOR900503,"1718-1720 ST. ANN ST","New Orleans","LA","70116","29.95754372200048","-90.06205832399968",A,VACANT LOT,2365.41
NOR900505,"3209-3211 DELACHAISE ST","New Orleans","LA","70125","29.940813157000434","-90.09863705999965",B,STRUCTURE,3675
NOR900506,"1225 S RAMPART ST","New Orleans","LA","70113","29.943358486000477","-90.07885413799966",B,VACANT LOT,2205.63
NOR900507,"1300 CLARA ST","New Orleans","LA","70113","29.94669259800048","-90.08568699599965",B,VACANT LOT,2554.64
NOR900508,"1304-1306 CLARA ST","New Orleans","LA","70113","29.939993900000445","-90.09461605599967",B,VACANT LOT,2575.55
NOR900509,"1513-1515 ANDRY ST","New Orleans","LA","70117","29.955161232000478","-90.02073675199966",E,VACANT LOT,4500.79
NOR900510,"2012-2014 LASALLE ST","New Orleans","LA","70113","29.937553841000465","-90.09084747199967",B,VACANT LOT,2389.38
NOR900511,"2313 ST. ANDREW ST","New Orleans","LA","70113","29.94138170600047","-90.08414015799968",B,VACANT LOT,1249.32
NOR900512,"2315 WILLOW ST","New Orleans","LA","70113","29.943575232000455","-90.0903038249997",B,STRUCTURE,990.13
NOR900513,"2730-2732 THALIA ST","New Orleans","LA","70113","29.940591736000442","-90.07635768699964",B,VACANT LOT,2501.99
NOR900514,"2817 THALIA ST","New Orleans","LA","70113","29.946355042000448","-90.08656701199965",B,VACANT LOT,1548.4
NOR900516,"3705-3709-3711 WASHINGTON AVE","New Orleans","LA","70125","29.951451862000454","-90.10372721199968",B,VACANT LOT,13249.25
NOR900518,"4521 FLAKE AVE","New Orleans","LA","70127","30.01655381100045","-89.98910905599968",E,VACANT LOT,3354.06
NOR900522,"923-925 LIZARDI ST","New Orleans","LA","70117","29.95632147800046","-90.02250811999966",E,VACANT LOT,2841.4
NOR900523,"5027-5029 DAUPHINE ST","New Orleans","LA","70117","29.955790068000454","-90.00965684899967",E,VACANT LOT,5051.91
NOR900524,"5460 ROYAL ST","New Orleans","LA","70117","29.957383079000465","-90.01877614699964",E,VACANT LOT,10357.28
NOR900529,"5604-5606 DAUPHINE ST","New Orleans","LA","70117","29.955790068000454","-90.00965684899967",E,VACANT LOT,3305.78
NOR900530,"6118-6120 ST. CLAUDE AVE","New Orleans","LA","70117","29.958083988000453","-90.00628682299964",E,VACANT LOT,4967.91
NOR900531,"623 FLOOD ST","New Orleans","LA","70117","29.95685128000048","-90.01825026999967",E,VACANT LOT,3883.58
NOR900532,"920 FLOOD ST","New Orleans","LA","70117","29.95983125300046","-90.01735011799968",E,VACANT LOT,4054.74
NOR900533,"1921-1923 EGANIA ST","New Orleans","LA","70117","29.955790068000454","-90.02172871799968",E,VACANT LOT,3763.96
NOR900538,"4716 URQUHART ST","New Orleans","LA","70117","29.965383766000457","-90.02530698199968",E,VACANT LOT,5901.28
NOR900544,"2642-2644 PIETY ST","New Orleans","LA","70117","29.961170596000443","-90.04336596999968",D,VACANT LOT,3463.52
NOR900546,"2339 S DERBIGNY ST","New Orleans","LA","70125","29.94549516100045","-90.09167537099967",B,VACANT LOT,1476.14
NOR900547,"2430-2432 CLOUET ST","New Orleans","LA","70117","29.961511584000448","-90.04603630599968",D,VACANT LOT,3558.49
NOR900548,"2226 FELICIANA ST","New Orleans","LA","70117","29.979809874000466","-90.04148009399967",D,VACANT LOT,3606.61
NOR900549,"1325 ANDRY ST","New Orleans","LA","70117","29.964180405000434","-90.01766161699965",E,VACANT LOT,6193.89
NOR900553,"1520 CLOUET ST","New Orleans","LA","70117","29.972189383000455","-90.04287059099966",C,STRUCTURE,3175.03
NOR900554,"2414 SPAIN ST","New Orleans","LA","70117","29.982478349000473","-90.05439252699966",D,VACANT LOT,4698.84
NOR900556,"3936 TOLEDANO ST","New Orleans","LA","70119","29.949766141000453","-90.10032748299966",B,VACANT LOT,2348.93
NOR900558,"701 ANDRY ST","New Orleans","LA","70117","29.957821311000487","-90.01979118599968",E,VACANT LOT,5139.19
NOR900561,"2600 GALLIER ST","New Orleans","LA","70117","29.982159742000476","-90.03498123899965",D,VACANT LOT,3417.04
NOR900564,"2708-2710 S DERBIGNY ST","New Orleans","LA","70125","29.94108329100044","-90.10694920099968",B,VACANT LOT,1821.57
NOR900566,"1031 EGANIA ST","New Orleans","LA","70117","29.961530881000442","-90.01977105099968",E,STRUCTURE,1360.28
NOR900568,"3415 CLOUET ST","New Orleans","LA","70126","29.993021963000444","-90.03650083599968",E,VACANT LOT,4052.26
NOR900571,"1214-1216 FLOOD ST","New Orleans","LA","70117","29.95456339600048","-90.0190273829997",E,VACANT LOT,3451.32
NOR900572,"1930 ANDRY ST","New Orleans","LA","70117","29.970629516000486","-90.01561022099969",E,VACANT LOT,3766.66
NOR900573,"2136 PAINTERS ST","New Orleans","LA","70117","29.979978060000462","-90.04967265499965",D,VACANT LOT,3215.23
NOR900574,"2508 PAINTERS ST","New Orleans","LA","70117","29.983457855000438","-90.04992256499969",D,STRUCTURE,5365.39
NOR900581,"1704 EGANIA ST","New Orleans","LA","70117","29.968319917000485","-90.0175609429997",E,VACANT LOT,3434
NOR900582,"1908 REYNES ST","New Orleans","LA","70117","29.971020371000463","-90.01947968599967",E,VACANT LOT,4741.87
NOR900584,"3038 FELICIANA ST","New Orleans","LA","70126","29.98927922800044","-90.03859013499965",E,VACANT LOT,6108.86
NOR900585,"3417 CLOUET ST","New Orleans","LA","70126","29.992627034000463","-90.03660623499968",E,VACANT LOT,4091.99
NOR900587,"5014 N DERBIGNY ST","New Orleans","LA","70117","29.96858404000045","-90.01982671799965",E,VACANT LOT,3808.87
NOR900589,"636 LIZARDI ST","New Orleans","LA","70117","29.957961071000454","-90.02197997499968",E,VACANT LOT,2423.29
NOR900590,"724 LIZARDI ST","New Orleans","LA","70117","29.95869066700044","-90.02174072499969",E,VACANT LOT,3221.22
NOR900591,"911 LIZARDI ST","New Orleans","LA","70117","29.960340549000477","-90.02113075299968",E,VACANT LOT,2869.22
NOR900593,"3048 LOUISA ST","New Orleans","LA","70126","29.988900217000435","-90.03592047599966",E,VACANT LOT,4798.39
NOR900594,"3201 LOUISA ST","New Orleans","LA","70126","29.99005146300044","-90.03551066999967",E,VACANT LOT,4898.03
NOR900595,"3226 LOUISA ST","New Orleans","LA","70126","29.990509830000462","-90.03544078999965",E,VACANT LOT,4715.06
NOR900596,"3232 LOUISA ST","New Orleans","LA","70126","29.990629455000487","-90.03540051999965",E,VACANT LOT,4782.04
NOR900600,"1214 CHARBONNET ST","New Orleans","LA","70117","29.962119533000475","-90.01352092199966",E,VACANT LOT,2229.04
NOR900601,"1225 FLOOD ST","New Orleans","LA","70117","29.962940328000457","-90.01628059599966",E,VACANT LOT,3882.62
NOR900602,"1259 TENNESSEE ST","New Orleans","LA","70117","29.96455112600046","-90.02256151999967",E,VACANT LOT,5503.44
NOR900603,"1318 FLOOD ST","New Orleans","LA","70117","29.96379902500047","-90.01607095599968",E,VACANT LOT,4147.86
NOR900605,"1432 JOURDAN AVE","New Orleans","LA","70117","29.967250395000463","-90.02405979799966",E,VACANT LOT,3391.58
NOR900606,"1739-1741 EGANIA ST","New Orleans","LA","70117","29.955790068000454","-90.02172871799968",E,VACANT LOT,3896.57
NOR900607,"1802-1804 EGANIA ST","New Orleans","LA","70117","29.955790068000454","-90.02172871799968",E,VACANT LOT,3441.17
NOR900608,"2031 LAHARPE ST 1542-44 N GALVEZ","New Orleans","LA","70116","29.97476428900046","-90.07061419999968",C,STRUCTURE,5044.6
NOR900609,"5410 URQUHART ST","New Orleans","LA","70117","29.963603598000475","-90.01745671499964",E,VACANT LOT,3967.55
NOR900610,"5433 MARAIS ST","New Orleans","LA","70117","29.962526969000464","-90.01736433099967",E,VACANT LOT,5418.13
NOR900617,"1410 EGANIA ST","New Orleans","LA","70117","29.965310332000456","-90.01856058399966",E,VACANT LOT,4272.59
NOR900618,"1431 CHARBONNET ST/46512 CHARBONNET ST","New Orleans","LA","70117","29.96407558000044","-90.01280027499968",E,VACANT LOT,3751.5
NOR900619,"1503 LESSEPS ST","New Orleans","LA","70117","29.96912176200044","-90.03127995899968",D,STRUCTURE,3397.95
NOR900620,"47538 FORSTALL ST 1718 FORSTALL","New Orleans","LA","70117","29.96990075500048","-90.03053993999964",E,VACANT LOT,2436.65
NOR900621,"2104 S JOHNSON ST","New Orleans","LA","70125","29.94827733800048","-90.09238483199965",B,VACANT LOT,3020.12
NOR900622,"2517 WASHINGTON AVE","New Orleans","LA","70113","29.938869574000478","-90.09179736499965",B,VACANT LOT,2574.73
NOR900623,"2701 S PRIEUR ST","New Orleans","LA","70125","29.94538501000045","-90.09567393799966",B,VACANT LOT,1836.14
NOR900626,"3333-3335 FELICIANA ST","New Orleans","LA","70126","29.98637272500048","-90.03945567599965",E,VACANT LOT,3829.1
NOR900627,"4032 VELIE ST","New Orleans","LA","70126","30.000998961000448","-90.04193253899967",D,VACANT LOT,1689.48
NOR900629,"47750 ANDRY ST","New Orleans","LA","70117","29.955161232000478","-90.02073675199966",E,VACANT LOT,7774.92
NOR900631,"48146 LIZARDI ST","New Orleans","LA","70117","29.95632147800046","-90.02250811999966",E,VACANT LOT,2910.62
NOR900632,"4820 N. JOHNSON ST","New Orleans","LA","70117","29.972364379000453","-90.02180994699967",E,VACANT LOT,6630.7
NOR900633,"5006 N ROMAN ST","New Orleans","LA","70117","29.969653562000474","-90.01966682299968",E,VACANT LOT,3599.54
NOR900635,"5425 N VILLERE ST","New Orleans","LA","70117","29.964647063000484","-90.01691425599967",E,VACANT LOT,6440.24
NOR900636,"5434 N ROMAN ST","New Orleans","LA","70117","29.968643260000476","-90.01518620199965",E,VACANT LOT,3542.5
NOR900637,"8828 BELFAST ST","New Orleans","LA","70118","29.96335842500048","-90.12459840399964",A,VACANT LOT,4696.26
NOR900649,"2700 PAINTERS ST","New Orleans","LA","70122","29.986347815000443","-90.05016181599967",D,VACANT LOT,4900.82
NOR900653,"2322 EADS ST","New Orleans","LA","70117","29.98187785400046","-90.0475419019997",D,VACANT LOT,4321.48
NOR900654,"2709 ARTS ST","New Orleans","LA","70117","29.986523107000437","-90.05123962899967",D,VACANT LOT,4392.07
NOR900660,"6894 PARC BRITTANY","New Orleans","LA","70126","30.02741366300046","-90.00012169599967",D,VACANT LOT,2338.25
NOR900661,"2114 BENTON","New Orleans","LA","70117","29.970733743000437","-90.00848836499966",E,VACANT LOT,3341.29
NOR900662,"2133-35 BENTON","New Orleans","LA","70117","29.963460089000478","-90.01192862799968",E,VACANT LOT,6146.31
NOR900663,"2217 GORDON","New Orleans","LA","70117","29.971387538000442","-90.00687283099967",E,VACANT LOT,2128.95
NOR900664,"2245-47 BENTON","New Orleans","LA","70117","29.963460089000478","-90.01192862799968",E,VACANT LOT,2412.36
NOR900665,"2300 BENTON","New Orleans","LA","70117","29.972444031000464","-90.00767822999967",E,VACANT LOT,2422.96
NOR900666,"2305 BENTON","New Orleans","LA","70117","29.972506805000478","-90.0075834759997",E,VACANT LOT,2096.71
NOR900669,"2323-25 BENTON","New Orleans","LA","70117","29.963460089000478","-90.01192862799968",E,VACANT LOT,4200
NOR900670,"2333 BENTON","New Orleans","LA","70117","29.97303742000048","-90.00732290699966",E,VACANT LOT,2105.47
NOR900671,"2428 BENTON","New Orleans","LA","70117","29.973963628000433","-90.00693797399964",E,VACANT LOT,2105.68
NOR900672,"2241-43 BENTON","New Orleans","LA","70117","29.963460089000478","-90.01192862799968",E,VACANT LOT,2122.62
NOR900673,"2441 BENTON","New Orleans","LA","70117","29.974106942000446","-90.00680295099966",E,VACANT LOT,2114.17
NOR900674,"2326-28 BENTON","New Orleans","LA","70117","29.963460089000478","-90.01192862799968",E,VACANT LOT,2111.75
NOR900675,"2125-27 BENTON","New Orleans","LA","70117","29.963460089000478","-90.01192862799968",E,VACANT LOT,9508.38
NOR900676,"1935 CAFFIN","New Orleans","LA","70117","29.97009179400044","-90.01287068099964",E,VACANT LOT,4058.76
NOR900677,"1941 CAFFIN","New Orleans","LA","70117","29.97016167400045","-90.01285054599964",E,VACANT LOT,3589.34
NOR900679,"2125 CAFFIN","New Orleans","LA","70117","29.971990402000472","-90.01226070999968",E,VACANT LOT,3783.49
NOR900680,"1703 CHARBONNET","New Orleans","LA","70117","29.96693060400048","-90.01187103899969",E,VACANT LOT,3344.94
NOR900681,"1713 CHARBONNET","New Orleans","LA","70117","29.967181699000434","-90.01179049999968",E,VACANT LOT,3357
NOR900682,"1827 CHARBONNET","New Orleans","LA","70117","29.968460862000484","-90.01139016899964",E,VACANT LOT,3778.07
NOR900683,"1906 CHARBONNET","New Orleans","LA","70117","29.969140713000456","-90.01123974899969",E,VACANT LOT,4461.76
NOR900684,"1919 CHARBONNET","New Orleans","LA","70117","29.969430893000435","-90.01108103799965",E,VACANT LOT,7556.15
NOR900685,"2216 CHARBONNET","New Orleans","LA","70117","29.972440478000465","-90.01017022699966",E,STRUCTURE,3336.43
NOR900686,"2413 CHARBONNET","New Orleans","LA","70117","29.974411336000458","-90.00943115599966",E,VACANT LOT,3755.19
NOR900687,"2419 CHARBONNET","New Orleans","LA","70117","29.974490691000483","-90.00941102099966",E,VACANT LOT,3775.39
NOR900688,"2427 CHARBONNET","New Orleans","LA","70117","29.974651770000435","-90.00936127499966",E,VACANT LOT,3782.11
NOR900689,"2527 CHARBONNET","New Orleans","LA","70117","29.97569049700047","-90.00902134999967",E,VACANT LOT,3411.95
NOR900690,"2542 CHARBONNET","New Orleans","LA","70117","29.976030423000452","-90.00897989599969",E,VACANT LOT,3452.48
NOR900691,"2423 DELERY","New Orleans","LA","70117","29.972027119000472","-90.00183316799968",E,VACANT LOT,3529.64
NOR900692,"2227 GORDON","New Orleans","LA","70117","29.971537958000454","-90.00680295099966",E,VACANT LOT,2880.6
NOR900693,"2306 GORDON","New Orleans","LA","70117","29.97213490000047","-90.00657791299966",E,VACANT LOT,2115.04
NOR900694,"2334 GORDON","New Orleans","LA","70117","29.972664332000477","-90.00630786699969",E,VACANT LOT,2115.05
NOR900695,"2440-42 GORDON","New Orleans","LA","70117","29.95545350800046","-90.01458567899965",E,VACANT LOT,2494.73
NOR900696,"2535 GORDON","New Orleans","LA","70117","29.974696778000464","-90.00526321799964",E,VACANT LOT,2895.78
NOR900697,"2441 DELERY","New Orleans","LA","70117","29.97225689500044","-90.00172301799967",E,VACANT LOT,3539.35
NOR900698,"1312-14 GORDON","New Orleans","LA","70117","29.95545350800046","-90.01458567899965",E,VACANT LOT,3922.41
NOR900699,"2033 GORDON","New Orleans","LA","70117","29.969726996000475","-90.00765335699964",E,VACANT LOT,3907.22
NOR900700,"2422 GORDON","New Orleans","LA","70117","29.973423537000485","-90.00593833199969",E,VACANT LOT,2114.32
NOR900701,"2510 CHARBONNET","New Orleans","LA","70117","29.97537070700048","-90.00920019599965",E,VACANT LOT,3403.9
NOR900702,"2511 CHARBONNET","New Orleans","LA","70117","29.975440587000435","-90.00910070599969",E,VACANT LOT,3385.05
NOR900703,"2329 DELERY","New Orleans","LA","70117","29.97099786700045","-90.00234246399964",E,VACANT LOT,3764.97
NOR900704,"1630 GORDON","New Orleans","LA","70117","29.965943991000472","-90.00953775299968",E,VACANT LOT,3266.82
NOR900705,"6421 MARQUE","New Orleans","LA","70117","29.959976936000487","-90.00691191699968",E,VACANT LOT,2403.17
NOR900706,"2242 TRICOU","New Orleans","LA","70117","29.970713609000484","-90.00361807299964",E,VACANT LOT,4353.69
NOR900707,"2433 TRICOU","New Orleans","LA","70117","29.972506805000478","-90.00271318399967",E,VACANT LOT,5628.29
NOR900710,"13001 I-10 SERVICE ROAD","New Orleans","LA","70129","30.053236790000483","-89.95067096299965",E,VACANT LOT,170560.53
NOR900718,"2132 BENTON ST","New Orleans","LA","70117","29.971113939000475","-90.00830833499964",E,VACANT LOT,3330
NOR900719,"1214801 MURL ST","New Orleans","LA","70114","29.928480012000477","-90.02517845599965",C,VACANT LOT,
NOR900720,"1628 FORSTALL ST","New Orleans","LA","70117","29.96832939200044","-90.01942994099966",E,VACANT LOT,
NOR900721,"1514 ODEON","New Orleans","LA","70114","29.938988014000472","-90.02258876199966",C,VACANT LOT,
NOR900725,"919-29 N ROCHEBLAVE","New Orleans","LA","70119","29.963942786000473","-90.08480710899966",A,VACANT LOT,
NOR900736,"2325 BENTON ST","New Orleans","LA","70117","29.972817120000457","-90.00743305699967",E,VACANT LOT,2100
NOR900868,"1031 BELLEVILLE ST","New Orleans","LA","70114","29.944772670000475","-90.04847166299965",C,VACANT LOT,
NOR900869,"1220 BELLEVILLE ST","New Orleans","LA","70114","29.942799445000446","-90.04852851599969",C,VACANT LOT,
NOR900870,"1228 BELLEVILLE ST","New Orleans","LA","70114","29.94267863400046","-90.04853917499969",C,VACANT LOT,
NOR900871,"518 DIANA ST","New Orleans","LA","70114","29.944488412000453","-90.05035250599968",C,VACANT LOT,
NOR900872,"1301 ELMIRA AVE","New Orleans","LA","70114","29.94215275600044","-90.0475217669997",C,VACANT LOT,
NOR900873,"1052101 ELMIRA AVE","New Orleans","LA","70114","29.939852190000465","-90.04764824999967",C,VACANT LOT,
NOR900874,"422 HOMER ST","New Orleans","LA","70114","29.946537441000487","-90.05160205799967",C,VACANT LOT,
NOR900875,"509 HOMER ST","New Orleans","LA","70114","29.946523228000444","-90.05067940299966",C,VACANT LOT,
NOR900876,"839 BELLEVILLE ST/ 724 HOMER ST","New Orleans","LA","70114","29.94671273300048","-90.04834256299966",C,VACANT LOT,
NOR900877,"819 HOMER ST","New Orleans","LA","70114","29.946503093000445","-90.04773259199965",C,VACANT LOT,
NOR900878,"1102701 LEBOEUF ST","New Orleans","LA","70114","29.931513478000454","-90.04276813399969",C,VACANT LOT,
NOR900879,"1205 LEBOEUF ST","New Orleans","LA","70114","29.94294275800047","-90.04229259899967",C,VACANT LOT,
NOR900880,"1519 LEBOEUF ST","New Orleans","LA","70114","29.939543502000447","-90.04252237399965",C,VACANT LOT,
NOR900881,"1306 PTOLEMY ST","New Orleans","LA","70114","29.940138075000448","-90.04321880799966",C,VACANT LOT,
NOR900882,"1308 PTOLEMY ST","New Orleans","LA","70114","29.94012741600045","-90.04313945099966",C,VACANT LOT,
NOR900884,"1100 VALLETTE ST","New Orleans","LA","70114","29.944388922000485","-90.04946893699969",C,VACANT LOT,
NOR900885,"1202 LEBOEUF ST","New Orleans","LA","70114","29.943028035000452","-90.04222864099967",C,VACANT LOT,
NOR900886,"615 NEWTON ST","New Orleans","LA","70114","29.945533062000436","-90.04978991099966",C,VACANT LOT,
NOR900887,"416 NEWTON ST","New Orleans","LA","70114","29.94548151200047","-90.05193237999964",C,VACANT LOT,
NOR900888,"1231 NUNEZ ST","New Orleans","LA","70114","29.942599279000433","-90.05084166699964",C,VACANT LOT,
NOR900889,"827 VERRET ST","New Orleans","LA","70114","29.946976857000436","-90.05035250599968",C,VACANT LOT,
NOR900890,"831 VERRET ST","New Orleans","LA","70114","29.94688684200048","-90.05034184599964",C,VACANT LOT,
NOR900891,"341 SLIDELL ST","New Orleans","LA","70114","29.947502734000466","-90.05250931599966",C,VACANT LOT,
NOR900892,"1102301 THAYER ST","New Orleans","LA","70114","29.93042408700046","-90.04280798899964",C,VACANT LOT,
NOR900893,"834 ELMIRA AVE","New Orleans","LA","70114","29.94672813000045","-90.04716881299964",C,VACANT LOT,
NOR900894,"900 ELMIRA AVE","New Orleans","LA","70114","29.94634793600045","-90.04719842399965",C,VACANT LOT,
NOR900895,"909 HOMER ST","New Orleans","LA","70114","29.946462823000445","-90.04685139099968",C,VACANT LOT,
NOR900896,"9050001 ELMIRA ST","New Orleans","LA","70114","29.939852190000465","-90.04764824999967",C,VACANT LOT,
NOR900897,"1229-1231 BELLEVILLE ST","New Orleans","LA","70114","29.941331282000476","-90.04866678699966",C,VACANT LOT,
NOR900898,"1230 BELLEVILLE ST","New Orleans","LA","70114","29.942599279000433","-90.04853917499969",C,VACANT LOT,
NOR900899,"1066501 VERRET ST","New Orleans","LA","70114","29.941472991000467","-90.05071714399969",C,VACANT LOT,
NOR900902,"3201 LAMARQUE ST","New Orleans","LA","70114","29.941583056000468","-90.02231160999969",C,VACANT LOT,
NOR900903,"3205 PTOLEMY ST","New Orleans","LA","70114","29.939462962000448","-90.02214105499968",C,VACANT LOT,
NOR900963,"1914-1916 FORSTALL ST","New Orleans","LA","70117","29.956631467000477","-90.02335837599969",E,VACANT LOT,
ORL003526,"3220 LOUISA ST","New Orleans","LA","70126","29.990389020000464","-90.03547039999967",E,VACANT LOT,4735.19
ORL003964,"1335 JOURDAN AVE","New Orleans","LA","70117","29.966090859000474","-90.02420074299965",E,VACANT LOT,4389.81
ORL004054,"1235 TENNESSEE ST","New Orleans","LA","70117","29.964101050000465","-90.02271075599964",E,VACANT LOT,5047.27
ORL004127,"2239 CHARBONNET ST","New Orleans","LA","70117","29.972850284000458","-90.00997124699967",E,VACANT LOT,3748.45
ORL004314,"7100 DREUX AVE","New Orleans","LA","70126","30.01789337900044","-90.00472786499967",E,VACANT LOT,11710.8
ORL004573,"2338 MONTICELLO ST","New Orleans","LA","70117","29.972934376000467","-90.00679821399967",E,VACANT LOT,2138.11
ORL004731,"4531 MARQUE DR","New Orleans","LA","70127","30.01745396400048","-89.97649864799968",E,VACANT LOT,7184.98
ORL005076,"2428 FORSTALL ST","New Orleans","LA","70117","29.976381008000487","-90.01672001199967",E,VACANT LOT,2781.29
ORL005141,"5018 LAW ST","New Orleans","LA","70117","29.97791185200049","-90.01686971099969",E,VACANT LOT,6617.86
ORL005219,"5321 WILDAIR DR","New Orleans","LA","70122","30.01376334300045","-90.06683948699964",D,VACANT LOT,5170.14
ORL005403,"2801 EDNA ST","New Orleans","LA","70126","29.99311790000047","-90.04064153199965",E,VACANT LOT,6553.13
ORL005494,"14051 PARTRIDGE LN","New Orleans","LA","70128","30.064913255000477","-89.94652716399969",E,VACANT LOT,3630.06
ORL006118,"5620 CLEMENTS DR","New Orleans","LA","70126","30.023194797000485","-90.00114147299968",D,VACANT LOT,7652.45
ORL006137,"6027 NORTH GALVEZ ST","New Orleans","LA","70117","29.969756606000487","-90.00690007299966",E,VACANT LOT,3425.24
ORL006139,"1863 INDUSTRY ST","New Orleans","LA","70119","29.986338340000486","-90.06595236399966",D,VACANT LOT,4956.17
ORL006202,"1511 EGANIA","New Orleans","LA","70117","29.966330109000467","-90.01815077799967",E,VACANT LOT,3066.47
ORL006330,"6309 N GALVEZ ST","New Orleans","LA","70117","29.96872617000048","-90.00423041399966",E,VACANT LOT,4532.46
ORL006440,"4834 EVANGELINE DR","New Orleans","LA","70127","30.022947255000474","-89.98019163699968",E,VACANT LOT,5773.75
ORL006624,"1817 CLOUET ST","New Orleans","LA","70117","29.97521199600044","-90.04188042399966",D,VACANT LOT,4576.31
ORL006750,"6419 MUSIC ST","New Orleans","LA","70122","30.02500339000045","-90.05543954499967",D,VACANT LOT,6499.22
ORL006986,"4518 LONGFELLOW DR","New Orleans","LA","70127","30.017988132000482","-89.97805259299969",E,VACANT LOT,5755.08
ORL007150,"401 22ND ST","New Orleans","LA","70124","30.005017663000444","-90.12019950699965",A,VACANT LOT,4823.86
ORL007363,"7509 FOREST GLEN RD","New Orleans","LA","70127","30.04513716800045","-89.97683501999967",E,VACANT LOT,4449.45
ORL007494,"5726 CHAMBERLAIN DR","New Orleans","LA","70122","30.016678175000436","-90.07408215199968",D,VACANT LOT,7383.08
ORL007708,"3208 CLOUET ST","New Orleans","LA","70126","29.990579710000475","-90.03729083699966",E,VACANT LOT,5231.78
ORL008158,"7711 HENLEY ST","New Orleans","LA","70126","30.032010357000445","-90.01887089999968",D,VACANT LOT,7054.73
ORL008167,"2625 FORSTALL ST","New Orleans","LA","70117","29.978401611000436","-90.01597027999969",E,VACANT LOT,3841.63
ORL008352,"3111 NORTH MIRO ST","New Orleans","LA","70117","29.978857609000443","-90.04043425999964",D,VACANT LOT,3409.03
ORL008362,"2318 LIZARDI ST","New Orleans","LA","70117","29.97495024200049","-90.01626046099966",E,VACANT LOT,3813.79
ORL008488,"5240 LAKEVIEW CT","New Orleans","LA","70126","30.024079551000455","-90.01177391799968",E,STRUCTURE,3316.04
ORL008933,"301 HAMMOND HWY","New Orleans","LA","70124","30.019617879000464","-90.11664864699969",A,VACANT LOT,
ORL009152,"8930 OLIVE ST","New Orleans","LA","70118","29.968958314000474","-90.12013910199965",A,VACANT LOT,3626.14
ORL009261,"1924 -26 N DERBIGNY ST","New Orleans","LA","70116","29.965621156000452","-90.07386891599964",C,VACANT LOT,3173.54
ORL009337,"4500 WERNER DR","New Orleans","LA","70126","30.015857379000465","-89.9933717459997",E,VACANT LOT,5846.51
ORL009435,"5141 DESIRE DR","New Orleans","LA","70126","30.013837960000444","-90.03588968099967",D,VACANT LOT,5831.53
ORL009439,"5316 N PRIEUR ST","New Orleans","LA","70117","29.970033758000454","-90.01640614299964",E,VACANT LOT,3812.81
ORL009480,"7500 HORIZON DR","New Orleans","LA","70129","30.058658387000435","-89.92774953499969",E,VACANT LOT,5830.66
ORL009700,"6730 DORIAN ST","New Orleans","LA","70126","30.02235031300046","-90.02006952199969",D,VACANT LOT,8122.67
ORL009932,"4601 CERISE AVE","New Orleans","LA","70127","30.018563755000457","-89.98128958499967",E,VACANT LOT,5716.67
ORL010098,"6125 EADS ST","New Orleans","LA","70122","30.021816809000484","-90.05063819599968",D,VACANT LOT,7291.19
ORL010310,"1305 ALABO ST","New Orleans","LA","70117","29.962697525000465","-90.01230216399966",E,VACANT LOT,4235.2
ORL010415,"5200 GLOUSTER RD","New Orleans","LA","70127","30.025655999000435","-89.98422218199966",E,VACANT LOT,7100.16
ORL010542,"7511 SHOREWOOD BLVD","New Orleans","LA","70128","30.066772777000438","-89.94368102799967",E,VACANT LOT,3692.61
ORL011194,"2809 N TONTI ST","New Orleans","LA","70117","29.981027447000486","-90.04508425199964",D,VACANT LOT,3086.81
ORL011303,"7126 E LAVERNE","New Orleans","LA","70126","30.02556953700048","-90.01808918899968",D,VACANT LOT,8065.35
ORL012020,"13901 EXPLORERS AVE","New Orleans","LA","70129","30.059692791000487","-89.92583783799967",E,VACANT LOT,6049.62
ORL012062,"4845 LONGFELLOW DR","New Orleans","LA","70127","30.023274152000454","-89.97853938499969",E,VACANT LOT,6668.65
ORL012159,"14906 CURRAN RD","New Orleans","LA","70128","30.07138842100045","-89.94301301999968",E,VACANT LOT,3460.58
ORL012186,"2630 GORDON ST","New Orleans","LA","70117","29.975245854000434","-90.00506455499965",E,VACANT LOT,2582.27
ORL012472,"8627 PALM ST","New Orleans","LA","70118","29.968452571000455","-90.11614171999969",A,VACANT LOT,5186.94
ORL012752,"2509 CHARBONNET ST","New Orleans","LA","70117","29.97541097700048","-90.0091208399997",E,VACANT LOT,3947.65
ORL012835,"2327 CLOUET ST","New Orleans","LA","70117","29.98055131400048","-90.04028028699969",D,VACANT LOT,4493.08
ORL012985,"5827 PARIS AVE","New Orleans","LA","70122","30.01745277900045","-90.07506876499968",D,VACANT LOT,7406.83
ORL012995,"5001 NORTH MIRO ST","New Orleans","LA","70117","29.973857031000477","-90.01834383799968",E,VACANT LOT,4259.66
ORL013001,"5172 WICKFIELD DR","New Orleans","LA","70122","30.01078810600046","-90.06793269699966",D,VACANT LOT,
ORL013607,"1420 JOURDAN AVE","New Orleans","LA","70117","29.96716038000045","-90.02409059299964",E,VACANT LOT,4377.26
ORL013754,"1309 S GAYOSO ST","New Orleans","LA","70125","29.95493845800047","-90.10113406499966",B,VACANT LOT,3470.67
ORL013961,"4876 CARDENAS DR","New Orleans","LA","70127","30.02479730200048","-89.96576197499968",E,VACANT LOT,5683.62
ORL014171,"5315 ST ANTHONY AVE","New Orleans","LA","70122","30.012863192000452","-90.06496930399965",D,VACANT LOT,7197.92
ORL014392,"6004 N MIRO ST","New Orleans","LA","70117","29.970874688000436","-90.00691073199965",E,VACANT LOT,3464.48
ORL014710,"6420 NORTH DORGENOIS ST","New Orleans","LA","70117","29.972274661000483","-90.00124096399969",E,VACANT LOT,5202.04
ORL014852,"7539 EXPEDITION DR","New Orleans","LA","70129","30.06313427100048","-89.92550507799967",E,VACANT LOT,5781.45
ORL014981,"7655 EXPEDITION DR","New Orleans","LA","70129","30.06387452700045","-89.92664566499968",E,VACANT LOT,7929.1
ORL015015,"1931 MONTEGUT ST","New Orleans","LA","70117","29.97689148900048","-90.04328039699965",D,VACANT LOT,3655.81
ORL015039,"3412 N VILLERE","New Orleans","LA","70117","29.969673697000474","-90.03929722699968",C,VACANT LOT,2805.51
ORL015041,"4109 EDEN ST","New Orleans","LA","70125","29.952085215000466","-90.10214673599967",B,STRUCTURE,5524.11
ORL015104,"1843 ALABO ST","New Orleans","LA","70117","29.96857101200044","-90.01037157699966",E,VACANT LOT,3957.33
ORL015315,"4651 GALAHAD DR","New Orleans","LA","70127","30.01871417500047","-89.98577968099966",E,VACANT LOT,5722.67
ORL015347,"4958 SHERWOOD DR","New Orleans","LA","70128","30.027828206000436","-89.95222180499968",E,VACANT LOT,6030.89
ORL015782,"3310 PAUGER ST","New Orleans","LA","70119","29.983817916000476","-90.06167190899964",D,STRUCTURE,
ORL015806,"6004 WICKFIELD DR","New Orleans","LA","70122","30.019158328000458","-90.06890272799967",D,VACANT LOT,4779.05
ORL015907,"4634 LONGFELLOW DR","New Orleans","LA","70127","30.019487594000452","-89.97820182799967",E,VACANT LOT,5525.76
ORL016203,"2227 BENTON ST","New Orleans","LA","70117","29.971877883000445","-90.00788313199968",E,VACANT LOT,2230.66
ORL016294,"4826 GALAHAD DR","New Orleans","LA","70127","30.022368079000444","-89.98619185599966",E,VACANT LOT,5684.4
ORL016303,"13919 EXPLORERS AVE","New Orleans","LA","70129","30.059738190000473","-89.92581797599968",E,VACANT LOT,5739.18
ORL016332,"1827 CLOUET ST","New Orleans","LA","70117","29.97545124700048","-90.04181054399965",D,VACANT LOT,3563.67
ORL016410,"5929 NORTH CLAIBORNE AVE","New Orleans","LA","70117","29.965286644000457","-90.01047106699968",E,VACANT LOT,3261.54
ORL016618,"5169 MUSIC ST","New Orleans","LA","70122","30.011542575000476","-90.05463888499969",D,VACANT LOT,5894.56
ORL016909,"1815 DELERY ST","New Orleans","LA","70117","29.965997289000484","-90.0047326029997",E,VACANT LOT,2624.24
ORL017080,"3138 FELICIANA ST","New Orleans","LA","70126","29.99024926000044","-90.03830113799967",E,VACANT LOT,4202.64
ORL017108,"5459 -61 SAINT CLAUDE AVE","New Orleans","LA","70117","29.96990075500048","-90.03053993999964",E,VACANT LOT,5282.02
ORL017162,"6531 AVENUE A","New Orleans","LA","70124","30.011148166000453","-90.11626845099966",A,VACANT LOT,6015.02
ORL017172,"5147 WILDAIR DR","New Orleans","LA","70122","30.009977970000477","-90.06694253099965",D,VACANT LOT,9528.19
ORL017184,"4939 PAULINE DR","New Orleans","LA","70126","30.013030193000475","-90.03222037999967",D,VACANT LOT,5353.39
ORL017873,"3017 N PRIEUR ST","New Orleans","LA","70117","29.976116885000465","-90.04303403899968",D,VACANT LOT,3526.09
ORL017937,"2727 CLOUET ST","New Orleans","LA","70126","29.985601637000457","-90.03874055399967",E,VACANT LOT,5259.97
ORL017981,"5017 5017 12 NORTH MIRO ST","New Orleans","LA","70117","29.96990075500048","-90.03053993999964",E,VACANT LOT,4215.5
ORL018021,"6412 NORTH TONTI","New Orleans","LA","70117","29.970325122000474","-90.00223112999964",E,VACANT LOT,
ORL018151,"1017 TRICOU ST","New Orleans","LA","70117","29.958356664000462","-90.00949274499965",E,VACANT LOT,3809.07
ORL018262,"4700 HAUCK DR","New Orleans","LA","70127","30.02316755500044","-89.9626825099997",E,VACANT LOT,7772.74
ORL018496,"5929 SPAIN ST","New Orleans","LA","70122","30.019892662000473","-90.05730854399968",D,VACANT LOT,2873.98
ORL018552,"5415 N MIRO ST","New Orleans","LA","70117","29.97294740500047","-90.01438435699964",E,VACANT LOT,3950.75
ORL018593,"4429 MAJESTIC OAKS DR","New Orleans","LA","70126","30.013393807000455","-90.01553915599965",D,VACANT LOT,8041.6
ORL018772,"2609 CAFFIN AVE","New Orleans","LA","70117","29.97683108400048","-90.01067123199965",E,VACANT LOT,3916.14
ORL018778,"4534 DALE ST","New Orleans","LA","70126","30.016467350000482","-90.01035262699969",E,VACANT LOT,5988.53
ORL018828,"7251 VOYAGEUR DR","New Orleans","LA","70129","30.057343692000472","-89.92453386299968",E,VACANT LOT,5783.47
ORL018856,"401 26TH ST","New Orleans","LA","70124","30.006687680000482","-90.12017937199965",A,VACANT LOT,5993
ORL019304,"7940 TULSA ST","New Orleans","LA","70126","30.015576996000448","-89.99430505799967",E,VACANT LOT,4852.11
ORL019456,"2427 CAFFIN AVE","New Orleans","LA","70117","29.975061576000485","-90.01126106899966",E,VACANT LOT,6458.19
ORL019527,"5920 NORTH GALVEZ ST","New Orleans","LA","70117","29.970544238000457","-90.00921914599968",E,VACANT LOT,13703.67
ORL019786,"2428 TUPELO ST","New Orleans","LA","70117","29.973254167000448","-90.00498843499969",E,VACANT LOT,2897.25
ORL019871,"5142 FELICIANA DR","New Orleans","LA","70126","30.012634601000457","-90.04065811399965",D,VACANT LOT,5919.31
ORL019943,"4700 HAYDEL ST","New Orleans","LA","70126","30.017217081000467","-90.01188169899967",E,VACANT LOT,4347.04
ORL020060,"4958 MAID MARION DR","New Orleans","LA","70128","30.027247846000478","-89.95543155499968",E,VACANT LOT,5452.82
ORL020126,"4834 CORINNE ST","New Orleans","LA","70127","30.02511709300046","-89.96137255299965",E,VACANT LOT,6629.02
ORL020218,"4643 REDWOOD ST","New Orleans","LA","70127","30.020643578000488","-89.96909964199966",E,VACANT LOT,6137.9
ORL020291,"6761 MORRISON RD","New Orleans","LA","70126","30.029827490000457","-90.01272855199966",D,VACANT LOT,7333.22
ORL020379,"1400 TRICOU ST","New Orleans","LA","70117","29.962093475000472","-90.00776824499968",E,VACANT LOT,3090.69
ORL020383,"11327 WILL STUTLEY DR","New Orleans","LA","70128","30.027868476000435","-89.95476117899966",E,VACANT LOT,7008.45
ORL020857,"1828 FILMORE AVE","New Orleans","LA","70122","30.011784195000473","-90.06874993999969",D,VACANT LOT,7948.06
ORL020958,"4434 KNIGHT DR","New Orleans","LA","70127","30.01628732000046","-89.98266231599968",E,VACANT LOT,5785.13
ORL020969,"4716 ST CLAUDE AVE","New Orleans","LA","70117","29.96337382200045","-90.02601644199967",E,VACANT LOT,6120.93
ORL020971,"11131 SOUTH IDLEWOOD CT","New Orleans","LA","70128","30.030894643000465","-89.95728515599967",E,VACANT LOT,6850.52
ORL021026,"2028 -30 INDEPENDENCE ST","New Orleans","LA","70117","29.96990075500048","-90.03053993999964",D,VACANT LOT,3690.21
ORL021068,"4958 LURLINE ST","New Orleans","LA","70127","30.025907094000445","-89.97131211899966",E,VACANT LOT,6150.56
ORL021111,"4940 LAFAYE ST","New Orleans","LA","70122","30.009858344000463","-90.04887199399968",D,VACANT LOT,6157.65
ORL021370,"2232 ST MAURICE AVE","New Orleans","LA","70117","29.97091495900048","-90.00463784999965",E,VACANT LOT,3341.49
ORL021542,"4529 WERNER DR","New Orleans","LA","70126","30.01633351200047","-89.99335871799968",E,VACANT LOT,5936.9
ORL021691,"2875 LAW ST","New Orleans","LA","70117","29.984195611000473","-90.04431733699965",D,VACANT LOT,3764.55
ORL021827,"4666 GAWAIN DR","New Orleans","LA","70127","30.018998433000434","-89.98666206699966",E,VACANT LOT,6407.06
ORL021890,"4743 BUNDY RD","New Orleans","LA","70127","30.02145371500046","-89.97905934099964",E,VACANT LOT,5452.28
ORL021968,"4818 DALE ST","New Orleans","LA","70126","30.01914766800047","-90.01062148699964",E,VACANT LOT,6245.69
ORL022085,"5169 LAKEVIEW CT","New Orleans","LA","70126","30.023573807000446","-90.01207594299967",E,STRUCTURE,2289.54
ORL022398,"7245 BENSON CT","New Orleans","LA","70127","30.036245805000476","-89.99275466899968",E,VACANT LOT,9963.54
ORL022446,"2420 DELERY ST","New Orleans","LA","70117","29.97201409000047","-90.00190778599966",E,VACANT LOT,6565.26
ORL022778,"2437 ROFFIGNAC ST","New Orleans","LA","70117","29.97440778200047","-90.00788194799969",E,VACANT LOT,2114.17
ORL022987,"2238 SAINT MAURICE AVE","New Orleans","LA","70117","29.97099431400045","-90.00458810499964",E,VACANT LOT,3360.61
ORL023116,"4943 -45 CAMELIA ST","New Orleans","LA","70126","30.018512677000444","-90.01959921599968",E,VACANT LOT,5680.65
ORL023178,"4819 HAUCK DR","New Orleans","LA","70127","30.024714394000455","-89.9627796319997",E,VACANT LOT,5412
ORL023221,"2219 DELERY ST","New Orleans","LA","70117","29.96968791000046","-90.00296309499964",E,VACANT LOT,3521.4
ORL023256,"5175 METROPOLITAN DR","New Orleans","LA","70126","30.01340802000044","-90.03944054099969",D,VACANT LOT,
ORL023626,"13945 INTREPID ST","New Orleans","LA","70129","30.06142281400048","-89.92527605199967",E,VACANT LOT,7362.55
ORL023792,"6100 N PRIEUR ST","New Orleans","LA","70117","29.967584399000486","-90.00734067299965",E,VACANT LOT,4707.62
ORL023816,"2222 NORTH BROAD AVE","New Orleans","LA","70119","29.988220366000462","-90.06720902299969",D,VACANT LOT,4307.33
ORL024203,"4401 FLITE ST","New Orleans","LA","70126","30.01254340100047","-90.02027916299966",D,STRUCTURE,4253.93
ORL024343,"1423 FORSTALL ST","New Orleans","LA","70117","29.965970048000486","-90.02018085699967",E,VACANT LOT,4824.64
ORL024508,"4925 CHARLENE DR","New Orleans","LA","70127","30.023853328000484","-89.98408952899968",E,VACANT LOT,6128.23
ORL025280,"4232 AMERICA ST","New Orleans","LA","70126","30.012177418000476","-90.00899173999966",E,VACANT LOT,3165.52
ORL025361,"2616 PORT ST","New Orleans","LA","70117","29.984639896000488","-90.04434991799968",D,VACANT LOT,4239.37
ORL025442,"2237 -2239 MONTECILLO ST","New Orleans","LA","70117","29.96990075500048","-90.03053993999964",E,VACANT LOT,2117.9
ORL025466,"4221 CLIO ST","New Orleans","LA","70125","29.955915595000477","-90.09974593799967",B,VACANT LOT,4072.98
ORL025578,"4759 SANDALWOOD ST","New Orleans","LA","70127","30.022574165000435","-89.97011941799968",E,VACANT LOT,6258.51
ORL025600,"1407 TUPELO ST","New Orleans","LA","70117","29.96298652000047","-90.00969290999967",E,VACANT LOT,3778.56
ORL025895,"14040 INTREPID ST","New Orleans","LA","70129","30.06215532200048","-89.92488310299967",E,VACANT LOT,6601.88
ORL025931,"2901 METROPOLITAN ST","New Orleans","LA","70126","29.98713070900044","-90.03734058199967",E,VACANT LOT,5047.43
ORL026245,"1958 -60 NORTH TONTI ST","New Orleans","LA","70119","29.974693297000442","-90.08794615199969",D,VACANT LOT,5076.96
ORL026309,"2415 PRESSBURG ST","New Orleans","LA","70122","30.01920807400046","-90.05565273899964",D,VACANT LOT,4688.62
ORL026434,"2109 ALVAR ST","New Orleans","LA","70117","29.97632178800046","-90.03320107099967",D,VACANT LOT,
ORL026598,"4943 WARREN DR","New Orleans","LA","70127","30.02562283600048","-89.96647854299965",E,VACANT LOT,5560.68
ORL026636,"4914 EASTVIEW DR","New Orleans","LA","70126","30.022567059000437","-89.99296194099969",E,VACANT LOT,8183.04
ORL026667,"5820 NORTH GALVEZ","New Orleans","LA","70117","29.970794148000437","-90.0100269139997",E,VACANT LOT,3973.94
ORL026823,"2033 DELERY ST","New Orleans","LA","70117","29.968427698000482","-90.00355293099966",E,VACANT LOT,4942.69
ORL027373,"2835 NORTH TONTI ST","New Orleans","LA","70117","29.98088768700046","-90.04454416199968",D,VACANT LOT,3115.24
ORL027827,"2104 ST FERDINAND","New Orleans","LA","70122","30.00727214800048","-90.06344901099965",D,VACANT LOT,4641.32
ORL027848,"5006 LAW ST","New Orleans","LA","70117","29.977863889000446","-90.01668684899965",E,VACANT LOT,5475.97
ORL028036,"8516 EDINBURGH ST","New Orleans","LA","70118","29.966867830000467","-90.11589891499966",A,VACANT LOT,4989.68
ORL028285,"1622 ST MAURICE AVE","New Orleans","LA","70117","29.964833015000465","-90.00757873899965",E,VACANT LOT,3922.85
ORL028457,"6060 BOEING ST","New Orleans","LA","70126","30.014117481000483","-90.01915278999968",D,VACANT LOT,2388.47
ORL028518,"721 TRICOU ST","New Orleans","LA","70117","29.955697664000468","-90.01075295699968",E,VACANT LOT,6166.97
ORL028668,"3017 BENEFIT ST","New Orleans","LA","70126","29.99065788100046","-90.03866475199965",E,VACANT LOT,12522
ORL028937,"2914 CLOUET ST","New Orleans","LA","70126","29.98757960000046","-90.03820046399966",E,VACANT LOT,5186.22
ORL028980,"2129 LAMANCHE ST","New Orleans","LA","70117","29.971830507000448","-90.01117105399965",E,VACANT LOT,3305.09
ORL029484,"1738 EGANIA ST","New Orleans","LA","70117","29.96895949800046","-90.01736077799967",E,VACANT LOT,7000
ORL029532,"1327 CAFFIN AVE","New Orleans","LA","70117","29.963910360000455","-90.01488062399966",E,VACANT LOT,3894.87
ORL029544,"4835 BRIGHT","New Orleans","LA","70127","30.025313705000485","-89.95870881599967",E,VACANT LOT,6621.31
ORL029558,"2121 N ROCHEBLAVE ST","New Orleans","LA","70119","29.981567538000434","-90.06076228099965",D,VACANT LOT,2217.68
ORL029589,"6006 BEECHCRAFT ST","New Orleans","LA","70126","30.014738112000487","-90.01976275999965",D,STRUCTURE,2027.36
ORL029617,"9126 PEACH ST","New Orleans","LA","70118","29.97451793200048","-90.11722900699965",A,STRUCTURE,2703.19
ORL029715,"4927 TULIP ST","New Orleans","LA","70126","30.020224297000482","-90.00252960099965",E,VACANT LOT,6322.41
ORL029782,"2510 ALABO ST","New Orleans","LA","70117","29.975090002000456","-90.00833083899965",E,VACANT LOT,4013.73
ORL029820,"2413 TRICOU ST","New Orleans","LA","70117","29.97231729900045","-90.00280319999968",E,VACANT LOT,4802.5
ORL029948,"5631 MARAIS ST","New Orleans","LA","70117","29.96190752400048","-90.01460465599968",E,VACANT LOT,6006.22
ORL030013,"4819 GAWAIN DR","New Orleans","LA","70127","30.022164360000488","-89.98685867799969",E,VACANT LOT,5914.47
ORL030074,"7150 VIRGILIAN ST","New Orleans","LA","70126","30.02588932800046","-90.01921911599965",D,VACANT LOT,7448.87
ORL030461,"2600 FORSTALL ST","New Orleans","LA","70117","29.97791008100046","-90.01619058099965",E,VACANT LOT,2664.08
ORL030478,"2536 - 2538 TRICOU ST","New Orleans","LA","70117","29.973604753000473","-90.00222757699964",E,VACANT LOT,3613.29
ORL030484,"1404 DELERY ST","New Orleans","LA","70117","29.96190278600045","-90.00678873799967",E,VACANT LOT,4818.36
ORL030754,"3608 VICTORIA ST","New Orleans","LA","70126","30.006877185000462","-90.01984211499968",E,VACANT LOT,6003.15
ORL030901,"2016 LAMANCHE ST","New Orleans","LA","70117","29.97057029500047","-90.01165073899966",E,VACANT LOT,3999.78
ORL030933,"2645 EGANIA ST","New Orleans","LA","70117","29.97833054600045","-90.01414155199967",E,VACANT LOT,3645.62
ORL031089,"2623 TUPELO ST","New Orleans","LA","70117","29.975017753000486","-90.00391299099965",E,VACANT LOT,3334.67
ORL031092,"4568 CAMELOT DR","New Orleans","LA","70127","30.01810775700045","-89.98208195399968",E,VACANT LOT,7500.86
ORL031135,"2541 FORSTALL ST","New Orleans","LA","70117","29.97768030600048","-90.01620124099969",E,VACANT LOT,
ORL031272,"5829 EADS ST","New Orleans","LA","70122","30.019172541000444","-90.05042949299968",D,VACANT LOT,3988.47
ORL031311,"4529 WILSON AVE 4531 WILSON AVE","New Orleans","LA","70126","30.016004246000477","-89.99902967099968",E,VACANT LOT,5006.31
ORL031650,"1722 -24 CLOUET ST","New Orleans","LA","70117","29.96990075500048","-90.03053993999964",C,STRUCTURE,3636.72
ORL031703,"2139 ANDRY ST","New Orleans","LA","70117","29.97287989400047","-90.01480126899969",E,VACANT LOT,3088.38
ORL031943,"4912 BURGUNDY ST","New Orleans","LA","70117","29.96075390800047","-90.02444709999969",E,VACANT LOT,5678.94
ORL031952,"2839 LOUISA ST","New Orleans","LA","70126","29.98659061900048","-90.03659085099969",E,VACANT LOT,4683.22
ORL031982,"2620 ANNETTE ST 2622 ANNETTE STREET","New Orleans","LA","70119","29.984027556000456","-90.06399216699964",D,VACANT LOT,7760.46
ORL032037,"5417 URQUHART ST","New Orleans","LA","70117","29.963627286000474","-90.01733472099966",E,VACANT LOT,4265.82
ORL032134,"2633 GORDON ST","New Orleans","LA","70117","29.975607589000447","-90.00482261799965",E,VACANT LOT,2870.02
ORL032165,"7101 READ BLVD","New Orleans","LA","70127","30.039828644000465","-89.97799574199968",E,VACANT LOT,8148.79
ORL032320,"7330 WEAVER AVE","New Orleans","LA","70127","30.04241421000046","-89.98347600399967",E,VACANT LOT,5123.78
ORL032322,"2541 ANDRY ST","New Orleans","LA","70117","29.977050200000463","-90.01339182199968",E,VACANT LOT,2851.07
ORL032367,"3714 METROPOLITAN ST","New Orleans","LA","70126","29.995967590000475","-90.03556159899966",E,VACANT LOT,3276.77
ORL032922,"5003 N TONTI ST","New Orleans","LA","70117","29.974847198000475","-90.01789494599967",E,VACANT LOT,4110.41
ORL033432,"4720 CHRYSLER ST","New Orleans","LA","70127","30.02386754100047","-89.96038238699964",E,VACANT LOT,6626.81
ORL033775,"1731 BENTON ST","New Orleans","LA","70117","29.96714735100045","-90.01013232599968",E,VACANT LOT,
ORL033883,"3121 NORTH DORGENOIS ST","New Orleans","LA","70117","29.98190746400047","-90.03924392799968",D,VACANT LOT,4967.95
ORL033957,"10101 CHEVY CHASE DR","New Orleans","LA","70127","30.041195453000455","-89.97777425699968",E,VACANT LOT,6687.41
ORL034161,"7434 ADVENTURE AVE","New Orleans","LA","70129","30.06080098400048","-89.92641352099969",E,VACANT LOT,6019.21
ORL034205,"2701 ANNETTE ST","New Orleans","LA","70119","29.984513165000465","-90.06396847799965",D,VACANT LOT,5075.33
ORL034268,"13731 PIERRE'S CT","New Orleans","LA","70129","30.060176151000462","-89.92886701899965",E,VACANT LOT,7921.57
ORL034644,"6018 BEECHCRAFT ST","New Orleans","LA","70126","30.014747587000443","-90.01963247499964",D,STRUCTURE,2110.47
ORL034728,"1323 REYNES ST","New Orleans","LA","70117","29.965159912000445","-90.0213913239997",E,VACANT LOT,6015.82
ORL034771,"5408 N GALVEZ ST","New Orleans","LA","70117","29.97186367100045","-90.01469704099969",E,VACANT LOT,4475.62
ORL034848,"6710 CURRAN RD","New Orleans","LA","70126","30.033224376000476","-90.01548230399965",D,VACANT LOT,7071.03
ORL034977,"2239 ANDRY ST","New Orleans","LA","70117","29.973830974000464","-90.01450042799968",E,VACANT LOT,4044.69
ORL035229,"7518 SHOREWOOD BLVD","New Orleans","LA","70128","30.066888849000463","-89.94390014299967",E,VACANT LOT,3671
ORL035278,"3045 LOUISA ST","New Orleans","LA","70126","29.988791252000453","-90.03589086499966",E,VACANT LOT,4781.13
ORL035287,"4853 LONGFELLOW DR","New Orleans","LA","70127","30.023454182000478","-89.97855951999969",E,VACANT LOT,5719.89
ORL035346,"7530 AVON PARK BLVD","New Orleans","LA","70128","30.06657498000044","-89.94466290299965",E,VACANT LOT,4275.42
ORL035366,"4683 LANCELOT DR","New Orleans","LA","70127","30.019423636000454","-89.98508916999964",E,VACANT LOT,5574.46
ORL035389,"4918 REDWOOD ST","New Orleans","LA","70127","30.025188157000457","-89.96961249099968",E,VACANT LOT,6335.91
ORL035449,"2024 ANDRY ST","New Orleans","LA","70117","29.97126805600044","-90.01540278799968",E,VACANT LOT,3933.68
ORL035539,"2512 GORDON ST","New Orleans","LA","70117","29.97425380900046","-90.0055486609997",E,VACANT LOT,2125.47
ORL035781,"3414 LOWERLINE ST","New Orleans","LA","70125","29.96144915700046","-90.11006332999966",B,VACANT LOT,3292.86
ORL035917,"2029 FRANCE ST","New Orleans","LA","70117","29.975121981000484","-90.03054088799968",D,VACANT LOT,4128.84
ORL035953,"2010 EGANIA ST","New Orleans","LA","70117","29.971481106000454","-90.01651037199969",E,VACANT LOT,3362.1
ORL036063,"3305 METROPOLITAN ST","New Orleans","LA","70126","29.991431300000443","-90.03604128499967",E,VACANT LOT,3722.67
ORL036122,"2915 METROPOLITAN ST","New Orleans","LA","70126","29.98736166900045","-90.03726122699965",E,VACANT LOT,5038.75
ORL036201,"2408 BARTHOLOMEW ST","New Orleans","LA","70117","29.979238988000475","-90.03134036299969",D,VACANT LOT,4799.86
ORL036315,"7301 LIGUSTRUM DR","New Orleans","LA","70126","30.033571408000455","-90.00270133999965",D,VACANT LOT,7993.95
ORL036329,"1337 DESLONDE ST","New Orleans","LA","70117","29.965840948000448","-90.02315135599969",E,VACANT LOT,4235.91
ORL036371,"3225 LIVINGSTON ST","New Orleans","LA","70118","29.971490170000436","-90.12539324999966",A,VACANT LOT,9772.54
ORL036400,"2138 PIETY","New Orleans","LA","70117","29.97815999100044","-90.03826086899966",D,VACANT LOT,3609.6
ORL036410,"1636 LIZARDI ST 1638 LIZARDI ST","New Orleans","LA","70117","29.96822042600047","-90.01850965499966",E,VACANT LOT,3704.94
ORL036465,"1311 LIZARDI ST","New Orleans","LA","70117","29.96447058600046","-90.01971064599968",E,STRUCTURE,3460.37
ORL036583,"2330 CHARBONNET ST","New Orleans","LA","70117","29.97371134900044","-90.00972962699967",E,VACANT LOT,3074.89
ORL036596,"223 12TH ST","New Orleans","LA","70124","30.00079761200044","-90.11817890399965",A,VACANT LOT,5984.98
ORL036696,"1425 DESLONDE ST","New Orleans","LA","70117","29.966559885000436","-90.02289078599966",E,VACANT LOT,4255.77
ORL036798,"6107 NORTH GALVEZ ST","New Orleans","LA","70117","29.969496035000475","-90.00625101599968",E,VACANT LOT,4381.35
ORL037043,"2110 TRICOU ST","New Orleans","LA","70117","29.96913360600047","-90.00437846399967",E,VACANT LOT,4568.77
ORL037729,"3426 METROPOLITAN ST","New Orleans","LA","70126","29.992828904000476","-90.03568122399969",E,VACANT LOT,3865.12
ORL037806,"3425 METROPOLITAN ST","New Orleans","LA","70126","29.99278152700049","-90.03563029499969",E,VACANT LOT,6226.8
ORL037815,"4761 HAYDEL ST","New Orleans","LA","70126","30.018383725000433","-90.01192907499967",E,VACANT LOT,3628.96
ORL037868,"3020 N GALVEZ ST","New Orleans","LA","70117","29.97806405500046","-90.04246670699968",D,VACANT LOT,5194.13
ORL037921,"4763 PECAN ST","New Orleans","LA","70127","30.017834158000483","-90.00314904699968",E,VACANT LOT,8114.79
ORL037978,"6419 BELLAIRE DR","New Orleans","LA","70124","30.009017414000482","-90.12120862299969",A,VACANT LOT,5244.8
ORL037999,"3139 N DERBIGNY","New Orleans","LA","70117","29.973547901000472","-90.04144456099965",C,VACANT LOT,4621.5
ORL038576,"1401 TRICOU ST","New Orleans","LA","70117","29.96206741800046","-90.00771257799965",E,STRUCTURE,
ORL038841,"4621 PAPANIA DR","New Orleans","LA","70127","30.02271392600045","-89.95933892299968",E,VACANT LOT,6597.03
ORL039145,"1820 PAULINE ST","New Orleans","LA","70117","29.973839265000436","-90.03495044399966",D,VACANT LOT,3539.18
ORL039297,"2135 PIETY ST","New Orleans","LA","70117","29.978071161000457","-90.03822059899966",D,VACANT LOT,3198.71
ORL039303,"4768 DODT AVE","New Orleans","LA","70126","30.020827161000454","-89.99174199899966",E,VACANT LOT,5643.48
ORL039337,"7614 LEHIGH ST","New Orleans","LA","70127","30.048264009000434","-89.97495536199966",E,VACANT LOT,7849.96
ORL039666,"1438 TENNESSE ST","New Orleans","LA","70117","29.966620289000446","-90.02193970499968",E,VACANT LOT,5755.52
ORL039938,"1827 INDEPENDENCE ST","New Orleans","LA","70117","29.97397192000045","-90.03571083499969",D,VACANT LOT,
ORL039956,"4774 LANCELOT DR","New Orleans","LA","70127","30.021247627000434","-89.98533197499967",E,VACANT LOT,5621.96
ORL040037,"6307 N DORGENOIS ST","New Orleans","LA","70117","29.972736580000458","-90.00230100999966",E,VACANT LOT,5613.02
ORL040147,"4778 DONNA DR","New Orleans","LA","70127","30.022077898000475","-89.97412153799968",E,VACANT LOT,5947.05
ORL040279,"4811 GALAHAD DR","New Orleans","LA","70127","30.02204355000049","-89.98610894699965",E,VACANT LOT,5960.96
ORL040668,"6419 N VILLERE ST","New Orleans","LA","70117","29.96186725400048","-90.00627115099968",E,VACANT LOT,2610.07
ORL040758,"4656 MARQUE DR","New Orleans","LA","70127","30.020115332000444","-89.97688121199968",E,VACANT LOT,6035.74
ORL040760,"6041 WICKFIELD DR","New Orleans","LA","70122","30.020292993000453","-90.06892878499968",D,VACANT LOT,4732.18
ORL040869,"4535 WERNER DR","New Orleans","LA","70126","30.01647445600048","-89.99336937799967",E,VACANT LOT,5994.3
ORL040897,"4947 CHARLENE DR","New Orleans","LA","70127","30.024303403000488","-89.98412861399964",E,VACANT LOT,7919.55
ORL040974,"2316 CONGRESS ST","New Orleans","LA","70117","29.97919990300045","-90.03500018899967",D,VACANT LOT,7747.19
ORL041078,"2033 ANNETTE ST","New Orleans","LA","70116","29.978123275000485","-90.06347931699969",C,VACANT LOT,3547.52
ORL041273,"706 SAINT MAURICE AVE","New Orleans","LA","70117","29.955852822000452","-90.01185919499966",E,VACANT LOT,7004.5
ORL041335,"1838 BENTON ST","New Orleans","LA","70117","29.968233455000473","-90.00967869699969",E,VACANT LOT,3243.86
ORL041342,"8519 HUNTINGTON PARK DR","New Orleans","LA","70127","30.033336896000435","-89.99246093599965",E,VACANT LOT,8552.27
ORL041411,"14235 EXPLORERS AVE","New Orleans","LA","70129","30.062238077000472","-89.92390599299966",E,VACANT LOT,6267.87
ORL041439,"5127 -5129 E NEMOURS ST","New Orleans","LA","70129","30.039553601000478","-89.92921905799966",E,VACANT LOT,6451.72
ORL041597,"6739 W LAVERNE ST","New Orleans","LA","70126","30.021951166000463","-90.02088084299965",D,VACANT LOT,8109.39
ORL041827,"1913 TRICOU ST","New Orleans","LA","70117","29.96719709700045","-90.00525255899964",E,VACANT LOT,3608.88
ORL041911,"2182 NORTH ROCHEBLAVE ST","New Orleans","LA","70117","29.98164334000046","-90.05855927899967",D,VACANT LOT,2100.29
ORL042015,"8501 OLEANDER ST","New Orleans","LA","70118","29.964573629000483","-90.11787214199967",A,VACANT LOT,4813.52
ORL042050,"4915 CAMELIA ST","New Orleans","LA","70126","30.019813307000447","-90.00416882399969",E,VACANT LOT,5780.28
ORL042203,"9327 FORSHEY ST","New Orleans","LA","70118","29.970903115000453","-90.12407252599968",A,VACANT LOT,3379.32
ORL042232,"5726 NORTH GALVEZ ST","New Orleans","LA","70117","29.970963519000463","-90.01074585099968",E,VACANT LOT,3376.14
ORL042255,"1726 DELERY ST","New Orleans","LA","70117","29.965174125000487","-90.00521821099966",E,STRUCTURE,3200.56
ORL042300,"4734 LAINE AVE","New Orleans","LA","70126","30.020406696000464","-89.99083237199966",E,VACANT LOT,7569.31
ORL042366,"2538 BENTON ST","New Orleans","LA","70117","29.975093555000456","-90.00639788299969",E,VACANT LOT,1963.15
ORL042374,"4800 WERNER DR","New Orleans","LA","70126","30.021107867000467","-89.99391183699964",E,VACANT LOT,5152.04
ORL042659,"6952 DORIAN ST","New Orleans","LA","70126","30.023950449000438","-90.02064988299969",D,VACANT LOT,8015.91
ORL042713,"4810 RHODES DR","New Orleans","LA","70126","30.018817219000482","-90.00102184699966",E,VACANT LOT,5930.47
ORL043198,"527 WARRINGTON DR","New Orleans","LA","70122","30.00348266800046","-90.06841948899967",D,VACANT LOT,
ORL043926,"5635 PAINTERS ST","New Orleans","LA","70122","30.016903212000443","-90.05251879099967",D,VACANT LOT,3894.94
ORL043989,"2117 EGANIA ST","New Orleans","LA","70117","29.972671438000475","-90.01604134599967",E,VACANT LOT,3806.31
ORL044045,"4940 DODT AVE","New Orleans","LA","70126","30.023297840000453","-89.99200256899968",E,VACANT LOT,4818.87
ORL044096,"3227 -3229 MONTEGUT ST","New Orleans","LA","70126","30.018512677000444","-90.01959921599968",E,VACANT LOT,3703.92
ORL044104,"13524 TRAPPERS CT","New Orleans","LA","70129","30.057421659000454","-89.93125326299969",E,VACANT LOT,4926.86
ORL044173,"1426 ST MAURICE AVE","New Orleans","LA","70117","29.962833732000433","-90.00852863599965",E,VACANT LOT,3685.01
ORL044214,"3262 BLOOMINGDALE CT","New Orleans","LA","70125","29.958452601000488","-90.10779873899969",B,VACANT LOT,3460.22
ORL044277,"5610 CATINA","New Orleans","LA","70124","29.99257188700045","-90.11458185199967",A,VACANT LOT,
ORL044301,"2501 ALMONASTER AVE","New Orleans","LA","70117","29.98349220300048","-90.04568000999967",D,VACANT LOT,2326.87
ORL044323,"1316 LAMANCHE ST","New Orleans","LA","70117","29.96341053900045","-90.01398047299966",E,VACANT LOT,3576.35
ORL044605,"20404 LUCRINO RD","New Orleans","LA","70129","30.066153331000464","-89.81498308499965",E,VACANT LOT,
ORL044990,"13713 N LEMANS DR","New Orleans","LA","70129","30.042237733000434","-89.92459663599965",E,VACANT LOT,7796.92
ORL046498,"2083 N ROCHEBLAVE ST","New Orleans","LA","70119","29.981497658000478","-90.06198222299969",D,VACANT LOT,5233.22
ORL046684,"4758 GAWAIN DR","New Orleans","LA","70127","30.02083782100044","-89.98681248599968",E,VACANT LOT,6173.67
ORL046789,"2121 TUPELO ST","New Orleans","LA","70117","29.970107191000466","-90.00627351899965",E,VACANT LOT,4795.94
ORL046819,"4759 CITRUS DR","New Orleans","LA","70127","30.02163374400044","-89.97470900499968",E,VACANT LOT,5724.64
ORL046843,"1405 FLOOD ST","New Orleans","LA","70117","29.96468022600044","-90.01573102999964",E,VACANT LOT,5482.45
ORL047016,"1933 -1935 MONTEGUT ST","New Orleans","LA","70117","29.96990075500048","-90.03053993999964",D,VACANT LOT,3621.43
ORL047124,"2530 ANNETTE ST","New Orleans","LA","70119","29.983098979000488","-90.06391162699964",D,VACANT LOT,3381.25
ORL047208,"2111 FORSTALL ST","New Orleans","LA","70117","29.972910688000468","-90.01782151299966",E,VACANT LOT,3292.75
ORL047229,"2424 MAZANT ST","New Orleans","LA","70117","29.979429679000475","-90.03027084199965",D,VACANT LOT,3349
ORL047312,"2316 ST FERDINAND ST","New Orleans","LA","70117","29.981280911000454","-90.0443795279997",D,VACANT LOT,4373.61
ORL047502,"1818 ANDRY ST","New Orleans","LA","70117","29.96934087800048","-90.01602950199964",E,VACANT LOT,3326.13
ORL047531,"5840 PEOPLE AVE","New Orleans","LA","70122","30.019487594000452","-90.04726238199964",D,VACANT LOT,7633.34
ORL047582,"4934 LURLINE ST EAST NO","New Orleans","LA","70127","30.025417933000483","-89.97126237299966",E,VACANT LOT,6563.82
ORL047619,"1505 TENNESSEE ST","New Orleans","LA","70117","29.967081025000482","-90.02172058999969",E,VACANT LOT,4801.96
ORL047689,"1539 ST MAURICE AVE","New Orleans","LA","70117","29.964077362000467","-90.00784286199968",E,VACANT LOT,4651.23
ORL047844,"2017 GORDON ST","New Orleans","LA","70117","29.969407205000437","-90.00780259299967",E,VACANT LOT,3897.15
ORL047904,"1521 DESLONDE ST","New Orleans","LA","70117","29.967571370000485","-90.02255085999968",E,VACANT LOT,4071.77
ORL047963,"1912 LESSEPS ST","New Orleans","LA","70117","29.959864213000458","-90.03409729099968",D,VACANT LOT,3237.8
ORL048038,"2410 GORDON ST","New Orleans","LA","70117","29.97326364300045","-90.00601887199969",E,VACANT LOT,4243.28
ORL048048,"5920 NORTH VILLERE ST","New Orleans","LA","70117","29.963244722000468","-90.01137950899965",E,VACANT LOT,4900.58
ORL048060,"4901 SANDALWOOD ST","New Orleans","LA","70127","30.024823359000436","-89.97032905899965",E,VACANT LOT,6653.67
ORL048389,"2401 TRICOU ST","New Orleans","LA","70117","29.971966714000473","-90.00297256999966",E,VACANT LOT,4727.37
ORL048435,"7901 REDFISH ST","New Orleans","LA","70126","30.035442775000433","-90.01286238999967",D,VACANT LOT,5749.85
ORL048461,"2026 CAFFIN AVE","New Orleans","LA","70117","29.970969441000477","-90.01266104099966",E,VACANT LOT,3882.84
ORL048471,"2330 ROFFIGNAC ST","New Orleans","LA","70117","29.973583433000442","-90.00835807999965",E,VACANT LOT,3192.61
ORL048495,"10219 LAKEWOOD DR","New Orleans","LA","70127","30.024398156000473","-89.96690256199969",E,VACANT LOT,6260.7
ORL048657,"2441 -43 GALLIER ST","New Orleans","LA","70117","29.96990075500048","-90.03053993999964",D,STRUCTURE,4582.2
ORL048793,"4814 -16 THALIA ST","New Orleans","LA","70125","29.951451862000454","-90.10372721199968",B,VACANT LOT,2729.51
ORL048908,"6421-23 PRARO ST","New Orleans","LA","70117","29.96594000300047","-90.00377590999966",E,VACANT LOT,4655.42
ORL048992,"1314 FORSTALL ST","New Orleans","LA","70117","29.96472997100045","-90.02064988299969",E,VACANT LOT,3804.91
ORL049053,"1101 TENNESSEE ST","New Orleans","LA","70117","29.96314049400047","-90.02302107099968",E,VACANT LOT,4954.7
ORL049080,"6421 URVILLE ST","New Orleans","LA","70117","29.961207537000462","-90.00639196099968",E,VACANT LOT,2862.11
ORL049134,"4530 LAINE AVE","New Orleans","LA","70126","30.01670778500045","-89.99046165199968",E,VACANT LOT,7144.59
ORL049155,"4828 LAINE AVE","New Orleans","LA","70126","30.021916819000467","-89.99099226799967",E,VACANT LOT,5963.86
ORL049170,"7147 CROWDER BLVD","New Orleans","LA","70127","30.033615231000454","-89.99546341399969",E,STRUCTURE,8015.47
ORL049324,"5264 BASINVIEW DR","New Orleans","LA","70126","30.024907452000434","-90.01173009499968",E,VACANT LOT,10676.2
ORL049369,"5111 NORTH ROMAN ST","New Orleans","LA","70117","29.96947708500045","-90.01861388299966",E,VACANT LOT,3101.79
ORL049388,"2200 LAMANCHE ST","New Orleans","LA","70117","29.972290058000453","-90.01107985299967",E,VACANT LOT,3611.59
ORL049450,"4710 WARREN DR","New Orleans","LA","70127","30.022017493000476","-89.96619191599967",E,VACANT LOT,6960.68
ORL049466,"4831 SHERWOOD DR","New Orleans","LA","70128","30.02555414000045","-89.95194939099969",E,VACANT LOT,5424.77
ORL049523,"3007 N ROCHEBLOWE ST","New Orleans","LA","70117","29.981327102000478","-90.04150496699964",D,VACANT LOT,3700.68
ORL049624,"2208 MONTICELLO ST","New Orleans","LA","70117","29.97132127800046","-90.00755959599968",E,VACANT LOT,2119.93
ORL049625,"4709 DODT AVE","New Orleans","LA","70126","30.019723292000435","-89.99156907499969",E,VACANT LOT,5684.08
ORL049894,"6416 N JOHNSON ST","New Orleans","LA","70117","29.96731435300046","-90.00365952699968",E,VACANT LOT,5100.95
ORL049902,"2138 BENTON ST","New Orleans","LA","70117","29.971193294000443","-90.00827872499968",E,VACANT LOT,3317.92
ORL049917,"9960 GRANT ST","New Orleans","LA","70127","30.019622617000437","-89.96902857699968",E,VACANT LOT,5401.94
ORL049976,"3743 ST FERINAND ST","New Orleans","LA","70126","29.99811255500049","-90.04082866899967",E,VACANT LOT,9002.97
ORL050005,"2324 CHARBONNET ST","New Orleans","LA","70117","29.973630810000486","-90.00976042099967",E,VACANT LOT,3460.56
ORL050040,"1831 ST ANTHONY ST","New Orleans","LA","70116","29.976043451000464","-90.06212909099969",C,VACANT LOT,3438.94
ORL050079,"6910 CURRAN RD","New Orleans","LA","70126","30.03403451200046","-90.01291095099964",D,VACANT LOT,7128.8
ORL050117,"4652 AMERICA ST","New Orleans","LA","70126","30.01767675500048","-90.00955958799966",E,VACANT LOT,5769.42
ORL050179,"5317 -19 NORTH ROMAN ST","New Orleans","LA","70117","29.96990075500048","-90.03053993999964",E,VACANT LOT,4012.43
ORL050187,"4634 SANDALWOOD ST","New Orleans","LA","70127","30.020407880000448","-89.96996189199967",E,VACANT LOT,6160.02
ORL050460,"5805 BACCICH ST","New Orleans","LA","70122","30.018812481000452","-90.0481495039997",D,VACANT LOT,3793.68
ORL050613,"2306 CLOUET ST","New Orleans","LA","70117","29.98015927500046","-90.04046031699966",D,VACANT LOT,3199.74
ORL050630,"6000 CHAMBERLAIN DR","New Orleans","LA","70122","30.018647848000455","-90.07423257099964",D,VACANT LOT,9569.94
ORL050655,"2733 CLOUET ST","New Orleans","LA","70126","29.985722446000466","-90.03871094399966",E,VACANT LOT,5194.08
ORL050765,"1412 DESLONDE ST","New Orleans","LA","70117","29.966450918000476","-90.02299975099965",E,VACANT LOT,4423.24
ORL050882,"2201 FLOOD ST","New Orleans","LA","70117","29.972750793000444","-90.01307084599966",E,VACANT LOT,4048.04
ORL051218,"5760 WILTON DR","New Orleans","LA","70122","30.018508088000488","-90.06648179599966",D,VACANT LOT,4832.28
ORL051476,"4983 REDWOOD ST","New Orleans","LA","70127","30.026462582000477","-89.96964920699969",E,VACANT LOT,5711.7
ORL051524,"2933 CLOUET ST","New Orleans","LA","70117","29.987901760000454","-90.03804056899969",E,VACANT LOT,5326
ORL051619,"4753 ROSEMONT PL","New Orleans","LA","70126","30.019443771000454","-90.00022947799965",E,VACANT LOT,6749.21
ORL051725,"4819 NIGHTHART ST","New Orleans","LA","70127","30.025054319000446","-89.95781932499966",E,VACANT LOT,6553.97
ORL052111,"4436 MAJESTIC OAK DR","New Orleans","LA","70126","30.01372781100048","-90.01563153999967",D,VACANT LOT,6748.52
ORL052166,"5718 MARSHALL FOCH ST","New Orleans","LA","70124","29.994222954000463","-90.10500234699964",A,VACANT LOT,6198.77
ORL052220,"2142 CHARBONNET ST","New Orleans","LA","70117","29.971889728000463","-90.01035025799968",E,VACANT LOT,3830.51
ORL052266,"4650 GAWAIN DR","New Orleans","LA","70127","30.018667983000455","-89.98663245599965",E,VACANT LOT,6458.63
ORL052301,"6128 NORTH MIRO ST","New Orleans","LA","70117","29.970334597000488","-90.00545983099965",E,VACANT LOT,4399.34
ORL052310,"4632 EASTVIEW DR","New Orleans","LA","70126","30.01834700800049","-89.99254265999969",E,VACANT LOT,7927.38
ORL052343,"720 LAMANCHE ST","New Orleans","LA","70117","29.95734044100044","-90.01596080499968",E,VACANT LOT,5227.84
ORL052376,"5831 NORTH GALVEZ ST","New Orleans","LA","70117","29.970797701000436","-90.00981371999967",E,VACANT LOT,3578.25
ORL052449,"1830 ALLEN ST","New Orleans","LA","70116","29.975806570000486","-90.06453225699966",D,VACANT LOT,2260.9
ORL052550,"3010 BENEFIT ST","New Orleans","LA","70126","29.99078139800048","-90.03942426899965",E,VACANT LOT,5463.81
ORL052585,"915 LAMANCHE ST LOWER 9TH WARD","New Orleans","LA","70117","29.959050728000477","-90.01532122399965",E,VACANT LOT,4567.07
ORL052742,"7523 ENDEAVOR CT","New Orleans","LA","70129","30.06233479500048","-89.92564483899969",E,VACANT LOT,5706.07
ORL052806,"2412-2414 LAMANCHE ST","New Orleans","LA","70117","29.954992953000442","-90.01667589199968",E,VACANT LOT,4210.97
ORL052839,"5160 PAULINE DR","New Orleans","LA","70126","30.014881426000443","-90.03287062099969",D,VACANT LOT,4950.52
ORL052900,"4810 GALAHAD DR","New Orleans","LA","70127","30.022037628000476","-89.98617172099966",E,VACANT LOT,5698.56
ORL052905,"2215 TUPELO ST","New Orleans","LA","70117","29.97093746200045","-90.00587318899966",E,VACANT LOT,3345.4
ORL052986,"4572 MARQUE DR","New Orleans","LA","70127","30.01830910600046","-89.97665262099969",E,VACANT LOT,6889.2
ORL053057,"2136 FELICIANA ST","New Orleans","LA","70117","29.979029348000438","-90.04172052899969",D,VACANT LOT,3312.23
ORL053111,"4819 GALAHAD DR","New Orleans","LA","70127","30.02221292000047","-89.9861196069997",E,VACANT LOT,5966.71
ORL053240,"2029 EGANIA ST","New Orleans","LA","70117","29.971889728000463","-90.01630073099966",E,VACANT LOT,3764.69
ORL053567,"2909 CLOUET ST","New Orleans","LA","70126","29.98745168400046","-90.03818032899966",E,VACANT LOT,5309.68
ORL053585,"2027 PAULINE ST","New Orleans","LA","70117","29.97592145800047","-90.03426111799968",D,VACANT LOT,4922.87
ORL053675,"2315 CLOUET","New Orleans","LA","70117","29.980321539000442","-90.04035016699964",D,VACANT LOT,3560.91
ORL053806,"3405 LOUISA","New Orleans","LA","70126","29.99210167700045","-90.03489003999965",E,VACANT LOT,3569.52
ORL053831,"4130 MCCOY ST","New Orleans","LA","70127","30.014437272000464","-89.97073175699967",E,VACANT LOT,2290.85
ORL053874,"3413 -15 PINE ST","New Orleans","LA","70125","29.951451862000454","-90.10372721199968",B,VACANT LOT,3579.78
ORL053897,"4645 CHRYSLER ST","New Orleans","LA","70127","30.022954361000473","-89.96022959899966",E,VACANT LOT,6640.14
ORL053902,"2223 ANDRY ST","New Orleans","LA","70117","29.973511184000472","-90.01460110299968",E,VACANT LOT,4100.41
ORL053990,"2527 FLOOD ST","New Orleans","LA","70117","29.976351398000475","-90.01192078399964",E,VACANT LOT,4010.24
ORL054037,"2510 FLOOD ST","New Orleans","LA","70117","29.97611925400048","-90.01206054499966",E,VACANT LOT,3987.95
ORL054116,"6011 NORTH ROMAN ST","New Orleans","LA","70117","29.966866646000483","-90.00843032899968",E,VACANT LOT,3020.05
ORL054159,"408 DELERY ST 410 DELERT ST","New Orleans","LA","70117","29.952624122000486","-90.01122908999969",E,STRUCTURE,4931.2
ORL054357,"5836 N DORGENOIS ST","New Orleans","LA","70117","29.97478442400046","-90.00814133399967",E,VACANT LOT,2557.67
ORL054536,"5416 MARAIS ST","New Orleans","LA","70117","29.962513941000452","-90.01752659499965",E,VACANT LOT,
ORL054659,"5101 N VILLERE","New Orleans","LA","70117","29.965397979000443","-90.02022467999967",E,VACANT LOT,6078.06
ORL054660,"2325 FORSTALL ST","New Orleans","LA","70117","29.975300827000467","-90.01701137699968",E,VACANT LOT,3864.82
ORL054868,"4736 CHRYSLER ST","New Orleans","LA","70127","30.02419799100045","-89.96042265699964",E,VACANT LOT,6619.08
ORL054869,"5619 NORTH MIRO ST","New Orleans","LA","70117","29.972327959000438","-90.01158441199965",E,VACANT LOT,5230.64
ORL054904,"1914 ANDRY ST","New Orleans","LA","70117","29.970300250000435","-90.01571089499964",E,VACANT LOT,3766.62
ORL054923,"822 FLOOD ST","New Orleans","LA","70117","29.958630263000487","-90.01775044899966",E,VACANT LOT,1041.8
ORL054955,"4858 LANCELOT DR","New Orleans","LA","70127","30.023068064000483","-89.98551200399965",E,VACANT LOT,5711.2
ORL055000,"1304 JOURDAN AVE","New Orleans","LA","70117","29.965501022000467","-90.02466029399966",E,VACANT LOT,4401.82
ORL055037,"4542 LONGFELLOW DR","New Orleans","LA","70127","30.018497428000444","-89.97810233799964",E,VACANT LOT,5735.9
ORL055136,"1828 ST MAURICE AVE","New Orleans","LA","70117","29.96712366300045","-90.00647842299969",E,VACANT LOT,4825.56
ORL055187,"8508 EDINBURGH ST","New Orleans","LA","70118","29.966768340000442","-90.11577810599965",A,VACANT LOT,4979.1
ORL055192,"5415 N GALVEZ ST","New Orleans","LA","70117","29.971907494000448","-90.01464374199969",E,VACANT LOT,5504.88
ORL055294,"1213 -1215 TUPELO ST","New Orleans","LA","70117","29.96990075500048","-90.03053993999964",E,VACANT LOT,3411.84
ORL055318,"1720 TRICOU ST","New Orleans","LA","70117","29.965363631000457","-90.00619771699968",E,VACANT LOT,4546.22
ORL055401,"2612 EGANIA ST","New Orleans","LA","70117","29.977750186000435","-90.01439975399967",E,VACANT LOT,3165.06
ORL055526,"5908 N DERBIGNY ST","New Orleans","LA","70117","29.966439454000465","-90.01061510199969",E,VACANT LOT,4885.11
ORL055532,"2025 CAFFIN AVE","New Orleans","LA","70117","29.970931540000436","-90.01261129499966",E,VACANT LOT,3789.47
ORL055533,"4713 NIGHTHART ST","New Orleans","LA","70127","30.023913733000484","-89.95770917499965",E,VACANT LOT,6644.46
ORL056094,"5321 VENUS ST","New Orleans","LA","70122","30.01276133300047","-90.05197869999967",D,VACANT LOT,4733.03
ORL056161,"1718 -20 ALABO ST","New Orleans","LA","70117","29.96990075500048","-90.03053993999964",E,VACANT LOT,3345.47
ORL056288,"5118 NORTH JOHNSON ST","New Orleans","LA","70117","29.971433730000456","-90.01776703099966",E,VACANT LOT,1672.65
ORL056676,"5516 URQUHART ST","New Orleans","LA","70117","29.963223403000484","-90.01576656199967",E,VACANT LOT,3821.62
ORL056765,"3120 CAMBRONNE ST","New Orleans","LA","70118","29.963461469000435","-90.11742088099965",A,VACANT LOT,4493.24
ORL056828,"4560 WILSON AVE","New Orleans","LA","70126","30.016676991000452","-89.99917179999966",E,VACANT LOT,5245.13
ORL056918,"2522 ST MAURICE AVE","New Orleans","LA","70117","29.97362370300044","-90.00333855299965",E,VACANT LOT,3344
ORL056958,"4728 CHRYSLER ST","New Orleans","LA","70127","30.02403691200044","-89.96040252199964",E,VACANT LOT,6648.07
ORL056984,"4740 WERNER DR","New Orleans","LA","70126","30.020176921000484","-89.99381234699968",E,VACANT LOT,6075.23
ORL057052,"7541 MICHIGAN ST","New Orleans","LA","70128","30.049558569000453","-89.9702165389997",E,VACANT LOT,5553.61
ORL057276,"7665 SHORWOOD BLVD","New Orleans","LA","70128","30.068005748000473","-89.94618605399967",E,VACANT LOT,3877.1
ORL057280,"2405 ALMONASTER AVE","New Orleans","LA","70117","29.982531647000485","-90.04596071599968",D,VACANT LOT,3824.16
ORL057748,"825 DESLONDE ST","New Orleans","LA","70117","29.960531240000478","-90.02493152399967",E,VACANT LOT,1568.14
ORL057876,"2900 LOUISA ST","New Orleans","LA","70126","29.986940020000475","-90.03653992099964",E,VACANT LOT,4612.08
ORL057950,"5321-23 LAW ST","New Orleans","LA","70117","29.973131754000462","-90.00030845799967",E,VACANT LOT,4893.28
ORL057972,"4700 BRIGHT DR","New Orleans","LA","70127","30.02367685100046","-89.95860221999965",E,VACANT LOT,8152.47
ORL058163,"2014 ANDRY ST","New Orleans","LA","70117","29.97132950100047","-90.01538991999968",E,VACANT LOT,3988.3
ORL058306,"921 -923 FLOOD ST","New Orleans","LA","70117","29.96990075500048","-90.03053993999964",E,VACANT LOT,5229.62
ORL058553,"2534 TRICOU ST","New Orleans","LA","70117","29.97351473700047","-90.00227850599964",E,VACANT LOT,3638.13
ORL058636,"2412 ST MAURICE AVE","New Orleans","LA","70117","29.972493776000476","-90.00388811899967",E,VACANT LOT,3346.41
ORL058927,"6319 N DORGENOIS ST","New Orleans","LA","70117","29.972637089000443","-90.00204043999969",E,VACANT LOT,5586.7
ORL059108,"4958 SANDALWOOD ST","New Orleans","LA","70127","30.025947364000444","-89.97049250699968",E,VACANT LOT,6557.18
ORL059248,"2333 ANDRY ST","New Orleans","LA","70117","29.97471928200048","-90.01418182199967",E,VACANT LOT,3136.27
ORL059301,"7542 AVON PARK BLVD","New Orleans","LA","70128","30.066694606000453","-89.94492110499965",E,VACANT LOT,3691.13
ORL059365,"7500 ADVENTURE AVE","New Orleans","LA","70129","30.060911134000435","-89.92651301099966",E,VACANT LOT,5845.79
ORL059442,"5419 N RAMPART ST","New Orleans","LA","70117","29.96046728200048","-90.01839358299969",E,VACANT LOT,3618.23
ORL059487,"2315 FORSTALL ST","New Orleans","LA","70117","29.975060392000444","-90.01710139199969",E,STRUCTURE,3267.73
ORL059529,"2848 -50 PIETY ST","New Orleans","LA","70126","30.018512677000444","-90.01959921599968",E,VACANT LOT,4965.92
ORL059550,"1912 NORTH TONTI ST","New Orleans","LA","70119","29.980209638000474","-90.06560396199967",D,VACANT LOT,2702.16
ORL059749,"1833 BENTON","New Orleans","LA","70117","29.96812685800046","-90.00966329999966",E,VACANT LOT,3836.64
ORL059754,"2721 METROPOLITAN ST","New Orleans","LA","70126","29.985281846000476","-90.03789014799969",E,VACANT LOT,4894.62
ORL059768,"7684 SHOREWOOD BLVD","New Orleans","LA","70128","30.068260395000436","-89.94655203599967",E,VACANT LOT,3678.91
ORL059788,"2537 FORSTALL ST 2539 FORSTALL STREET","New Orleans","LA","70117","29.97759976600048","-90.01623085099965",E,VACANT LOT,3194.93
ORL059951,"9421 OLEANDER ST","New Orleans","LA","70118","29.970752694000453","-90.12549263299968",A,VACANT LOT,3947.29
ORL059977,"3020 METROPOLITAN ST","New Orleans","LA","70126","29.988529498000446","-90.03697104599968",E,VACANT LOT,5231.64
ORL059984,"6818 PONTCHARTRAIN BLVD","New Orleans","LA","70124","30.01635246200044","-90.11502245199966",A,VACANT LOT,7254.46
ORL060159,"4827 RHODES DR","New Orleans","LA","70126","30.018640847000484","-90.00093770399968",E,VACANT LOT,6695.85
ORL060205,"2202 GALLIER ST","New Orleans","LA","70117","29.978019047000487","-90.03622013099965",D,VACANT LOT,5138.47
ORL060285,"9325 FORSHEY ST","New Orleans","LA","70118","29.970842709000465","-90.12400264499968",A,VACANT LOT,3351.95
ORL060310,"1939 FLOOD ST","New Orleans","LA","70117","29.970410399000457","-90.0138407129997",E,VACANT LOT,4065.85
ORL060719,"5021 NORTH TONTI ST","New Orleans","LA","70117","29.974797452000473","-90.01767464599965",E,VACANT LOT,4209.56
ORL060741,"4757 CHARLENE DR","New Orleans","LA","70127","30.02100363900047","-89.98379934799965",E,VACANT LOT,6308.32
ORL061069,"2223 ROFFIGNAC ST","New Orleans","LA","70117","29.972368229000438","-90.00888277399969",E,VACANT LOT,4340.85
ORL061117,"4935 REDWOOD ST","New Orleans","LA","70127","30.025523346000455","-89.96956866799968",E,VACANT LOT,6416.74
ORL061153,"3436 SAINT FERDINAND ST","New Orleans","LA","70126","29.994168471000478","-90.04064271699968",E,VACANT LOT,14202.49
ORL061296,"5914 FLORIDA AVE","New Orleans","LA","70117","29.97651484600044","-90.00647013199966",E,VACANT LOT,5095.06
ORL061319,"2623 EGANIA ST","New Orleans","LA","70117","29.977920740000457","-90.01428131299969",E,VACANT LOT,
ORL061573,"6429 MARAIS ST","New Orleans","LA","70117","29.95926629000047","-90.00698061199967",E,VACANT LOT,2577.22
ORL061575,"1910 DESIRE ST","New Orleans","LA","70117","29.975240422000468","-90.03799082399968",D,VACANT LOT,3490.79
ORL061676,"4658 REDWOOD ST","New Orleans","LA","70127","30.02096692200047","-89.96920150099965",E,VACANT LOT,6248.87
ORL061725,"2109 BENTON ST","New Orleans","LA","70117","29.97062714700047","-90.0084729679997",E,VACANT LOT,3071.89
ORL061809,"4558 CERISE AVE","New Orleans","LA","70127","30.017927727000483","-89.98128247899967",E,VACANT LOT,5654.94
ORL061923,"2624 CHOCTAW","New Orleans","LA","70117","29.977590291000467","-90.01254023099966",E,VACANT LOT,2755.76
ORL061932,"5115 BASINVIEW DR","New Orleans","LA","70126","30.022845396000434","-90.01319994699969",E,VACANT LOT,2509.07
ORL061949,"5919 LAW ST 5917 LAW STREET","New Orleans","LA","70117","29.97549625400046","-90.00683019299964",E,VACANT LOT,4958.99
ORL061953,"4945 NOTTINGHAM DR","New Orleans","LA","70127","30.02688423200044","-89.95716908399964",E,VACANT LOT,5803.02
ORL062056,"4813 LONELY OAK DR","New Orleans","LA","70126","30.018773396000483","-90.00158917999966",E,VACANT LOT,6510.56
ORL062251,"2119 REYNES ST","New Orleans","LA","70117","29.97336076400046","-90.01861151399964",E,VACANT LOT,5460.08
ORL062304,"6034 -36 N RAMPART ST","New Orleans","LA","70117","29.95761014700048","-90.00878887899967",E,VACANT LOT,4314.28
ORL062305,"4408 RAY AVE","New Orleans","LA","70126","30.01427432300045","-90.01236273699965",E,VACANT LOT,6161.99
ORL062327,"4927 ARTHUR DR","New Orleans","LA","70127","30.02382371800047","-89.98476937899966",E,VACANT LOT,5730.87
ORL062489,"2319 LIZARDI ST","New Orleans","LA","70117","29.974920632000476","-90.01620124099969",E,VACANT LOT,3579.5
ORL062709,"2600 LIZARDI ST","New Orleans","LA","70117","29.977709916000435","-90.01531056499965",E,VACANT LOT,3590.13
ORL062756,"1901 TRICOU ST","New Orleans","LA","70117","29.96697798100047","-90.00535323299965",E,VACANT LOT,3371.99
ORL062947,"2910 PIETY ST","New Orleans","LA","70126","29.98686895500049","-90.03561015999969",E,VACANT LOT,4878.77
ORL063019,"2238 PAULINE ST","New Orleans","LA","70117","29.978239347000454","-90.03363101199966",D,VACANT LOT,4025.27
ORL063179,"5513 PATIO WAY","New Orleans","LA","70129","30.043270538000456","-89.92829910099965",E,VACANT LOT,4288.85
ORL063261,"5505 WILDAIR DR","New Orleans","LA","70122","30.014652834000458","-90.06689870699967",D,VACANT LOT,5290.98
ORL063303,"6943 FOCH RD","New Orleans","LA","70126","30.024091395000482","-90.01957088599966",D,VACANT LOT,8467.94
ORL063314,"2214 TUPELO ST","New Orleans","LA","70117","29.971003789000463","-90.00606861699964",E,VACANT LOT,2551.23
ORL063338,"3208 MISTLETOE ST","New Orleans","LA","70118","29.969272182000452","-90.12327068099967",A,VACANT LOT,4375.98
ORL063440,"3314 PIETY ST","New Orleans","LA","70126","29.991129277000482","-90.03433099799969",E,VACANT LOT,4678.31
ORL063450,"4206 EAGLE ST","New Orleans","LA","70118","29.973641469000484","-90.11257072399968",A,VACANT LOT,2545
ORL063637,"2006 LAMANCHE ST","New Orleans","LA","70117","29.970329860000447","-90.01172061999966",E,VACANT LOT,3833.01
ORL063858,"1835 OLD ROMAN ST","New Orleans","LA","70116","29.976950709000448","-90.0647916429997",D,VACANT LOT,3619.32
ORL063907,"2226 TUPELO ST","New Orleans","LA","70117","29.97090765000047","-90.00610705599968",E,VACANT LOT,2544.1
ORL063968,"5703 N CLAIBORNE AVE","New Orleans","LA","70117","29.96596767900047","-90.0129547739997",E,VACANT LOT,3828.54
ORL064163,"4839 CERISE AVE","New Orleans","LA","70127","30.02276367200045","-89.98170886499969",E,VACANT LOT,6356.68
ORL064306,"2748 BENEFIT ST","New Orleans","LA","70122","29.99157343000047","-90.04546918599965",D,VACANT LOT,6555.99
ORL064363,"3323 HOLLYGROVE ST","New Orleans","LA","70118","29.96881855400045","-90.12065076699969",A,STRUCTURE,4544.64
ORL064376,"2538-40 ALABO ST","New Orleans","LA","70117","29.95258389300045","-90.01561750099967",E,VACANT LOT,4234.68
ORL064400,"4542 MONTEGUT DR","New Orleans","LA","70126","30.006874817000437","-90.04045676399966",D,VACANT LOT,4668.14
ORL064818,"1130 TENNESSEE ST","New Orleans","LA","70117","29.963630839000473","-90.02292987099969",E,STRUCTURE,7263.51
ORL064885,"5812 MELROSE ST","New Orleans","LA","70117","29.974214723000443","-90.00819107899969",E,STRUCTURE,3314.25
ORL065019,"6329 URQUHART ST","New Orleans","LA","70117","29.960856953000473","-90.00784996899966",E,VACANT LOT,10232.63
ORL065120,"4675 GALAHAD DR","New Orleans","LA","70127","30.019193860000485","-89.98582942599967",E,VACANT LOT,5689.62
ORL065548,"2411 REYNES ST","New Orleans","LA","70117","29.976360873000488","-90.01761068799965",E,VACANT LOT,5445.15
ORL065610,"6120 N PRIEUR ST","New Orleans","LA","70117","29.967454114000475","-90.00700074699967",E,VACANT LOT,5418.41
ORL065867,"4020 N MIRO ST","New Orleans","LA","70117","29.976783708000482","-90.03148604599966",D,VACANT LOT,5045.93
ORL065873,"4601 DODT AVE","New Orleans","LA","70126","30.017733484000473","-89.99135943399966",E,VACANT LOT,6177.6
ORL066014,"2627 LAMANCHE ST","New Orleans","LA","70117","29.976921099000435","-90.00952117099968",E,VACANT LOT,3271.74
ORL066072,"4429 SHALIMAR DR 4431 SHALIMAR DR","New Orleans","LA","70126","30.013043221000487","-90.01732879899964",D,VACANT LOT,5906.78
ORL066102,"3133 CLOUET ST","New Orleans","LA","70126","29.989991059000488","-90.03740098699967",E,VACANT LOT,5221.98
ORL066238,"6636 COVEVIEW ST","New Orleans","LA","70126","30.02161360900044","-90.01115802499965",E,STRUCTURE,1784.37
ORL066267,"2230 LOUISIANA AVE","New Orleans","LA","70115","29.933987070000455","-90.09430773399964",B,VACANT LOT,4121.22
ORL066401,"4766 CITRUS DR","New Orleans","LA","70127","30.02180785200045","-89.9747919139997",E,VACANT LOT,5713.96
ORL066517,"3637 MONROE ST","New Orleans","LA","70113","29.969189274000485","-90.11571059499965",A,VACANT LOT,5147.12
ORL066619,"2633 EGANIA ST","New Orleans","LA","70117","29.97815999100044","-90.01419129699968",E,VACANT LOT,3684.37
ORL066739,"4818 BONITA DR","New Orleans","LA","70126","30.021317507000447","-89.99484159799965",E,STRUCTURE,2819.95
ORL066751,"4801 EASTVIEW DR","New Orleans","LA","70126","30.021203804000436","-89.99276888199967",E,VACANT LOT,8813.68
ORL066802,"5015 URQUHART ST","New Orleans","LA","70117","29.964517962000457","-90.02114378199968",E,VACANT LOT,3022.83
ORL066852,"4590 VIOLA ST","New Orleans","LA","70126","30.01714601700047","-89.99595139099966",E,VACANT LOT,6025.93
ORL066889,"1711 DELERY ST","New Orleans","LA","70117","29.96473631900045","-90.0053541589997",E,VACANT LOT,2595.56
ORL066947,"4931 VENUS ST","New Orleans","LA","70122","30.009403531000487","-90.05173944999967",D,VACANT LOT,5908.61
ORL067000,"4700 SANDALWOOD","New Orleans","LA","70127","30.02141699800046","-89.97007204199969",E,VACANT LOT,6240.11
ORL067092,"4909 ROSALIA DR","New Orleans","LA","70127","30.024393418000443","-89.97366909299967",E,VACANT LOT,6079.64
ORL067354,"4750 GALAHAD DR","New Orleans","LA","70127","30.020698061000473","-89.9860426199997",E,VACANT LOT,5742.87
ORL067455,"2614 PORT ST","New Orleans","LA","70117","29.984520271000463","-90.04439018799968",D,VACANT LOT,4210.55
ORL067457,"117 CHALFANT PL","New Orleans","LA","70119","29.991412350000473","-90.07954938599966",A,VACANT LOT,6414.86
ORL067466,"3108 METROPOLITAN ST","New Orleans","LA","70126","29.98933963300044","-90.03673061199964",E,VACANT LOT,5336.96
ORL067572,"14062 QUAL CREEK LN","New Orleans","LA","70128","30.066757380000467","-89.9477625029997",E,VACANT LOT,3887.91
ORL067573,"4682 LONGFELLOW DR","New Orleans","LA","70127","30.020536982000465","-89.97831197899967",E,VACANT LOT,5439.09
ORL067627,"2022 FELICIANA ST","New Orleans","LA","70117","29.977568971000437","-90.04215046999968",D,VACANT LOT,3608.92
ORL067681,"6136 N GALVEZ ST","New Orleans","LA","70117","29.969194011000468","-90.00563038499968",E,VACANT LOT,5576.39
ORL067792,"4915 LONELY OAK DR","New Orleans","LA","70126","30.020022947000484","-90.00170880499968",E,VACANT LOT,6278.35
ORL067910,"3126 N ROMAN ST","New Orleans","LA","70117","29.97457359900045","-90.04132612099966",C,VACANT LOT,2317.04
ORL067976,"2511 -2511 12 FLOOD ST","New Orleans","LA","70117","29.96990075500048","-90.03053993999964",E,VACANT LOT,4052.51
ORL068172,"1300 REYNES ST","New Orleans","LA","70117","29.964731156000482","-90.02159977899964",E,VACANT LOT,5231.22
ORL068224,"2731 N PRIEUR ST","New Orleans","LA","70117","29.97676712600048","-90.04593347399964",D,VACANT LOT,6556.01
ORL068232,"1733 ALLEN ST","New Orleans","LA","70116","29.974963270000444","-90.06437946899968",C,VACANT LOT,2174.81
ORL068428,"2751 EDNA ST","New Orleans","LA","70126","29.99319725500044","-90.04135573099967",E,VACANT LOT,2283.26
ORL068463,"8507 PALMETTO ST","New Orleans","LA","70118","29.968893171000445","-90.11341165499965",A,VACANT LOT,5383.4
ORL068595,"3905 DELACHAISE ST","New Orleans","LA","70125","29.94900101300044","-90.10132120299966",B,VACANT LOT,1950.55
ORL068681,"2611 SOUTH ROCHELBLAVE ST","New Orleans","LA","70125","29.950653103000434","-90.0958781549997",B,VACANT LOT,3419.75
ORL068717,"5833 EADS ST","New Orleans","LA","70122","30.019333621000442","-90.05044844299965",D,VACANT LOT,3989.48
ORL068881,"2129 LIZARDI ST","New Orleans","LA","70117","29.973090718000435","-90.01682068699967",E,VACANT LOT,3623.97
ORL069193,"2726 METROPOLITAN ST","New Orleans","LA","70126","29.985399103000475","-90.03792094299968",E,VACANT LOT,4927.24
ORL069222,"4660 EAST VIEW DR","New Orleans","LA","70126","30.018887099000438","-89.99259240499964",E,VACANT LOT,8184.05
ORL069251,"4638 LAINE AVE","New Orleans","LA","70126","30.018627713000456","-89.99065234199969",E,VACANT LOT,5959.17
ORL069308,"6320 N RAMPART ST","New Orleans","LA","70117","29.957754984000474","-90.00924046599965",E,VACANT LOT,3629.35
ORL069465,"2445 PAULINE ST","New Orleans","LA","70117","29.980332199000486","-90.03293102599969",D,VACANT LOT,
ORL069478,"2534 ST MAURICE AVE","New Orleans","LA","70117","29.973774123000453","-90.00325801299965",E,VACANT LOT,6664.1
ORL069498,"3311 1/2 FERN ST","New Orleans","LA","70125","29.961172431000477","-90.11177918899966",B,VACANT LOT,2635.83
ORL069534,"3111 INDUSTRIAL CT 3113 INDUSTRIAL CT","New Orleans","LA","70117","29.97415787200049","-90.04174421699969",C,VACANT LOT,2317.25
ORL069545,"1515 TUPELO ST","New Orleans","LA","70117","29.964037092000467","-90.00918242999967",E,VACANT LOT,3596.11
ORL069600,"2330 MONTICELL AVE","New Orleans","LA","70117","29.96990075500048","-90.03053993999964",E,VACANT LOT,4252.51
ORL069608,"4808 FRANCISCO VERRETT DR","New Orleans","LA","70126","30.021126817000436","-89.99568252899968",E,VACANT LOT,4432.41
ORL069610,"1609 AND 1611 ARTS ST","New Orleans","LA","70117","29.974198148000482","-90.0502614299997",C,STRUCTURE,3463.05
ORL069707,"4713 PAPANIA DR SAME","New Orleans","LA","70127","30.023783448000472","-89.95943959699969",E,VACANT LOT,6634.55
ORL069715,"2242 BENTON ST","New Orleans","LA","70117","29.97224386600044","-90.00777890399968",E,VACANT LOT,2390.45
ORL069883,"3408 WASHINGTON AVE","New Orleans","LA","70125","29.945913257000484","-90.09710470399966",B,VACANT LOT,3155.55
ORL069915,"2444 ALVAR ST","New Orleans","LA","70117","29.980149800000447","-90.03210075399966",D,VACANT LOT,4778.25
ORL070075,"9418 OLEANDER ST","New Orleans","LA","70118","29.970668601000455","-90.12546894499968",A,VACANT LOT,3953.54
ORL070149,"4701 CHRYSLER ST","New Orleans","LA","70127","30.023544197000433","-89.96028881899969",E,VACANT LOT,8129.81
ORL070183,"5012 N ROCHEBLAVE ST","New Orleans","LA","70117","29.975773407000474","-90.01735603999964",E,VACANT LOT,4303.03
ORL070207,"4718 GAWAIN DR","New Orleans","LA","70127","30.019977940000445","-89.98674260599967",E,VACANT LOT,6296.17
ORL070444,"9321 FORSHEY ST","New Orleans","LA","70118","29.970792964000452","-90.12393276499967",A,VACANT LOT,3379.34
ORL070582,"4508 WILSON AVE","New Orleans","LA","70126","30.01560746800044","-89.99905217499969",E,VACANT LOT,4975.75
ORL070760,"3145 FELICIANA ST","New Orleans","LA","70126","29.99041152400048","-90.03819098899965",E,VACANT LOT,5035.73
ORL070870,"5919 NORTH PRIEUR ST","New Orleans","LA","70117","29.96823700800047","-90.00903082599967",E,VACANT LOT,4944.99
ORL071058,"2424 - 2426 NEW ORLEANS ST","New Orleans","LA","70119","29.981798497000455","-90.06617266499967",D,VACANT LOT,3084.08
ORL071169,"3345 PIETY ST","New Orleans","LA","70126","29.991701346000468","-90.03409056299967",E,VACANT LOT,4322.52
ORL071303,"6711 W LAVERNE ST","New Orleans","LA","70126","30.021471481000447","-90.02071147199968",D,VACANT LOT,8599.04
ORL071407,"2014 BENTON ST","New Orleans","LA","70117","29.969734102000473","-90.00895857699965",E,VACANT LOT,3887.89
ORL071528,"3132 CLOUET ST","New Orleans","LA","70126","29.98999934900047","-90.03746020799969",E,VACANT LOT,5303.45
ORL071537,"2540 MONTICELLO ST","New Orleans","LA","70117","29.975003540000444","-90.00582818099969",E,VACANT LOT,2428.64
ORL071630,"4978 WRIGHT RD","New Orleans","LA","70128","30.02773463800048","-89.9566360989997",E,VACANT LOT,7873.79
ORL071636,"3200 FELICIANA ST","New Orleans","LA","70126","29.990649590000487","-90.03818032899966",E,VACANT LOT,5234.95
ORL071640,"5011 HAUCK DR","New Orleans","LA","70127","30.02686409700044","-89.96299874799968",E,VACANT LOT,5875
ORL071931,"4647 WILSON AVE","New Orleans","LA","70126","30.017904039000484","-89.99922865099967",E,VACANT LOT,8309.43
ORL072002,"4635 EAST VIEW DR","New Orleans","LA","70126","30.018433470000446","-89.99247870199969",E,VACANT LOT,8357.49
ORL072113,"7800 N CORONET CT","New Orleans","LA","70126","30.026533647000463","-89.99971544399966",D,STRUCTURE,3777.77
ORL072198,"2626 TUPELO ST","New Orleans","LA","70117","29.975153960000455","-90.00406814899969",E,VACANT LOT,2753.64
ORL072257,"4329 PERLITA ST","New Orleans","LA","70122","30.001793700000462","-90.07592864599968",D,STRUCTURE,2764.33
ORL072345,"2104 ST MAURICE","New Orleans","LA","70117","29.96934443100048","-90.0054278509997",E,VACANT LOT,5521.99
ORL072380,"4809 DALE ST","New Orleans","LA","70126","30.018874070000436","-90.01052910299967",E,VACANT LOT,5390.05
ORL072467,"2023 ST MAURICE AVE","New Orleans","LA","70117","29.96869774300046","-90.00567302399969",E,VACANT LOT,6265.46
ORL072528,"10131 SPRINGWOOD ST","New Orleans","LA","70127","30.020927836000453","-89.96732302699968",E,VACANT LOT,6208.56
ORL072549,"1909-11 ANDRY ST","New Orleans","LA","70117","29.955161232000478","-90.02073675199966",E,VACANT LOT,2933.99
ORL072783,"2207 WINTHROP ST","New Orleans","LA","70117","29.971797344000436","-90.00852271399964",E,VACANT LOT,2102.85
ORL072787,"2410 SAINT MAURICE AVE","New Orleans","LA","70117","29.97241442100045","-90.00392838899967",E,VACANT LOT,3349.84
ORL072839,"415 TACOMA ST","New Orleans","LA","70124","30.010178135000444","-90.12025991099966",A,VACANT LOT,5002.58
ORL072842,"1412 LIZARDI ST","New Orleans","LA","70117","29.965620647000435","-90.01938967099966",E,VACANT LOT,3622.22
ORL072955,"2213 BARTHOLOMEAU ST","New Orleans","LA","70117","29.96990075500048","-90.03053993999964",D,VACANT LOT,4937.86
ORL072968,"2210 DELERY ST","New Orleans","LA","70117","29.96979332200044","-90.00297849199967",E,VACANT LOT,5554.91
ORL073121,"2504 ST MAURICE ST","New Orleans","LA","70117","29.97332404700046","-90.00347831299968",E,VACANT LOT,3336.81
ORL073130,"3010 PAUGER ST","New Orleans","LA","70122","29.980769246000477","-90.06144213299967",D,STRUCTURE,4208.82
ORL073149,"4816 ROSALIA DR","New Orleans","LA","70127","30.023007659000484","-89.97359210699966",E,VACANT LOT,6703.42
ORL073231,"2970 FLORIDA AVE","New Orleans","LA","70117","29.984924154000453","-90.04120649499964",D,VACANT LOT,3238.28
ORL073337,"4716 BABYLON ST","New Orleans","LA","70126","30.016957695000485","-90.01941217499967",D,VACANT LOT,7614.29
ORL073478,"2422 DELERY ST","New Orleans","LA","70117","29.972164510000482","-90.00183790599965",E,VACANT LOT,6987.64
ORL073514,"2013 LAMANCHE ST","New Orleans","LA","70117","29.97048146500049","-90.01161046999965",E,VACANT LOT,3352.56
ORL073626,"1509 HARCOURT DR","New Orleans","LA","70122","30.002377614000466","-90.07560293299969",D,STRUCTURE,3924.59
ORL073835,"2019 DESIRE ST 2021 DESIRE STREET","New Orleans","LA","70117","29.976481683000486","-90.03756088299968",D,VACANT LOT,5167.33
ORL073851,"2610 GORDON ST","New Orleans","LA","70117","29.975163435000468","-90.00509858599969",E,VACANT LOT,2801.34
ORL073890,"4727 REDWOOD ST","New Orleans","LA","70127","30.021984330000464","-89.96923940199969",E,VACANT LOT,6134.3
ORL074059,"5945 N JOHNSON ST","New Orleans","LA","70117","29.969243565000454","-90.00858671399965",E,VACANT LOT,6957.4
ORL074108,"5431 SEMINARY PL","New Orleans","LA","70126","30.015160946000435","-90.04464838999968",D,VACANT LOT,7924.2
ORL074141,"1240 JOURDAN AVE / 4738 URQUHART ST","New Orleans","LA","70117","29.965161096000486","-90.02477044399967",E,VACANT LOT,4739.37
ORL074313,"2312 CAFFIN AVE","New Orleans","LA","70117","29.973820315000467","-90.01173956999969",E,VACANT LOT,6154.44
ORL074323,"2207 DELERY ST","New Orleans","LA","70117","29.969487744000446","-90.00305310999966",E,VACANT LOT,2625.33
ORL074337,"7531 ADVENTURE AVE","New Orleans","LA","70129","30.06118473300046","-89.92672501999965",E,VACANT LOT,5841.28
ORL074586,"5515 BURGUNDY ST","New Orleans","LA","70117","29.959137190000433","-90.01708480999969",E,VACANT LOT,4014.12
ORL074802,"3330 FELICIANA ST","New Orleans","LA","70126","29.992259203000458","-90.03769116799964",E,VACANT LOT,3810.13
ORL074863,"2429 BENTON ST","New Orleans","LA","70117","29.97394704600049","-90.00688349099966",E,VACANT LOT,2099.36
ORL074975,"1836 EGANIA ST","New Orleans","LA","70117","29.969980459000453","-90.01701019299969",E,VACANT LOT,3394.34
ORL075014,"3068 N DORGENOIS ST","New Orleans","LA","70117","29.982073281000453","-90.04022698899968",D,VACANT LOT,2453.03
ORL075072,"194345 BENTON ST","New Orleans","LA","70117","29.963460089000478","-90.01192862799968",E,VACANT LOT,3394.17
ORL075151,"9964 GRANT ST","New Orleans","LA","70127","30.019633276000434","-89.96889829099968",E,VACANT LOT,5448.34
ORL075539,"4649 WERNER DR","New Orleans","LA","70126","30.018624160000456","-89.99358849399965",E,VACANT LOT,6365.16
ORL075548,"1416 WILLOW ST","New Orleans","LA","70113","29.946152507000477","-90.08721606899968",B,VACANT LOT,991.77
ORL075609,"3113 GENERAL OGDEN ST","New Orleans","LA","70118","29.966504633000454","-90.12161991299968",A,VACANT LOT,4534.67
ORL075625,"4845 CAMELIA ST","New Orleans","LA","70126","30.019093186000475","-90.00410960299968",E,VACANT LOT,5616.17
ORL075750,"2717 -2719 N CLAIBORNE AVE","New Orleans","LA","70117","29.962751542000433","-90.00398847299965",D,VACANT LOT,2563.89
ORL075772,"2616 ALABO ST","New Orleans","LA","70117","29.97636916400046","-90.00793050899966",E,VACANT LOT,3800.58
ORL076363,"3222 3224 JACKSON AVE","New Orleans","LA","70125","29.947920831000488","-90.0925530189997",B,VACANT LOT,2910.55
ORL076565,"1221 -1223 DESLONDE ST","New Orleans","LA","70117","29.96990075500048","-90.03053993999964",E,VACANT LOT,4958.27
ORL076653,"4901 LURLINE ST","New Orleans","LA","70127","30.02473334400048","-89.97112853499965",E,VACANT LOT,7944.73
ORL076663,"4817 DODT AVE","New Orleans","LA","70126","30.021563864000484","-89.99175857999967",E,VACANT LOT,8325.73
ORL076668,"1926 CHOCTAW ST","New Orleans","LA","70117","29.970361839000475","-90.01494931999969",E,VACANT LOT,3005.95
ORL076739,"6017 N TONTI ST","New Orleans","LA","70117","29.971797344000436","-90.00614086599967",E,VACANT LOT,5089.47
ORL076745,"5109 N VILLERE ST","New Orleans","LA","70117","29.965367184000456","-90.02008491999965",E,VACANT LOT,4540.55
ORL076842,"6013 - 6015 DAUPHINE ST","New Orleans","LA","70117","29.95712606200044","-90.01322955699965",E,VACANT LOT,3751.19
ORL076892,"4437 FLITE ST","New Orleans","LA","70126","30.01303256200049","-90.02031943199967",D,STRUCTURE,1965.19
ORL076977,"2335 TUPELO ST","New Orleans","LA","70117","29.97228768900044","-90.00523242399964",E,VACANT LOT,3344.8
ORL077162,"4975 LAFAYE ST","New Orleans","LA","70122","30.010452919000443","-90.04885896499968",D,VACANT LOT,6704.3
ORL077263,"1835 INDEPENDENCE ST","New Orleans","LA","70117","29.974192219000486","-90.03565042999969",D,VACANT LOT,3998.72
ORL077272,"1122 FORSTALL ST","New Orleans","LA","70117","29.96305166400049","-90.02123024299965",E,VACANT LOT,7128.81
ORL077287,"2141 PIETY ST","New Orleans","LA","70117","29.978151701000456","-90.03820046399966",D,VACANT LOT,3389.02
ORL077294,"1246 DELERY ST","New Orleans","LA","70117","29.96054308400045","-90.00743897899969",E,VACANT LOT,6584.19
ORL077350,"901 903 ANDRY ST","New Orleans","LA","70117","29.95989165800046","-90.01910067599965",E,VACANT LOT,3739.95
ORL077370,"9330 PALMETTO ST","New Orleans","LA","70118","29.973818039000435","-90.12012339499967",A,VACANT LOT,6278.02
ORL077642,"2620 LAMANCHE ST","New Orleans","LA","70117","29.97685003500044","-90.00961000099966",E,VACANT LOT,3872.03
ORL077797,"261416 GALLIER ST","New Orleans","LA","70117","29.96146287200048","-90.04113847499968",D,VACANT LOT,3417.1
ORL077815,"5125 KENDALL DR","New Orleans","LA","70126","30.01194409000044","-90.03988943199965",D,VACANT LOT,4928.41
ORL077827,"20411 OLD SPANISH TRL","New Orleans","LA","70129","30.065388203000452","-89.81486701299968",E,VACANT LOT,42597.99
ORL077971,"4212 MCCOY ST","New Orleans","LA","70127","30.015526929000487","-89.97085256799966",E,VACANT LOT,2299.11
ORL077972,"1324 ALABO ST","New Orleans","LA","70117","29.963072983000473","-90.01219912099964",E,VACANT LOT,3732.02
ORL078193,"2540 LAMANCHE","New Orleans","LA","70117","29.97621992900048","-90.00981016599968",E,VACANT LOT,4083.8
ORL078241,"2420 CHARBONNET ST","New Orleans","LA","70117","29.97450016600044","-90.00947024099969",E,VACANT LOT,3340.12
ORL078252,"6729 W LAVERNE STREEY","New Orleans","LA","70126","30.02179127100044","-90.02083109799969",D,VACANT LOT,7829.16
ORL078342,"2521 CHARBONNET ST","New Orleans","LA","70117","29.975521127000434","-90.00908057099969",E,VACANT LOT,3968.29
ORL078377,"7833 S CORONET ST","New Orleans","LA","70126","30.02587748400049","-89.99836521699967",D,STRUCTURE,2630.67
ORL078603,"5939 LAW ST","New Orleans","LA","70117","29.975056839000445","-90.00558063999966",E,VACANT LOT,5588.15
ORL078622,"2621 -23 CHARBONNET ST","New Orleans","LA","70117","29.96990075500048","-90.03053993999964",E,VACANT LOT,3747.65
ORL078627,"2406 FLOOD ST","New Orleans","LA","70117","29.97499051200049","-90.01242060499965",E,VACANT LOT,4097.55
ORL078696,"2539 ALMONASTER AVE","New Orleans","LA","70117","29.98426088500048","-90.04539101399968",D,VACANT LOT,7486.93
ORL078804,"2057 -2059 N MIRO ST","New Orleans","LA","70119","29.95743301100049","-90.08781843299965",D,VACANT LOT,3577.98
ORL079054,"6301 MARIGNY ST","New Orleans","LA","70122","30.023342847000436","-90.05984910099966",D,VACANT LOT,3855.85
ORL079118,"2120 MAURICE AVE","New Orleans","LA","70117","29.96990075500048","-90.03053993999964",E,VACANT LOT,8948.62
ORL079132,"3126 INDUSTRIAL CT 3124 INDUSTRIAL COURT","New Orleans","LA","70117","29.97406430400048","-90.04160682599968",C,VACANT LOT,2334.3
ORL079369,"2331 PORT ST","New Orleans","LA","70117","29.981661106000445","-90.04519084899965",D,VACANT LOT,3238.29
ORL079380,"6809 BRUTUS ST","New Orleans","LA","70126","30.010538196000482","-90.00847059899968",E,VACANT LOT,4467.59
ORL079493,"5969 N JOHNSON","New Orleans","LA","70117","29.96914663500047","-90.00834978999967",E,VACANT LOT,3547.35
ORL079704,"2233 WINTHROP ST","New Orleans","LA","70117","29.972258079000483","-90.00831307299967",E,VACANT LOT,2108.82
ORL079781,"5845 LAFAYE ST","New Orleans","LA","70122","30.019453246000467","-90.04932917599967",D,VACANT LOT,2632.79
ORL079843,"5914 N PRIEUR ST","New Orleans","LA","70117","29.968411357000434","-90.00966729099969",E,VACANT LOT,5139.1
ORL079945,"2405 TRICOU ST","New Orleans","LA","70117","29.972067389000472","-90.00292282499964",E,VACANT LOT,4748.26
ORL080054,"4831 CERISE AVE","New Orleans","LA","70127","30.02261325100045","-89.98168872999969",E,VACANT LOT,6416.86
ORL080083,"1723 NORTH BROAD ST","New Orleans","LA","70119","29.98142067100048","-90.07361312599966",A,VACANT LOT,3348.1
ORL080092,"1935 ALMONASTER AVE","New Orleans","LA","70117","29.977911265000444","-90.0473808219997",D,STRUCTURE,
ORL080127,"4741 WERNER DR","New Orleans","LA","70126","30.020123623000472","-89.99373891399966",E,VACANT LOT,6320.12
ORL080203,"3201 PIETY ST","New Orleans","LA","70126","29.989840639000477","-90.03466026399968",E,VACANT LOT,4706.14
ORL080213,"8628 CASTLE CT","New Orleans","LA","70127","30.016793063000478","-89.98575007099964",E,VACANT LOT,5663.34
ORL080259,"6896 PARC BRITTANY BLVD","New Orleans","LA","70126","30.02746340800047","-90.00013117099968",D,VACANT LOT,2254.67
ORL080455,"1204 DESLONDE ST","New Orleans","LA","70117","29.964189881000436","-90.02375066699966",E,VACANT LOT,6770.74
ORL080610,"2617 JACKSON AVE 2619 JACKSON AVE","New Orleans","LA","70113","29.94316068900048","-90.08834836399967",B,VACANT LOT,3330.34
ORL080627,"8622 PALMETTO ST","New Orleans","LA","70118","29.969330614000455","-90.11458078699968",A,VACANT LOT,4582.23
ORL080662,"2004 BENTON ST","New Orleans","LA","70117","29.96957420600046","-90.00903793199967",E,VACANT LOT,3662.81
ORL080673,"RT 6 BOX 309 PM US HWY 11 RIDGEWAY DR","New Orleans","LA","70129","30.046490168000446","-89.88992687199965",E,VACANT LOT,
ORL080679,"326 N SALCEDO ST 326 12 N SALCEDO ST","New Orleans","LA","70119","29.970490940000445","-90.08930891999967",B,STRUCTURE,1418.27
ORL080698,"2417 BARTHOLOMEW ST","New Orleans","LA","70117","29.979402437000488","-90.03123021299967",D,VACANT LOT,6730.4
ORL080826,"4711 LONGFELLOW DR","New Orleans","LA","70127","30.020854403000442","-89.97828947499966",E,VACANT LOT,5734.73
ORL080878,"1821 TRICOU ST","New Orleans","LA","70117","29.966337215000465","-90.00566236399965",E,VACANT LOT,5780.32
ORL081011,"2329 FORSTALL ST","New Orleans","LA","70117","29.975380183000482","-90.01699124199968",E,VACANT LOT,3264.38
ORL081037,"5114 LAW ST","New Orleans","LA","70117","29.97764358900048","-90.01577722199966",E,VACANT LOT,4487.55
ORL081106,"2529 CAFFIN AVE","New Orleans","LA","70117","29.97621992900048","-90.01087139799967",E,VACANT LOT,
ORL081342,"1426 TENNESSEE ST","New Orleans","LA","70117","29.966390514000466","-90.02201076899968",E,VACANT LOT,5197.68
ORL081371,"2416 FELICIANA ST","New Orleans","LA","70117","29.98163978700046","-90.04091986799966",D,VACANT LOT,3330.22
ORL081392,"1801 FRANCE","New Orleans","LA","70117","29.972452322000436","-90.03133088799967",D,VACANT LOT,3211
ORL081539,"1745 EGANIA ST","New Orleans","LA","70117","29.969041222000442","-90.01727076199967",E,VACANT LOT,3917.16
ORL081547,"5024 NORTH TONTI ST","New Orleans","LA","70117","29.974724019000462","-90.01760713499965",E,VACANT LOT,4130.42
ORL081605,"2702 SAINT ANTHONY ST","New Orleans","LA","70119","29.984578307000447","-90.06288237399968",D,VACANT LOT,3075.43
ORL081632,"2341 MONTICELLO ST","New Orleans","LA","70117","29.97299715000048","-90.00670345999964",E,VACANT LOT,2416.57
ORL081681,"4745 SIERRA MADRE DR","New Orleans","LA","70127","30.023103596000453","-89.96478957499966",E,VACANT LOT,6428.95
ORL081977,"7019 BARRINGTON CT","New Orleans","LA","70128","30.04666979400048","-89.96383730999969",E,STRUCTURE,2247.85
ORL081984,"3501 -03 SOUTH LIBERTY ST","New Orleans","LA","70115","29.927163282000436","-90.10089861399968",B,VACANT LOT,3728.94
ORL082089,"1330 FRANCE ST","New Orleans","LA","70117","29.96785918200044","-90.03279008099969",C,VACANT LOT,3496.34
ORL082153,"2709 METROPOLITAN ST","New Orleans","LA","70126","29.985042596000483","-90.03796002899969",E,VACANT LOT,4847.43
ORL082270,"2318 CHARBONNET ST","New Orleans","LA","70117","29.973470914000472","-90.00981964199968",E,VACANT LOT,3474.86
ORL082322,"5840 LAW ST","New Orleans","LA","70117","29.97577459100046","-90.00773034399964",E,VACANT LOT,2496.18
ORL082378,"4934 CAMELIA ST","New Orleans","LA","70126","30.020297730000436","-90.00428252699965",E,VACANT LOT,5816.35
ORL082405,"2536 LAMANCHE ST","New Orleans","LA","70117","29.97607069300045","-90.00985991199968",E,VACANT LOT,7935.02
ORL082417,"1735 MONTEGUT ST","New Orleans","LA","70117","29.975011831000472","-90.04385009799967",C,VACANT LOT,2920.59
ORL082423,"2113 AP TUREAUD ST","New Orleans","LA","70119","29.97845254100048","-90.06702899299967",D,VACANT LOT,3276.83
ORL082710,"2615 ST ANTHONY ST","New Orleans","LA","70119","29.98395293800047","-90.06276867099967",D,VACANT LOT,4168.97
ORL082758,"1248 TUPELO ST","New Orleans","LA","70117","29.96166353500047","-90.01054805399968",E,STRUCTURE,3161.81
ORL082831,"4530 DALE ST","New Orleans","LA","70126","30.01639747000047","-90.01035262699969",E,VACANT LOT,2986.05
ORL083013,"2014 SAINT MAURICE AVE","New Orleans","LA","70117","29.96858404000045","-90.00579857099967",E,STRUCTURE,5877.89
ORL083027,"816 LAMANCHE ST","New Orleans","LA","70117","29.958220457000436","-90.01565996599965",E,VACANT LOT,4443.2
ORL083179,"11411 WILL STUTLEY DR","New Orleans","LA","70128","30.02785781600045","-89.95353057699964",E,VACANT LOT,7678.82
ORL083447,"1724 ST MAURICE AVE","New Orleans","LA","70117","29.965784096000448","-90.00712866299966",E,VACANT LOT,5583.69
ORL083449,"5319 URQUHART ST","New Orleans","LA","70117","29.963877197000443","-90.01839476699968",E,VACANT LOT,4680.49
ORL083599,"3055 N DORGENOIS ST","New Orleans","LA","70117","29.98219764400045","-90.04050413999965",D,VACANT LOT,3305.61
ORL083630,"2229 CAFFIN AVE","New Orleans","LA","70117","29.973101379000468","-90.01191130899969",E,VACANT LOT,3631.65
ORL083631,"2910 PAUGER ST","New Orleans","LA","70119","29.97975894500047","-90.06137225299966",D,VACANT LOT,4761.14
ORL083793,"2029 TUPELO ST","New Orleans","LA","70117","29.969237835000456","-90.00669279999966",E,VACANT LOT,5642.77
ORL083858,"1910 CHOCTAW ST","New Orleans","LA","70117","29.97012969500048","-90.01502985899964",E,VACANT LOT,6103.71
ORL083922,"4710 GALAHAD DR","New Orleans","LA","70127","30.019877265000446","-89.9859620799997",E,VACANT LOT,5712.56
ORL084112,"1015 ANDRY ST","New Orleans","LA","70117","29.960989606000453","-90.01874179899966",E,VACANT LOT,6641.83
ORL084179,"627 GORDON ST","New Orleans","LA","70117","29.955967710000436","-90.01424341199964",E,VACANT LOT,3972.35
ORL084180,"4800 GABRIEL DR","New Orleans","LA","70127","30.022127643000488","-89.98084187699965",E,VACANT LOT,6598.97
ORL084483,"7716 DOGWOOD DR","New Orleans","LA","70126","30.036859330000482","-90.00493868999968",D,STRUCTURE,6008.27
ORL084959,"2601 FRENCHMEN ST","New Orleans","LA","70119","29.983783568000433","-90.05932914599964",D,VACANT LOT,4022.84
ORL085007,"1831 GORDON ST","New Orleans","LA","70117","29.967687442000454","-90.00863286399965",E,VACANT LOT,3536.7
ORL085187,"1341 INDEPENDENCE","New Orleans","LA","70117","29.969031747000486","-90.03718068699965",C,VACANT LOT,2939.95
ORL085397,"2526 GALLIER ST","New Orleans","LA","70117","29.98156990700045","-90.03516008399964",D,VACANT LOT,6917.31
ORL085417,"1708 DELERY ST","New Orleans","LA","70117","29.964893420000465","-90.00534849599967",E,VACANT LOT,3699.01
ORL085466,"10110 SPRINGWOOD ST","New Orleans","LA","70127","30.02083308300047","-89.96779797499966",E,VACANT LOT,6192.41
ORL085527,"4719 CONGRESS DR","New Orleans","LA","70126","30.01034987400044","-90.03304117599964",D,VACANT LOT,6133.81
ORL085739,"1437 ANETTE ST","New Orleans","LA","70116","29.972073311000486","-90.06299844699964",C,VACANT LOT,2676.91
ORL085966,"2518 GORDON ST","New Orleans","LA","70117","29.97433434800047","-90.0055083909997",E,VACANT LOT,2113.16
ORL086025,"4709 MARAIS ST","New Orleans","LA","70117","29.96444689800046","-90.02581390899968",E,VACANT LOT,5631.56
ORL086044,"4945 DONNA DR","New Orleans","LA","70127","30.02483046600048","-89.97429919999968",E,VACANT LOT,6825.96
ORL086066,"2439 ANDRY ST","New Orleans","LA","70117","29.97589184700047","-90.0138004429997",E,VACANT LOT,3742.94
ORL086070,"4541 ALBA RD","New Orleans","LA","70129","30.068494909000435","-89.81282982799968",E,STRUCTURE,12273.16
ORL086095,"4430 LANCELOT DR","New Orleans","LA","70127","30.015837244000465","-89.98479188299967",E,VACANT LOT,6297
ORL086144,"4572 VIOLA ST","New Orleans","LA","70126","30.016794247000462","-89.99594191499966",E,VACANT LOT,5112.19
ORL086200,"4900 EUNICE DR","New Orleans","LA","70127","30.02392794600047","-89.97576194499965",E,VACANT LOT,5899.37
ORL086219,"3134 N DORGENOIS ST","New Orleans","LA","70117","29.98183403000047","-90.03915628199968",D,VACANT LOT,4618.21
ORL086287,"1125 -27 GORDON ST","New Orleans","LA","70117","29.96990075500048","-90.03053993999964",E,VACANT LOT,8154.4
ORL086344,"5615 MUSIC ST","New Orleans","LA","70122","30.016403392000484","-90.05474903399966",D,STRUCTURE,
ORL086361,"3237 PAUGER ST","New Orleans","LA","70119","29.983333493000487","-90.06156886399964",D,VACANT LOT,4457.02
ORL086364,"4836 MARQUE DR","New Orleans","LA","70127","30.02316755500044","-89.97723179699966",E,VACANT LOT,6004.73
ORL086366,"2032 TRICOU ST","New Orleans","LA","70117","29.968464415000483","-90.00470772999967",E,VACANT LOT,6303.38
ORL086444,"9000 OLEANDER ST","New Orleans","LA","70118","29.967848522000452","-90.12202941899966",A,VACANT LOT,3918.46
ORL086469,"2405 TUPELO ST","New Orleans","LA","70117","29.97273776500049","-90.00501330799966",E,VACANT LOT,3342.78
ORL086552,"4700 WERNER DR","New Orleans","LA","70126","30.01933717400044","-89.99372233199966",E,VACANT LOT,6184.16
ORL086634,"3920 -22 N TONTI ST","New Orleans","LA","70117","29.97014257100045","-90.00169898099966",D,VACANT LOT,8461.61
ORL086752,"1234 FLOOD ST","New Orleans","LA","70117","29.96312035900047","-90.01628059599966",E,VACANT LOT,2568.19
ORL086907,"2423 TUPELO ST","New Orleans","LA","70117","29.973046895000437","-90.00487236299966",E,VACANT LOT,3354.21
ORL086995,"2018 TRICOU ST","New Orleans","LA","70117","29.968234639000457","-90.00482853999966",E,VACANT LOT,6016.23
ORL087017,"13691-93 NORTH NEMOURS ST","New Orleans","LA","70129","30.039553601000478","-89.92921905799966",E,VACANT LOT,7351.23
ORL087167,"7501 EXPEDITION DR","New Orleans","LA","70129","30.062746969000443","-89.92487023499967",E,VACANT LOT,7072.09
ORL087202,"2120 -2122 ANDRY ST","New Orleans","LA","70117","29.96990075500048","-90.03053993999964",E,VACANT LOT,3798.21
ORL087310,"4658 BUNDY RD","New Orleans","LA","70127","30.019917535000445","-89.97916238499965",E,VACANT LOT,5532.23
ORL087383,"2427 -29 LOUISA ST","New Orleans","LA","70117","29.96990075500048","-90.03053993999964",D,VACANT LOT,3391.75
ORL087491,"4951 SANDALWOOD ST","New Orleans","LA","70127","30.025804051000478","-89.97041907399966",E,VACANT LOT,6585.74
ORL087677,"1304 DELERY ST","New Orleans","LA","70117","29.96084392400047","-90.00728855899968",E,VACANT LOT,6373.61
ORL087747,"3120 LIVE OAK ST","New Orleans","LA","70118","29.97007165900044","-90.12544051899965",A,VACANT LOT,4707.94
ORL087905,"4943 EVANGELINE DR","New Orleans","LA","70127","30.024168381000436","-89.98055643499964",E,VACANT LOT,9192.97
ORL088015,"4501-03 DALE ST","New Orleans","LA","70126","30.00961306500045","-90.00958599499967",E,VACANT LOT,5305.58
ORL088119,"4645 DALE ST","New Orleans","LA","70126","30.018163424000477","-90.01045922299966",E,VACANT LOT,3078.03
ORL088131,"2104 LIZARDI ST 2104 12 LIZARDI ST","New Orleans","LA","70117","29.972631167000486","-90.01705046199964",E,VACANT LOT,3413.25
ORL088344,"4924 ROSALIA DR","New Orleans","LA","70127","30.024629116000483","-89.97374252599968",E,VACANT LOT,6686.84
ORL088383,"9530 STROELITZ ST","New Orleans","LA","70118","29.975037888000486","-90.12277915099969",A,VACANT LOT,7250.76
ORL088485,"11209 WILL STUTLEY DR","New Orleans","LA","70128","30.02785781600045","-89.95615049099968",E,VACANT LOT,5577.34
ORL088512,"4842 ARTHUR DR","New Orleans","LA","70127","30.02280749500045","-89.98474213799966",E,VACANT LOT,5739.17
ORL088700,"5515 ST BERNARD AVE","New Orleans","LA","70122","30.01334287700047","-90.08168961399969",D,VACANT LOT,9148.17
ORL088728,"4120 NORTH TONTI ST","New Orleans","LA","70117","29.97760331900048","-90.03020688399965",D,STRUCTURE,3610.11
ORL088911,"3200 LIVE OAK ST","New Orleans","LA","70118","29.970482649000473","-90.12499991899966",A,VACANT LOT,4186.98
ORL088946,"1303 TENNESSEE ST","New Orleans","LA","70117","29.964920662000452","-90.02243123499966",E,VACANT LOT,4630.66
ORL088989,"3112 HOLLYGROVE ST","New Orleans","LA","70118","29.967282374000433","-90.12238118899967",A,STRUCTURE,3137.14
ORL089065,"2431 MENDEZ ST","New Orleans","LA","70122","30.015958054000464","-90.0550321079997",D,VACANT LOT,8083.21
ORL089200,"5117-19 LAFAYE ST","New Orleans","LA","70122","30.003032435000478","-90.04830808499969",D,VACANT LOT,6021.1
ORL089233,"2510 FORSTALL ST","New Orleans","LA","70117","29.97706086000045","-90.01647957699964",E,VACANT LOT,2585.18
ORL089235,"4629 WERNER DR","New Orleans","LA","70126","30.018143289000477","-89.99354940699965",E,VACANT LOT,6493.67
ORL089344,"4935 CHARLENE DR","New Orleans","LA","70127","30.024064153000438","-89.98410966399967",E,VACANT LOT,6608.32
ORL089356,"2843 LAUSSAT PL","New Orleans","LA","70117","29.98443736200045","-90.04219547699967",D,VACANT LOT,3383.49
ORL089457,"8923 FIG ST","New Orleans","LA","70118","29.96600321100044","-90.12290232899966",A,VACANT LOT,3575.25
ORL089486,"4843 GALLIER DR","New Orleans","LA","70126","30.010891150000475","-90.0340420019997",D,VACANT LOT,6104.28
ORL089554,"6012 URQUHART ST","New Orleans","LA","70117","29.961964375000434","-90.01103010799966",E,VACANT LOT,6328.55
ORL089640,"1720 FELICIANA ST","New Orleans","LA","70117","29.97418740200044","-90.04317197699964",C,VACANT LOT,3476.28
ORL089750,"1215 TRICOU ST","New Orleans","LA","70117","29.96033699600048","-90.00853337399968",E,VACANT LOT,2745.77
ORL089760,"1962 INDUSTRY ST","New Orleans","LA","70119","29.986433092000482","-90.06363921199966",D,VACANT LOT,4371.85
ORL089812,"4914 BONITA DR","New Orleans","LA","70126","30.02271747900045","-89.99495174899965",E,VACANT LOT,5215.68
ORL089839,"RT 6 BOX 233 DC","New Orleans","LA","70129","30.046490168000446","-89.88992687199965",E,VACANT LOT,
ORL089862,"2527 CAFFIN AVE","New Orleans","LA","70117","29.976129913000477","-90.01090100799968",E,VACANT LOT,
ORL089863,"2421 MONTEGUT ST","New Orleans","LA","70117","29.981881407000458","-90.04178093399969",D,VACANT LOT,6311.05
ORL089948,"7310 SHAW AVE","New Orleans","LA","70127","30.041855169000485","-89.98403622999967",E,VACANT LOT,6047.3
ORL090119,"2020 ANDRY ST","New Orleans","LA","70117","29.971470447000456","-90.01534017499966",E,VACANT LOT,3932.93
ORL090137,"4231 THALIA ST","New Orleans","LA","70125","29.954515623000475","-90.10114709399966",B,VACANT LOT,3297.48
ORL090287,"5916-5918 FLORIDA AVE","New Orleans","LA","70117","29.973711877000483","-89.9985193769997",E,VACANT LOT,5063.84
ORL090293,"4910 KNIGHT DR","New Orleans","LA","70127","30.023263146000488","-89.98337144199968",E,VACANT LOT,5830.61
ORL090313,"2513 FORSTALL ST","New Orleans","LA","70117","29.977110605000462","-90.01640140599966",E,VACANT LOT,3525.83
ORL090352,"5161 GALLIER DR","New Orleans","LA","70126","30.014458592000437","-90.03527023399965",D,VACANT LOT,7719.33
ORL090426,"2626 FORSTALL ST","New Orleans","LA","70117","29.978520052000476","-90.0159998909997",E,VACANT LOT,4275.66
ORL090495,"1414 TENNESSEE ST","New Orleans","LA","70117","29.966160739000486","-90.02209012499969",E,VACANT LOT,4827.88
ORL090642,"4540 LAINE AVE","New Orleans","LA","70126","30.016917425000486","-89.99048178699968",E,VACANT LOT,7179.68
ORL090643,"5011 NORTH MIRO ST 5009 NORTH MIRO ST","New Orleans","LA","70117","29.973807286000465","-90.01812472099965",E,VACANT LOT,4227.2
ORL090745,"5439 NORTH VILLERE ST","New Orleans","LA","70117","29.96450730300046","-90.01632441899966",E,VACANT LOT,5614.91
ORL090759,"2139 LAMANCHE ST","New Orleans","LA","70117","29.971990402000472","-90.01111064799966",E,VACANT LOT,3343.1
ORL090776,"730 FLOOD","New Orleans","LA","70117","29.95791961700047","-90.01798022399964",E,VACANT LOT,2318.33
ORL090979,"9208 OLIVE ST","New Orleans","LA","70118","29.970637806000468","-90.12220944899968",A,STRUCTURE,3562.56
ORL090988,"1626 CHARBONNET ST","New Orleans","LA","70117","29.96648052800049","-90.01209015499967",E,VACANT LOT,4245.02
ORL091097,"3626 ST FERDINAND ST","New Orleans","LA","70126","29.996168939000484","-90.04077181699967",E,VACANT LOT,8683.58
ORL091116,"1247 TENNESSEE ST","New Orleans","LA","70117","29.964320166000448","-90.02263140099967",E,VACANT LOT,5040.19
ORL091118,"4558 CAMELOT DR","New Orleans","LA","70127","30.017896933000486","-89.98206181899968",E,VACANT LOT,5724.38
ORL091437,"2214 GALLIER ST","New Orleans","LA","70117","29.97825000600045","-90.03615025099964",D,VACANT LOT,5124.36
ORL091539,"2216 CAFFIN AVE","New Orleans","LA","70117","29.97285975900047","-90.01204988599966",E,VACANT LOT,4034.56
ORL091583,"2426 -2428 ARTS ST","New Orleans","LA","70117","29.96990075500048","-90.03053993999964",D,STRUCTURE,4325.53
ORL091668,"2417 SPAIN ST","New Orleans","LA","70117","29.982352802000435","-90.05431909399965",D,STRUCTURE,
ORL091727,"6126 NORTH PRIEUR ST","New Orleans","LA","70117","29.967404369000462","-90.00688112199964",E,VACANT LOT,5222.03
ORL091755,"4850 ARTHUR DR","New Orleans","LA","70127","30.022967390000474","-89.98475161299967",E,VACANT LOT,5737.21
ORL091784,"4961 TULIP ST","New Orleans","LA","70126","30.020974029000456","-90.00261961599966",E,VACANT LOT,6478.17
ORL091792,"4782 GAWAIN DR","New Orleans","LA","70127","30.021328166000444","-89.98684209599969",E,VACANT LOT,6108.13
ORL092170,"2330 ALABO ST","New Orleans","LA","70117","29.973511184000472","-90.00884960999969",E,VACANT LOT,3755.22
ORL092207,"2433 PAULINE ST","New Orleans","LA","70117","29.980111898000473","-90.03300090599964",D,VACANT LOT,5256.52
ORL092341,"4514 WILSON AVE","New Orleans","LA","70126","30.015736570000456","-89.99906164999965",E,VACANT LOT,4921.76
ORL092580,"2915 PIETY ST","New Orleans","LA","70126","29.98696133900046","-90.03552014499968",E,VACANT LOT,4719.29
ORL092592,"3220 METROPOLITAN ST","New Orleans","LA","70126","29.990599845000474","-90.03635041599966",E,VACANT LOT,5212.21
ORL092600,"1400 DELERY ST","New Orleans","LA","70117","29.961783161000483","-90.00683848299968",E,VACANT LOT,4854.01
ORL092674,"2516 TUPELO ST","New Orleans","LA","70117","29.974014558000476","-90.00461771599964",E,VACANT LOT,2914.43
ORL092852,"3117 NORTH ROBERTSON ST","New Orleans","LA","70117","29.971631372000445","-90.04269634699966",C,STRUCTURE,4639.24
ORL092927,"5734 CHATHAM DR","New Orleans","LA","70122","30.01689847500046","-90.07315238999968",D,VACANT LOT,7190.28
ORL093102,"1306 ALABO ST","New Orleans","LA","70117","29.96268331200048","-90.01237915099966",E,VACANT LOT,3705.61
ORL093394,"2412 DELERY ST","New Orleans","LA","70117","29.971815110000477","-90.00201793599967",E,VACANT LOT,4986.77
ORL093539,"1302 JOURDAN AVE","New Orleans","LA","70117","29.965411007000455","-90.02468990399967",E,VACANT LOT,3652.99
ORL093624,"2422 PIETY ST","New Orleans","LA","70117","29.980890055000486","-90.03744007299969",D,VACANT LOT,3345.51
ORL093653,"2178 N DORGENOIS ST","New Orleans","LA","70119","29.982653641000468","-90.05878905499969",D,VACANT LOT,5433.6
ORL094133,"3114 GRAVIER ST","New Orleans","LA","70119","29.962945066000486","-90.09660251499969",B,VACANT LOT,3454.42
ORL094196,"4511 MAJESTIC OAK DR","New Orleans","LA","70126","30.014323568000464","-90.01562917099966",D,VACANT LOT,7356.06
ORL094310,"6762 BRUTUS ST","New Orleans","LA","70126","30.01046357800044","-90.00911847199967",E,VACANT LOT,7451.98
ORL094320,"2404 -06 CLOUET ST","New Orleans","LA","70117","29.96990075500048","-90.03053993999964",D,VACANT LOT,3558.37
ORL094325,"5501 DEBORE DR","New Orleans","LA","70126","30.017344504000448","-90.03449590899965",D,VACANT LOT,5320.35
ORL094336,"3430 HOLLYGROVE ST","New Orleans","LA","70118","29.969731733000458","-90.11975061499965",A,VACANT LOT,5575.37
ORL094362,"4959 CAMELIA ST","New Orleans","LA","70126","30.020643578000488","-90.00424936399969",E,VACANT LOT,5592.46
ORL094412,"5911 N ROCHEBLAVE","New Orleans","LA","70117","29.973767016000465","-90.00839005899968",E,VACANT LOT,2853.1
ORL094472,"2426 ST MAURICE AVE","New Orleans","LA","70117","29.97271407700049","-90.00377796899966",E,VACANT LOT,3322.86
ORL094531,"6305 NGALVEZ ST","New Orleans","LA","70117","29.96990075500048","-90.03053993999964",E,VACANT LOT,4549.92
ORL094704,"1307 -09 TRICOU ST","New Orleans","LA","70117","29.96990075500048","-90.03053993999964",E,VACANT LOT,3197
ORL095002,"5438 -40 CHARTRES ST","New Orleans","LA","70117","29.96990075500048","-90.03053993999964",E,STRUCTURE,
ORL095170,"2113 ST MAURICE AVE","New Orleans","LA","70117","29.96947708500045","-90.00529282899964",E,VACANT LOT,8388.93
ORL095344,"4929 EAST VIEW DR 4931 EAST VIEW DRIVE","New Orleans","LA","70126","30.022833552000463","-89.99292877699969",E,VACANT LOT,8493.24
ORL095411,"3617 FOURTH ST","New Orleans","LA","70125","29.948087833000443","-90.09745647399967",B,VACANT LOT,3834.38
ORL095488,"4575 -77 BONITA DR","New Orleans","LA","70126","30.018512677000444","-90.01959921599968",E,VACANT LOT,6207.46
ORL095813,"7416 SCOTTSDALE DR","New Orleans","LA","70127","30.03748469700048","-89.99507611199965",D,VACANT LOT,6640.08
ORL095916,"8325 LEEDS ST","New Orleans","LA","70126","30.01954799900045","-89.99007316599966",E,VACANT LOT,14079.29
ORL096121,"4827 DONNA DR","New Orleans","LA","70127","30.023193612000455","-89.97416891399968",E,VACANT LOT,6501.73
ORL096366,"4901 RHODES DR","New Orleans","LA","70126","30.020022947000484","-90.00106922499964",E,VACANT LOT,9469.39
ORL096639,"7135 DORIAN ST","New Orleans","LA","70126","30.024890870000434","-90.02092111299964",D,VACANT LOT,9524.84
ORL096739,"2026 LAMANCHE ST","New Orleans","LA","70117","29.97073966600044","-90.01159033499965",E,VACANT LOT,3941.09
ORL097159,"5952 N GALVEZ","New Orleans","LA","70117","29.970244582000475","-90.00836044899967",E,VACANT LOT,3621.99
ORL097178,"6659 DWYER RD","New Orleans","LA","70126","30.02098963600048","-90.01087488299964",E,VACANT LOT,4355.73
ORL097280,"1804 FRANCE ST","New Orleans","LA","70117","29.97255891800046","-90.03136049899967",D,VACANT LOT,6288.01
ORL097329,"1901 BENTON ST","New Orleans","LA","70117","29.968497578000438","-90.00948326999969",E,VACANT LOT,3395.72
ORL097596,"2127 REYNES ST","New Orleans","LA","70117","29.973450779000473","-90.01858071899966",E,VACANT LOT,5556.63
ORL097862,"4808 MAID MARIAN DR","New Orleans","LA","70128","30.025057873000435","-89.9552124389997",E,VACANT LOT,5397.87
ORL097864,"4308 VAN AVE","New Orleans","LA","70122","30.001328227000442","-90.07225223899968",D,VACANT LOT,4909.86
ORL097907,"5510 ST ANTHONY ST","New Orleans","LA","70122","30.015018817000453","-90.06540161399965",D,VACANT LOT,5453.42
ORL097934,"2028 MANDEVILLE ST","New Orleans","LA","70117","29.97853781800046","-90.05519200399965",D,STRUCTURE,4341.21
ORL098026,"3821 HAMILTON ST","New Orleans","LA","70118","29.973008994000452","-90.11768026699968",A,VACANT LOT,
ORL098068,"2413 GALLIER ST","New Orleans","LA","70117","29.980312064000486","-90.03547039999967",D,VACANT LOT,4604.25
ORL098224,"7400 ARBOR DR","New Orleans","LA","70126","30.027973888000474","-90.00487591599966",D,VACANT LOT,8586.11
ORL098576,"4911 MAID MARIAN DR","New Orleans","LA","70128","30.026263602000483","-89.95525863099965",E,VACANT LOT,5101.71
ORL098619,"2420 CAFFIN AVE","New Orleans","LA","70117","29.975020122000444","-90.01134042399968",E,VACANT LOT,4078.97
ORL098851,"2614 ANDRY ST","New Orleans","LA","70117","29.97750975100047","-90.01331009699965",E,VACANT LOT,3645.64
ORL098898,"4500 STEMWAY DR","New Orleans","LA","70126","30.013907840000456","-90.01829172399965",D,VACANT LOT,5803.4
ORL098899,"2137 -39 MONTEGUT ST","New Orleans","LA","70117","29.96990075500048","-90.03053993999964",D,VACANT LOT,3357.28
ORL098954,"2903 PIETY ST","New Orleans","LA","70126","29.98673156400048","-90.03559002499969",E,VACANT LOT,4854.64
ORL099070,"4518 DODT AVE","New Orleans","LA","70126","30.016297979000456","-89.99128244799965",E,VACANT LOT,5456.04
ORL099073,"5321 N ROMAN ST","New Orleans","LA","70117","29.969017534000443","-90.01663473499968",E,VACANT LOT,6352.49
ORL099375,"4901 ARTHUR DR","New Orleans","LA","70127","30.02333337200048","-89.98472910999965",E,VACANT LOT,5852.19
ORL099392,"6038 N MIRO ST","New Orleans","LA","70117","29.97067452300047","-90.00635998199965",E,VACANT LOT,6894.96
ORL099432,"2607 -2607 12 FORSTALL ST","New Orleans","LA","70117","29.96990075500048","-90.03053993999964",E,VACANT LOT,3487.48
ORL099811,"2527 LAMANCHE ST","New Orleans","LA","70117","29.975890663000484","-90.00985043699967",E,VACANT LOT,3303.97
ORL099826,"2436 CHARBONNET ST","New Orleans","LA","70117","29.97490997200049","-90.00933995599968",E,VACANT LOT,3699.69
ORL100038,"2820 CLOUET ST","New Orleans","LA","70126","29.986640364000436","-90.03850011999964",E,VACANT LOT,5035.12
ORL100237,"2427 -29 SO GALVEZ ST","New Orleans","LA","70125","29.951451862000454","-90.10372721199968",B,VACANT LOT,1880.24
ORL100324,"8837 PALM ST","New Orleans","LA","70118","29.969783847000485","-90.11778331099964",A,VACANT LOT,4446.42
ORL100367,"2025 GORDON ST","New Orleans","LA","70117","29.96956710000046","-90.00773271299965",E,VACANT LOT,3916.91
ORL100377,"3039 METROPOLITAN ST","New Orleans","LA","70126","29.988851656000463","-90.03681115199964",E,VACANT LOT,4966.46
ORL100389,"10812 VIENNA ST","New Orleans","LA","70127","30.027233633000435","-89.96016563999967",E,VACANT LOT,7596.02
ORL100547,"1900 ST MAURICE AVE","New Orleans","LA","70117","29.96742331900049","-90.00633866299967",E,VACANT LOT,7101.73
ORL100613,"7941 BRANCH DR","New Orleans","LA","70128","30.05940930300045","-89.96395811899964",E,VACANT LOT,5730.43
ORL100744,"411 TACOMA ST","New Orleans","LA","70124","30.010167476000447","-90.12009883199966",A,VACANT LOT,4942.8
ORL100901,"1924 GORDON ST","New Orleans","LA","70117","29.968311638000444","-90.00840188199965",E,VACANT LOT,3315.11
ORL100911,"2501 GALLIER ST","New Orleans","LA","70117","29.981111540000484","-90.03523114899969",D,VACANT LOT,3336.75
ORL100922,"4810 EUNICE DR","New Orleans","LA","70127","30.022777884000448","-89.97565179499969",E,VACANT LOT,5872.76
ORL101483,"5442 BURGUNDY ST REAR HOUSE","New Orleans","LA","70117","29.95934327700047","-90.01823605699968",E,STRUCTURE,5016.38
ORL101597,"4964 LAFON DR","New Orleans","LA","70126","30.020947971000453","-90.0055616899997",E,VACANT LOT,6612.49
ORL101859,"3131 RABBITS ST","New Orleans","LA","70122","29.991393399000458","-90.04595953099965",D,VACANT LOT,8131.63
ORL102139,"5619 URQUHART ST","New Orleans","LA","70117","29.963037451000446","-90.01461531599966",E,VACANT LOT,4858.38
ORL102258,"20413 OLD SPANISH TRL","New Orleans","LA","70129","30.065377543000466","-89.81479594799964",E,VACANT LOT,
ORL102345,"2330 -32 TOURO ST","New Orleans","LA","70119","29.974693297000442","-90.08794615199969",D,VACANT LOT,3930.9
ORL102624,"1633 -35 BENTON ST","New Orleans","LA","70117","29.96990075500048","-90.03053993999964",E,VACANT LOT,4582.22
ORL102945,"4834 DODT AVE","New Orleans","LA","70126","30.021957088000477","-89.99186162499967",E,VACANT LOT,5745.82
ORL103482,"2236 -2238 FLOOD ST","New Orleans","LA","70117","29.96990075500048","-90.03053993999964",E,VACANT LOT,3994.99
ORL103646,"9218 OLEANDER ST","New Orleans","LA","70118","29.969388254000478","-90.12389960199965",A,VACANT LOT,4082.77
ORL103955,"4952 CAMELIA ST","New Orleans","LA","70126","30.020637656000474","-90.00431213799965",E,VACANT LOT,5759.55
ORL104004,"4615 FLAKE AV","New Orleans","LA","70127","30.018383725000433","-89.98928908699969",E,VACANT LOT,6595.99
ORL104110,"5610 PAINTERS ST","New Orleans","LA","70122","30.016338249000455","-90.05254247899967",D,STRUCTURE,4461.77
ORL104165,"2407 - 2407A FLOOD ST","New Orleans","LA","70117","29.95456339600048","-90.0190273829997",E,VACANT LOT,4011.83
ORL104197,"4600 LONGFELLOW DR","New Orleans","LA","70127","30.018817219000482","-89.97813194799966",E,VACANT LOT,6204.56
ORL104245,"2116 N ROCHEBLAVE ST","New Orleans","LA","70119","29.98151305500045","-90.06082979299964",D,VACANT LOT,5285.44
ORL104349,"4730 MAJESTIC OAKS DR","New Orleans","LA","70126","30.017967997000483","-90.01604252999965",D,VACANT LOT,6774.97
ORL104392,"13662 EXPLORERS AVE","New Orleans","LA","70129","30.05774414700045","-89.92594801599967",E,VACANT LOT,6522.57
ORL104494,"1118 REYNES","New Orleans","LA","70117","29.96324116900047","-90.02211025999969",E,VACANT LOT,5174.78
ORL104883,"1709 SAINT MAURICE","New Orleans","LA","70117","29.96565736500048","-90.00712274099965",E,VACANT LOT,3517.11
ORL104996,"3203 N MIRO","New Orleans","LA","70117","29.97852093600045","-90.03891753599964",D,VACANT LOT,2182.11
ORL105050,"2405 REX PL","New Orleans","LA","70125","29.945585176000463","-90.09246418799967",B,STRUCTURE,1908.64
ORL105250,"1332 TRICOU ST","New Orleans","LA","70117","29.96167301000048","-90.00795893399965",E,VACANT LOT,4862.81
ORL105329,"2024 BENTON ST","New Orleans","LA","70117","29.969973352000466","-90.00884842599964",E,VACANT LOT,3965.95
ORL105335,"4835 GALLIER DR","New Orleans","LA","70126","30.01073125400046","-90.0339815969997",D,VACANT LOT,6301.07
ORL105598,"8012 TRAPIER AVE","New Orleans","LA","70127","30.045905849000462","-89.98963730399964",D,VACANT LOT,2810.27
ORL105626,"11730 W BARRINGTON DR","New Orleans","LA","70128","30.047712111000465","-89.96459986699966",E,STRUCTURE,2827.36
ORL105761,"6898 PARC BRITTANY BLVD","New Orleans","LA","70126","30.027534472000468","-90.00015130599968",D,VACANT LOT,3432.93
ORL105772,"2519 REYNES ST","New Orleans","LA","70117","29.977390125000454","-90.01727076199967",E,VACANT LOT,5186.71
ORL106088,"970 SOUTH TELEMACHUS ST","New Orleans","LA","70125","29.962782802000447","-90.10469676999969",B,VACANT LOT,
ORL106177,"3918 NORTH GALVEZ ST","New Orleans","LA","70117","29.97596409600044","-90.03281613799965",D,VACANT LOT,5449.71
ORL106412,"4735 CHARLENE DR","New Orleans","LA","70127","30.020573698000476","-89.98375907799965",E,VACANT LOT,6309.04
ORL107018,"2350 PRENTISS AVE","New Orleans","LA","70122","30.016853467000487","-90.05670923199966",D,VACANT LOT,5065.9
ORL107329,"3724 EAGLE ST","New Orleans","LA","70118","29.970081134000452","-90.11637149499967",A,STRUCTURE,3278.11
ORL107386,"4818 CORONADO DR","New Orleans","LA","70127","30.02369698600046","-89.96419263299964",E,VACANT LOT,5709.11
ORL107490,"2827 LOUISA ST","New Orleans","LA","70126","29.98637150300044","-90.03666073199969",E,VACANT LOT,4804.27
ORL107631,"2325 GALLIER ST","New Orleans","LA","70117","29.97951140300046","-90.03571083499969",D,VACANT LOT,4438.48
ORL108080,"5949 NORTH JOHNSON ST","New Orleans","LA","70117","29.96922949800046","-90.00855191699969",E,VACANT LOT,3322.65
ORL108338,"1231 NORTH JOHNSON","New Orleans","LA","70116","29.971020371000463","-90.0729534089997",C,VACANT LOT,2589.47
ORL108432,"6117 NORTH RAMPART ST","New Orleans","LA","70117","29.958547353000483","-90.01124093399966",E,VACANT LOT,5557.04
ORL108603,"7538 FOUNDERS CT","New Orleans","LA","70129","30.061887088000447","-89.92643602499965",E,VACANT LOT,5749.57
ORL108634,"2742 AMELIA ST 2744 AMELIA ST","New Orleans","LA","70115","29.938622032000467","-90.09794089799965",B,STRUCTURE,
ORL108693,"4924 CHARLENE DR","New Orleans","LA","70127","30.02382727100047","-89.98415230199964",E,VACANT LOT,6826.88
ORL109290,"3245 PIETY ST","New Orleans","LA","70126","29.990661435000447","-90.03440087799964",E,VACANT LOT,4421.62
ORL109362,"5157 WILDAIR DR","New Orleans","LA","70122","30.010281179000458","-90.06685843699967",D,VACANT LOT,9893.48
ORL109563,"1206 JOURDAN AVE","New Orleans","LA","70117","29.964549941000485","-90.02498008399965",E,VACANT LOT,9307.03
ORL110021,"2308 ANNETTE ST 2310 ANNETTE ST","New Orleans","LA","70119","29.98062830100048","-90.06372212099967",D,VACANT LOT,4711.5
ORL110261,"7806 NORTH CORONET CT","New Orleans","LA","70126","30.026573916000473","-89.99950580399968",D,STRUCTURE,1826.8
ORL110418,"3811 - 3813 DELACHAISE ST","New Orleans","LA","70125","29.948150607000457","-90.10103102199969",B,VACANT LOT,2340.42
ORL110776,"2028 -30 PAULINE ST","New Orleans","LA","70117","29.96990075500048","-90.03053993999964",D,VACANT LOT,4363.35
ORL110988,"2241 MONTEGUT ST","New Orleans","LA","70117","29.980161644000475","-90.04230088899965",D,VACANT LOT,3590.41
ORL111115,"4951 EVANGELINE DR","New Orleans","LA","70127","30.024237077000464","-89.98071988299967",E,VACANT LOT,7461.53
ORL111127,"5809 HAMLIN ST","New Orleans","LA","70117","29.976346661000434","-90.00758110799967",E,VACANT LOT,2605.2
ORL111159,"2308 LIZARDI ST","New Orleans","LA","70117","29.974780871000462","-90.01631968099969",E,VACANT LOT,3321.27
ORL111170,"1810 BENTON ST 1812 BENTON ST","New Orleans","LA","70117","29.96791366500048","-90.00982793199967",E,VACANT LOT,3802.19
ORL111309,"1413 GORDON ST","New Orleans","LA","70117","29.963446072000465","-90.01067360099967",E,VACANT LOT,2305.5
ORL111368,"2138 N ROCHEBLAVE ST","New Orleans","LA","70119","29.981553325000448","-90.06006821799969",D,STRUCTURE,
ORL111489,"1625 GORDON ST","New Orleans","LA","70117","29.965637230000482","-90.00963368999965",E,VACANT LOT,3443.77
ORL111635,"4744 -46 ROSEMONT PL","New Orleans","LA","70126","30.018512677000444","-90.01959921599968",E,VACANT LOT,5892.06
ORL111765,"1223 ANDRY","New Orleans","LA","70117","29.96331104900048","-90.01795061399969",E,VACANT LOT,3749.51
ORL111812,"13509 TRAPPER'S CT","New Orleans","LA","70129","30.057225598000457","-89.93123599399968",E,VACANT LOT,3630.09
ORL111996,"8933 8935 STROELITZ","New Orleans","LA","70118","29.971033399000476","-90.11773238099966",A,VACANT LOT,4939.47
ORL112233,"4926 KNIGHT DR","New Orleans","LA","70127","30.023310962000437","-89.98337638799967",E,VACANT LOT,5736.84
ORL112789,"3208 PIETY ST","New Orleans","LA","70126","29.989969739000458","-90.03468039899968",E,VACANT LOT,4856.66
ORL113320,"1742 FLOOD ST","New Orleans","LA","70117","29.968420592000484","-90.01454069799968",E,VACANT LOT,3516.58
ORL113339,"1504 TENNESSEE ST","New Orleans","LA","70117","29.96714024500045","-90.02177033499964",E,VACANT LOT,5520.8
ORL113484,"5448 NORTH GALVEZ ST","New Orleans","LA","70117","29.971719540000436","-90.01406405199964",E,VACANT LOT,4733.23
ORL113538,"4934 REDWOOD ST","New Orleans","LA","70126","30.025518608000482","-89.96963262599968",E,VACANT LOT,6343.62
ORL113841,"2401 MONTEGUT ST","New Orleans","LA","70117","29.981511871000464","-90.04189108499969",D,VACANT LOT,2538.77
ORL114040,"7310 VOYAGEUR DR","New Orleans","LA","70129","30.05769783100044","-89.92511777699968",E,VACANT LOT,8624.97
ORL114205,"2334 ALABO ST 2336 ALABO ST","New Orleans","LA","70117","29.97359172400047","-90.00881999999967",E,VACANT LOT,3842.97
ORL114644,"6301 NO MIRO ST","New Orleans","LA","70117","29.969826486000443","-90.00388101199968",E,VACANT LOT,4538.17
ORL114675,"4844 CARDENAS DR","New Orleans","LA","70127","30.02411745200044","-89.96569209499967",E,VACANT LOT,5673.86
ORL114865,"4700 GALAHAD DR","New Orleans","LA","70127","30.01971737000048","-89.9859419449997",E,VACANT LOT,5699.02
ORL114927,"3333-35 AUDUBON CT","New Orleans","LA","70125","29.95796442100044","-90.10863642899966",B,VACANT LOT,1943.13
ORL115183,"1462 MANDOLIN ST","New Orleans","LA","70122","30.00088288900048","-90.07729900799967",D,STRUCTURE,3490.07
ORL115381,"10940 YARDLEY RD","New Orleans","LA","70127","30.04289626400049","-89.97085493699967",E,VACANT LOT,6012.22
ORL115890,"4327 PERLITA ST","New Orleans","LA","70122","30.001733295000463","-90.07591917099967",D,STRUCTURE,2065.57
ORL116149,"1329 DELERY ST","New Orleans","LA","70117","29.961798558000453","-90.00676268099966",E,VACANT LOT,5414.49
ORL116247,"4718 LANCELOT DR","New Orleans","LA","70127","30.02009756600046","-89.98522182399967",E,VACANT LOT,5684.98
ORL116526,"2920 METROPOLITIAN ST","New Orleans","LA","70126","29.987489585000446","-90.03729083699966",E,VACANT LOT,5186.28
ORL116871,"3203 SECOND ST","New Orleans","LA","70125","29.945678744000475","-90.09337618299969",B,VACANT LOT,2334.95
ORL116889,"1241 TRICOU ST","New Orleans","LA","70117","29.960886563000486","-90.00826332799966",E,VACANT LOT,3516.21
ORL116896,"2022 NORTH MIRO ST","New Orleans","LA","70119","29.979413097000474","-90.06180811499968",D,VACANT LOT,6187.3
ORL116990,"1848 N GALVEZ ST","New Orleans","LA","70119","29.97823342500044","-90.06426813299964",C,VACANT LOT,2517.77
ORL117093,"2117 INDEPENDENCE ST","New Orleans","LA","70117","29.976941234000435","-90.03483081799965",D,VACANT LOT,3017.83
ORL117698,"4911 HAUCK DR","New Orleans","LA","70127","30.02572351000049","-89.96288859799967",E,VACANT LOT,5826.37
ORL117752,"2317 -19 TUPELO ST","New Orleans","LA","70117","29.96990075500048","-90.03053993999964",E,VACANT LOT,4394.53
ORL117891,"4613 STEMWAY DR","New Orleans","LA","70126","30.015453495000486","-90.01835923499965",D,VACANT LOT,5304.74
ORL117929,"6001 -03 WARFIELD ST","New Orleans","LA","70126","30.018512677000444","-90.01959921599968",D,VACANT LOT,6939.88
ORL117960,"2231 -2233 DESIRE ST","New Orleans","LA","70117","29.96990075500048","-90.03053993999964",D,VACANT LOT,4624.85
ORL118101,"4515 BONITA DR","New Orleans","LA","70126","30.016033856000433","-89.99420912399967",E,VACANT LOT,5973.14
ORL118407,"4682 GAWAIN DR","New Orleans","LA","70127","30.019327699000485","-89.98669167699967",E,VACANT LOT,6387.32
ORL118490,"2235-37 CAFFIN AVE","New Orleans","LA","70117","29.955223231000446","-90.01772985599968",E,VACANT LOT,4058.75
ORL118867,"7184 VIRGILIAN ST","New Orleans","LA","70126","30.026489824000464","-90.01945007599966",D,VACANT LOT,7352.51
ORL119091,"2908 LOUISA ST","New Orleans","LA","70126","29.987059645000443","-90.03650083599968",E,VACANT LOT,4612.07
ORL119120,"7828 OLIVE ST","New Orleans","LA","70125","29.961488242000485","-90.11088886299967",B,STRUCTURE,3105.71
ORL119122,"6700 DORIAN ST","New Orleans","LA","70126","30.021880102000466","-90.01990015099966",D,VACANT LOT,7661.33
ORL119539,"5113 NORTH VILLERE","New Orleans","LA","70117","29.965347049000457","-90.01998424499965",E,VACANT LOT,
ORL119775,"2123 CHARBONNET ST","New Orleans","LA","70117","29.97149176600044","-90.01040118699967",E,VACANT LOT,3262.03
ORL119880,"7831 BUFFALO RD","New Orleans","LA","70128","30.070291658000485","-89.94583073099966",E,VACANT LOT,2462.97
ORL119985,"7039 VICKSBURG ST","New Orleans","LA","70124","30.018736678000437","-90.10509946899964",A,VACANT LOT,2806.81
ORL120040,"11214 WILL STUTLEY DR","New Orleans","LA","70128","30.027792674000466","-89.9559408509997",E,VACANT LOT,6790.44
ORL120117,"4966 WRIGHT RD","New Orleans","LA","70127","30.027363918000447","-89.95647146699969",E,VACANT LOT,4816.18
ORL120186,"7359 NEW CASTLE ST","New Orleans","LA","70126","30.02973155200044","-90.01674133099965",D,VACANT LOT,7401.9
ORL120319,"5933 LAW ST","New Orleans","LA","70117","29.97515632900047","-90.00585068499964",E,VACANT LOT,5287.77
ORL120418,"2228 FLOOD ST","New Orleans","LA","70117","29.97334062900046","-90.01294056199964",E,VACANT LOT,3987.97
ORL120471,"1540 -1542 FRANCE ST","New Orleans","LA","70117","29.96990075500048","-90.03053993999964",C,VACANT LOT,3838.91
ORL120567,"3519 -21 NTONTI ST","New Orleans","LA","70117","29.96990075500048","-90.03053993999964",D,VACANT LOT,8177.36
ORL120994,"2301 ANDRY ST","New Orleans","LA","70117","29.97416971600046","-90.01438198799968",E,VACANT LOT,2696.18
ORL121413,"7062 WARFIELD ST","New Orleans","LA","70126","30.014022729000487","-90.00460823999964",E,VACANT LOT,6540.23
ORL121756,"2134 ALABO ST","New Orleans","LA","70117","29.97152019200047","-90.00947024099969",E,VACANT LOT,3161.19
ORL122021,"4927 SANDALWOOD ST","New Orleans","LA","70127","30.025313705000485","-89.97036932899965",E,VACANT LOT,6596.29
ORL122032,"4809 NOTTINGHAM DR","New Orleans","LA","70127","30.02492403500048","-89.95695944299968",E,VACANT LOT,5437.52
ORL122303,"2337 -39 ST ANTHONY ST","New Orleans","LA","70119","29.974693297000442","-90.08794615199969",D,VACANT LOT,4981.54
ORL122411,"2207 PORT ST","New Orleans","LA","70117","29.980240999000443","-90.04564092499965",D,VACANT LOT,3486.04
ORL122433,"2829 DANNEEL","New Orleans","LA","70115","29.93391518800047","-90.08914428799966",B,STRUCTURE,4146.19
ORL122963,"4919 SANDELWOOD ST","New Orleans","LA","70127","30.025143150000474","-89.97035866899967",E,VACANT LOT,6588.48
ORL123009,"1338 ANDRY ST APT A -B","New Orleans","LA","70117","29.96458073600047","-90.01759055299965",E,VACANT LOT,3268.77
ORL123481,"8535 HUNTINGTON PARK DR","New Orleans","LA","70127","30.033486131000473","-89.99207007999968",E,VACANT LOT,8469.89
ORL123858,"2236 MONTICELLO ST","New Orleans","LA","70117","29.972053176000486","-90.00722815399968",E,VACANT LOT,4547.84
ORL123871,"4508 WERNER DR","New Orleans","LA","70126","30.015987664000477","-89.99338240599968",E,VACANT LOT,5940.46
ORL124286,"13123 SEVRES ST","New Orleans","LA","70129","30.03342454200049","-89.93084676599966",E,VACANT LOT,6168.9
ORL124321,"1821 DELERY ST","New Orleans","LA","70117","29.966186795000453","-90.00464258799968",E,VACANT LOT,5213.86
ORL124705,"6868 PARC BRITTANY BLVD","New Orleans","LA","70126","30.02730406100045","-90.00009313099969",D,VACANT LOT,2301.66
ORL124804,"4738 EAST ADAMS CT","New Orleans","LA","70128","30.024657542000455","-89.94944199599968",E,VACANT LOT,5256.63
ORL124963,"2214 DELERY ST","New Orleans","LA","70117","29.969912948000456","-90.00292874699966",E,VACANT LOT,4834.04
ORL124967,"2138 TIMOLEON ST","New Orleans","LA","70122","30.009163097000453","-90.06156886399964",D,VACANT LOT,8718.75
ORL125644,"1832 GORDON ST","New Orleans","LA","70117","29.967753769000467","-90.00866839599968",E,VACANT LOT,3822.11
ORL125939,"4311 RAYNE DR","New Orleans","LA","70122","30.00163025100045","-90.07293090499968",D,VACANT LOT,4703.22
ORL125963,"2302 DESIRE ST","New Orleans","LA","70117","29.979319529000463","-90.03679101699964",D,VACANT LOT,3341.38
ORL125977,"1868 FILMORE AVE","New Orleans","LA","70122","30.011902636000457","-90.06753947299967",D,VACANT LOT,8982.07
ORL125996,"4701 GALAHAD DR","New Orleans","LA","70127","30.019703157000436","-89.98587917199967",E,VACANT LOT,6685.67
ORL126011,"3231 GIBSON ST","New Orleans","LA","70119","29.990803564000487","-90.07548922999968",D,STRUCTURE,6449.16
ORL126062,"4720 NORTH VILLERE","New Orleans","LA","70117","29.966383407000478","-90.02480716099967",E,VACANT LOT,6820.28
ORL126075,"2410 DELERY ST","New Orleans","LA","70117","29.971725094000476","-90.00205820599967",E,VACANT LOT,4540.69
ORL126222,"1836 DELERY ST","New Orleans","LA","70117","29.966333662000466","-90.00464850999964",E,VACANT LOT,4596.92
ORL126423,"8750 CURRAN BLVD","New Orleans","LA","70127","30.040824733000477","-89.99385024799966",D,VACANT LOT,5102.81
ORL126428,"2600 -02 MAZANT ST","New Orleans","LA","70117","29.96990075500048","-90.03053993999964",D,VACANT LOT,381673.89
ORL126737,"1638 DELERY ST","New Orleans","LA","70117","29.96442321000046","-90.0055782719997",E,VACANT LOT,3908.63
ORL126849,"2119 EGANIA ST","New Orleans","LA","70117","29.972469145000446","-90.01609877699968",E,VACANT LOT,3812.27
ORL126853,"2141 LIZARDI ST","New Orleans","LA","70117","29.97334062900046","-90.01673067199965",E,VACANT LOT,4958.43
ORL127212,"2620 ST MAURICE AVE","New Orleans","LA","70117","29.97453333000044","-90.00289795299966",E,VACANT LOT,3332.22
ORL127266,"7500 ENDEAVORS CT","New Orleans","LA","70129","30.062044614000456","-89.9253120199997",E,VACANT LOT,6291.63
ORL127535,"1701 TRICOU ST","New Orleans","LA","70117","29.965027258000475","-90.00630312999965",E,VACANT LOT,3201.69
ORL127687,"2444 FLOOD ST","New Orleans","LA","70117","29.97565022700047","-90.01220030499968",E,VACANT LOT,4172.8
ORL127830,"5784 WARRINGTON DR","New Orleans","LA","70122","30.018728387000465","-90.06965245999965",D,VACANT LOT,6416.76
ORL127846,"13646 EXPLORERS AVE","New Orleans","LA","70129","30.05737073400047","-89.92593785999969",E,VACANT LOT,6527.08
ORL127957,"2000 LAMANCHE ST","New Orleans","LA","70117","29.970239845000435","-90.01175022999968",E,VACANT LOT,4277.05
ORL128155,"3315 HAMILTON ST","New Orleans","LA","70118","29.96942970900045","-90.12153078299968",A,VACANT LOT,4928.71
ORL128608,"3730 TOLEDANO ST","New Orleans","LA","70125","29.948966665000455","-90.09991767799966",B,VACANT LOT,5371.94
ORL129390,"4937 BRIGHT DR","New Orleans","LA","70127","30.02652417100046","-89.95883910099968",E,VACANT LOT,4430.02
ORL129649,"1434 -1436 FORSTALL ST","New Orleans","LA","70117","29.96990075500048","-90.03053993999964",E,VACANT LOT,5847.8
ORL129780,"2112 EGANIA ST","New Orleans","LA","70117","29.972740134000446","-90.0160804309997",E,VACANT LOT,3347.59
ORL129940,"1717 LIZARDI ST","New Orleans","LA","70117","29.96874156700045","-90.01828106399967",E,VACANT LOT,3602.85
ORL130166,"1508 TENNESSEE ST","New Orleans","LA","70117","29.96720065000045","-90.02175019999964",E,VACANT LOT,4415.87
ORL130497,"3601 EMPRESS ST","New Orleans","LA","70126","30.00714367800049","-90.01825855999965",E,VACANT LOT,5833.52
ORL130578,"2521 FORSTALL ST","New Orleans","LA","70117","29.97736051500044","-90.01631139099965",E,VACANT LOT,3863.27
ORL130629,"215 22ND ST","New Orleans","LA","70124","30.004877902000487","-90.11734863199968",A,VACANT LOT,4813.58
ORL130721,"3034 PIETY ST","New Orleans","LA","70126","29.988358942000445","-90.03517074399969",E,VACANT LOT,4808.51
ORL130807,"5317 URQUHART ST","New Orleans","LA","70117","29.963897332000442","-90.01850491699969",E,VACANT LOT,6094.79
ORL132570,"3226 PIETY ST","New Orleans","LA","70126","29.990320325000482","-90.03457024899967",E,VACANT LOT,4814.29
ORL132759,"1500 -02 PAULINE ST","New Orleans","LA","70117","29.96990075500048","-90.03053993999964",C,VACANT LOT,1861.89
ORL132979,"9 BETHANEY CT","New Orleans","LA","70126","30.02418508100044","-89.99507142999965",D,VACANT LOT,7125.63
ORL133044,"1419 DESLONDE ST","New Orleans","LA","70117","29.966460394000478","-90.02293105599966",E,VACANT LOT,4233.93
ORL133214,"7117 WARFIELD ST","New Orleans","LA","70126","30.01412814100047","-90.00390233199965",E,VACANT LOT,10847.44
ORL133336,"4219 RAYNE DR","New Orleans","LA","70122","30.00060455300047","-90.07288945099964",D,VACANT LOT,5395.85
ORL133348,"5018 HAUCK DR","New Orleans","LA","70127","30.026987275000465","-89.96308165599964",E,VACANT LOT,5578.85
ORL133429,"1827 ALABO ST","New Orleans","LA","70117","29.96841111700047","-90.01043079699969",E,VACANT LOT,3400.13
ORL133730,"2745 METROPOLITAN ST","New Orleans","LA","70126","29.985742581000466","-90.03775986299968",E,VACANT LOT,4342.7
ORL133735,"3146 LAUSAT PL","New Orleans","LA","70117","29.983473253000454","-90.03816729999966",D,VACANT LOT,3251.12
ORL133803,"5316 WICKFIELD DR","New Orleans","LA","70122","30.013237465000486","-90.06843251799967",D,VACANT LOT,6121.26
ORL133823,"2115 -17 ST MAURICE AVE","New Orleans","LA","70117","29.96990075500048","-90.03053993999964",E,VACANT LOT,5465.92
ORL134492,"3315 MISTLETOE ST","New Orleans","LA","70118","29.97001954500047","-90.12240013999968",A,VACANT LOT,4709.04
ORL134910,"7130 NORTHGATE DR","New Orleans","LA","70128","30.046801263000475","-89.96522306899965",E,STRUCTURE,2709.25
ORL134972,"4538 CONGRESS DR","New Orleans","LA","70126","30.00966291700047","-90.03290141499969",D,VACANT LOT,6065.76
ORL135290,"4811 PAPANIA ST","New Orleans","LA","70127","30.024764139000467","-89.95953908699965",E,VACANT LOT,6640.04
ORL135359,"1024 TRICOU ST","New Orleans","LA","70117","29.95846444500046","-90.00950814199967",E,VACANT LOT,5362.8
ORL135382,"4726 GABRIEL DR","New Orleans","LA","70127","30.020977582000455","-89.98072225199968",E,VACANT LOT,5730.82
ORL135667,"7056 WEST TAMARON","New Orleans","LA","70128","30.055641696000464","-89.94953319499967",E,VACANT LOT,9810.25
ORL135883,"7833 BUFFALO RD","New Orleans","LA","70128","30.07034258800047","-89.94588047599967",E,VACANT LOT,2486.49
ORL136170,"3416-3418 METROPOLITAN ST","New Orleans","LA","70126","29.98497334500047","-90.03800758299968",E,VACANT LOT,3765.71
ORL136585,"2222 TUPELO ST","New Orleans","LA","70117","29.971123414000488","-90.00600821199964",E,VACANT LOT,2519.53
ORL136753,"4755 CERISE AVE","New Orleans","LA","70127","30.021313954000448","-89.98157857999968",E,VACANT LOT,
ORL136788,"2316 LIZARDI ST","New Orleans","LA","70117","29.974870887000463","-90.01629007099967",E,VACANT LOT,3275.96
ORL136796,"1826 -28 ANDRY ST","New Orleans","LA","70117","29.96990075500048","-90.03053993999964",E,VACANT LOT,4286.16
ORL137002,"3051 LAW ST","New Orleans","LA","70117","29.98316767500046","-90.03991430499968",D,VACANT LOT,3218.31
ORL137020,"190002 FRANCE ST","New Orleans","LA","70117","29.96008120500045","-90.03508925599965",D,VACANT LOT,5111.52
ORL137127,"2622 GORDON ST","New Orleans","LA","70117","29.975393211000437","-90.00499791099969",E,VACANT LOT,2824.18
ORL137758,"4933 VIOLA ST","New Orleans","LA","70126","30.02229346100046","-89.99655899199968",E,VACANT LOT,6161.51
ORL138005,"1940-42 ANDRY ST","New Orleans","LA","70117","29.955161232000478","-90.02073675199966",E,VACANT LOT,3812.95
ORL138896,"4712 N ROBERTSON ST","New Orleans","LA","70117","29.967454114000475","-90.02469700999967",E,VACANT LOT,5993.77
ORL139346,"4910 LONGFELLOW DR","New Orleans","LA","70127","30.02382727100047","-89.97865190499965",E,VACANT LOT,5430.2
ORL139372,"317 TACOMA ST","New Orleans","LA","70124","30.01012839000049","-90.11894995399967",A,VACANT LOT,4009.35
ORL139791,"4943 HICKERSON ST","New Orleans","LA","70127","30.024694259000455","-89.97655905299968",E,VACANT LOT,7370.93
ORL140231,"4610 EASTVIEW DR","New Orleans","LA","70126","30.017867322000484","-89.99249172999964",E,VACANT LOT,7976.34
ORL140914,"1858 - 60 N ROMAN","New Orleans","LA","70116","29.965712170000472","-90.06463954299966",C,VACANT LOT,5014.59
ORL140932,"9120 OLIVE ST","New Orleans","LA","70118","29.969929938000462","-90.12132654899966",A,VACANT LOT,6050.06
ORL140951,"2409-11 GORDON ST","New Orleans","LA","70117","29.95545350800046","-90.01458567899965",E,VACANT LOT,5783.69
ORL141160,"2344 GALLIER ST","New Orleans","LA","70117","29.97983948400048","-90.03568003999965",D,VACANT LOT,5473.99
ORL141238,"4510 LANCELOT DR","New Orleans","LA","70127","30.01649696000044","-89.98486176399967",E,VACANT LOT,6283.4
ORL141286,"2009 GORDON ST","New Orleans","LA","70117","29.969256785000482","-90.00787247299968",E,VACANT LOT,3907.2
ORL141519,"4646 EASTVIEW DIRVE","New Orleans","LA","70126","30.01861705300047","-89.99256160999965",E,VACANT LOT,8072.02
ORL142406,"3631 SECOND ST","New Orleans","LA","70125","29.949278164000475","-90.09602689199966",B,VACANT LOT,2627.4
ORL143159,"1901 -1903 DELERY ST","New Orleans","LA","70117","29.96990075500048","-90.03053993999964",E,VACANT LOT,5190.4
ORL143340,"1920 CLOUET ST","New Orleans","LA","70117","29.976249539000435","-90.04163051399968",D,VACANT LOT,
ORL143906,"2427 TUPELO ST","New Orleans","LA","70117","29.97311796000048","-90.0048332779997",E,VACANT LOT,3293.27
ORL144441,"748 750 ROBERT E LEE BLVD","New Orleans","LA","70124","30.019316453000442","-90.10467959599964",A,VACANT LOT,
ORL144898,"2209 WINTHROP ST","New Orleans","LA","70117","29.971867224000448","-90.00848244299965",E,VACANT LOT,2143.73
ORL144977,"6416 PRARO ST","New Orleans","LA","70117","29.966094412000473","-90.00425054799967",E,VACANT LOT,2595.54
ORL145930,"720 -22 CHARBONNET ST","New Orleans","LA","70117","29.96990075500048","-90.03053993999964",E,VACANT LOT,3928.08
ORL145941,"5431 N JOHNSON ST 5433 N JOHNSON ST","New Orleans","LA","70117","29.97076809100048","-90.01452530099965",E,VACANT LOT,6842.05
ORL146156,"3121 PIETY ST","New Orleans","LA","70126","29.989151312000445","-90.0348710889997",E,VACANT LOT,7376.01
ORL146254,"5727 NORTH JOHNSON ST","New Orleans","LA","70117","29.96998756500045","-90.01107511599969",E,VACANT LOT,4054.89
ORL146309,"3610 MONROE ST","New Orleans","LA","70118","29.968811447000462","-90.11620093999966",A,VACANT LOT,4967.22
ORL146480,"2007 DESIRE ST","New Orleans","LA","70117","29.976242433000436","-90.03763076299964",D,STRUCTURE,
ORL146520,"4946 CHARLENE DR","New Orleans","LA","70127","30.024297481000474","-89.98419257199964",E,VACANT LOT,8452.39
ORL146569,"1713 FLOOD ST","New Orleans","LA","70117","29.967841416000454","-90.01466150899967",E,VACANT LOT,3500.42
ORL146702,"2514 ALABO ST","New Orleans","LA","70117","29.97524989700048","-90.00827990999966",E,VACANT LOT,3450.99
ORL146744,"6300 NORTH TONTI ST","New Orleans","LA","70117","29.970774013000437","-90.0034096179997",E,VACANT LOT,4511.14
ORL146780,"7221 VOYAGEUR CT","New Orleans","LA","70129","30.056503946000475","-89.92468309899965",E,VACANT LOT,5797.83
ORL147026,"7135 DEANNE ST","New Orleans","LA","70126","30.024581740000485","-90.02286117599965",D,VACANT LOT,7300.4
ORL147230,"2200 ALVAR ST","New Orleans","LA","70117","29.977289450000455","-90.03297011099966",D,VACANT LOT,4761.21
ORL147309,"5400 MONTEGUT DR","New Orleans","LA","70126","30.014922880000483","-90.04146114399964",D,STRUCTURE,
ORL147527,"3138 TOLEDANO ST","New Orleans","LA","70125","29.944257452000443","-90.09763768799968",B,STRUCTURE,4017.05
ORL148697,"6754 BELLAIRE DR","New Orleans","LA","70124","30.015552986000444","-90.12072183099968",A,VACANT LOT,8050.18
ORL149042,"1532 DELERY ST","New Orleans","LA","70117","29.96323406200048","-90.00612783699967",E,VACANT LOT,3116.74
ORL149161,"5920 N JOHNSON ST","New Orleans","LA","70117","29.969279069000436","-90.00882183699969",E,VACANT LOT,5100.35
ORL149331,"2300 LIZARDI ST","New Orleans","LA","70117","29.97461031600045","-90.01638008599969",E,VACANT LOT,3853.5
ORL149886,"2309 ROFFIGNAC ST","New Orleans","LA","70117","29.97297583100044","-90.00859377799969",E,VACANT LOT,2131.09
ORL150577,"4851 RAY AVE","New Orleans","LA","70126","30.01967354700048","-90.01282922599967",E,VACANT LOT,4480.23
ORL150844,"4701 N VILLERE ST","New Orleans","LA","70117","29.966548041000465","-90.02525486799965",E,VACANT LOT,6188.78
ORL151489,"8608 PALMETTO ST","New Orleans","LA","70118","29.969183727000484","-90.11438989299967",A,VACANT LOT,4682.53
ORL152184,"2400 WINTHROP ST","New Orleans","LA","70117","29.97362370300044","-90.00771849999967",E,VACANT LOT,2410.7
ORL152196,"1633 -37 ST ANTHONY ST","New Orleans","LA","70116","29.965712170000472","-90.06463954299966",C,VACANT LOT,4724.43
ORL152391,"7165 EAST HERMES","New Orleans","LA","70126","30.02670301800049","-90.01733945899969",D,VACANT LOT,7405.67
ORL152534,"4766 BUNDY RD","New Orleans","LA","70127","30.021927478000464","-89.9793815009997",E,VACANT LOT,6233.42
ORL152865,"6218 NORTH GALVEZ","New Orleans","LA","70117","29.968974895000486","-90.00505002499966",E,VACANT LOT,3958.03
ORL152881,"4924 CAMELIA ST","New Orleans","LA","70126","30.019957805000445","-90.00425173299965",E,VACANT LOT,5837.67
ORL153135,"6043 PRATT DR","New Orleans","LA","70122","30.019643936000477","-90.0714290739997",D,VACANT LOT,11221.51
ORL153439,"4912 N CLAIBORNE AVE","New Orleans","LA","70117","29.967653094000468","-90.0221268419997",E,VACANT LOT,2787.96
ORL154036,"4701 WERNER DR","New Orleans","LA","70126","30.019344281000485","-89.99365955799965",E,VACANT LOT,5173.65
ORL154242,"1810 EGANIA ST","New Orleans","LA","70117","29.969430893000435","-90.01719969799967",E,VACANT LOT,3458.09
ORL154564,"1701-03 LIZARDI ST","New Orleans","LA","70117","29.95632147800046","-90.02250811999966",E,VACANT LOT,3602.85
ORL154580,"5808 FLORIDA AVE","New Orleans","LA","70117","29.97709402300046","-90.00829649099967",E,VACANT LOT,3671.3
ORL154723,"2332 MAZANT ST","New Orleans","LA","70117","29.978459647000477","-90.03057049799969",D,VACANT LOT,4924.65
ORL154899,"7844 SAIL ST","New Orleans","LA","70128","30.071468962000438","-89.94497084999966",E,STRUCTURE,
ORL155073,"2427 AND A HALF ANNETTE ST","New Orleans","LA","70119","29.974693297000442","-90.08794615199969",D,VACANT LOT,3161.77
ORL155183,"4801 PAPANIA DR","New Orleans","LA","70127","30.024593584000456","-89.95951895199966",E,VACANT LOT,6645.54
ORL155424,"5717 MARSHALL FOCH","New Orleans","LA","70124","29.99400739100048","-90.10495852399964",A,VACANT LOT,6138.45
ORL155566,"2051 - 53 N MIRO ST","New Orleans","LA","70119","29.95743301100049","-90.08781843299965",D,VACANT LOT,3221.16
ORL156245,"2609 EGANIA ST","New Orleans","LA","70117","29.977542895000454","-90.0144046159997",E,VACANT LOT,3643.66
ORL156276,"7621 FOUNDERS CT","New Orleans","LA","70129","30.06243428500045","-89.92713482599964",E,VACANT LOT,5789.86
ORL156765,"6155 S HERMES ST","New Orleans","LA","70126","30.01992701000046","-90.01829764599967",D,VACANT LOT,9631.43
ORL158111,"2419 MONTEGUT ST","New Orleans","LA","70117","29.981791391000456","-90.04180106899969",D,VACANT LOT,3744.68
ORL158268,"2501 FLOOD ST","New Orleans","LA","70117","29.97586105300047","-90.01207120499964",E,VACANT LOT,4034.58
ORL159295,"2808 LOUISA STEET","New Orleans","LA","70126","29.98601973300049","-90.03684076199966",E,VACANT LOT,5148.18
ORL160086,"4751 HICKERSON DR","New Orleans","LA","70127","30.02136369900046","-89.9761989919997",E,VACANT LOT,5744.75
ORL160150,"4858 GAWAIN DR","New Orleans","LA","70127","30.022967390000474","-89.98700199199965",E,VACANT LOT,5902.88
ORL162014,"2425 LOUISA ST","New Orleans","LA","70117","29.98122169000044","-90.03820046399966",D,VACANT LOT,3351.61
ORL162542,"2444 MAZANT ST","New Orleans","LA","70117","29.979659454000455","-90.03020096199964",D,STRUCTURE,6806.76
ORL163384,"2313 FLOOD ST","New Orleans","LA","70117","29.973961259000475","-90.01268117499967",E,VACANT LOT,4020.22
ORL164325,"4899 CERISE AVE","New Orleans","LA","70127","30.024363808000487","-89.98186876099965",E,VACANT LOT,6330.43
ORL164455,"2139 CHARBONNET ST","New Orleans","LA","70117","29.971802081000476","-90.01031117199966",E,VACANT LOT,3884.94
ORL164630,"4544 DODT AVE","New Orleans","LA","70126","30.016847545000473","-89.99133219299966",E,VACANT LOT,5474.33
ORL164661,"2020 LAMANCHE","New Orleans","LA","70117","29.970620040000483","-90.01163060499965",E,VACANT LOT,3775.48
ORL164848,"6318 N TONTI ST","New Orleans","LA","70117","29.97063425300047","-90.00301994699964",E,VACANT LOT,4465.99
ORL165436,"2712 EDNA ST","New Orleans","LA","70126","29.993013672000473","-90.04231036499965",E,VACANT LOT,2579.6
ORL165873,"6122 S LAVERNE ST","New Orleans","LA","70126","30.020443413000464","-90.01946310399967",D,VACANT LOT,9103.34
ORL166114,"1922 ALLEN ST","New Orleans","LA","70116","29.976507740000443","-90.06458200199967",D,VACANT LOT,6508.63
ORL166559,"4688 CHARLENE DR","New Orleans","LA","70127","30.019647490000466","-89.98372236199964",E,VACANT LOT,6350.6
ORL167631,"7754 ALABAMA ST","New Orleans","LA","70126","30.031040325000447","-90.02538041499969",D,VACANT LOT,5176.08
ORL167847,"3525 N GALVEZ ST","New Orleans","LA","70117","29.976818654000454","-90.03628491699965",D,VACANT LOT,2347.01
ORL168027,"6325 PAULINE DR","New Orleans","LA","70126","30.024901530000477","-90.0362911959997",D,VACANT LOT,
ORL168036,"5158 MUSIC ST","New Orleans","LA","70122","30.011458482000478","-90.05470165799966",D,VACANT LOT,5908.24
ORL170667,"6229 CAMBRIDGE CT","New Orleans","LA","70131","29.91864341200045","-89.98756103299968",C,VACANT LOT,
ORL171334,"1412 STRAND CT","New Orleans","LA","70117","29.963263672000437","-90.01018917699969",E,VACANT LOT,2199.05
ORL171762,"2121 ALABO ST 2123 ALABO ST","New Orleans","LA","70117","29.971240671000487","-90.00950103599968",E,VACANT LOT,3271.19
ORL172076,"2434 INDEPENDENCE ST","New Orleans","LA","70117","29.98030969500047","-90.03386078699964",D,VACANT LOT,4644.98
ORL172458,"7524 AVON PARK BLVD","New Orleans","LA","70128","30.066487334000442","-89.94452788099966",E,VACANT LOT,4049.63
ORL173407,"5706 N CLAIBORNE AVE","New Orleans","LA","70117","29.965583930000435","-90.01298675299967",E,VACANT LOT,4035.55
ORL174141,"202 LIBERTY TERRACE DR","New Orleans","LA","70126","29.993671019000487","-90.04151088899965",E,VACANT LOT,2493.77
ORL174272,"6516 AVE B","New Orleans","LA","70124","30.01091246900046","-90.11731191599966",A,VACANT LOT,4796.31
ORL174563,"1329 EGANIA ST","New Orleans","LA","70117","29.96451085600046","-90.01876074999967",E,VACANT LOT,6954.95
ORL174615,"2019 NORTH DERBIGNY ST","New Orleans","LA","70116","29.97453806700048","-90.05914200899969",C,VACANT LOT,3815.37
ORL174878,"4939 NORTH VILLERE ST","New Orleans","LA","70117","29.965957020000474","-90.02268469899968",E,VACANT LOT,4714.93
ORL175436,"1925 N ROCHEBLAVE ST","New Orleans","LA","70117","29.981207477000453","-90.06666182599969",D,VACANT LOT,21028.28
ORL176197,"2300 CLOUET ST","New Orleans","LA","70117","29.980079919000445","-90.04049111199964",D,VACANT LOT,3225.44
ORL177049,"7644 MACKENZIE ST","New Orleans","LA","70128","30.04966279700045","-89.97364422099969",E,VACANT LOT,6254.13
ORL177098,"10123 SEAWOOD ST","New Orleans","LA","70127","30.025697453000475","-89.96800287799965",E,VACANT LOT,
ORL177166,"1831 OLD ROMAN ST","New Orleans","LA","70116","29.97689030400045","-90.0648520479997",D,VACANT LOT,4086.13
ORL178612,"2315 FLOOD ST","New Orleans","LA","70126","29.974031140000477","-90.01266104099966",E,VACANT LOT,4065.84
ORL178792,"1300 1300 A ELMIRA ST","New Orleans","LA","70114","29.935614317000443","-90.03182606099966",C,VACANT LOT,1277.09
ORL178793,"2520 2522 TUPELO ST","New Orleans","LA","70117","29.97408443800049","-90.00458810499964",E,VACANT LOT,2901.25
ORL179523,"2217 ANDRY","New Orleans","LA","70117","29.973391558000458","-90.01463071299969",E,VACANT LOT,3320.6
ORL180371,"321 20TH ST","New Orleans","LA","70124","30.004188576000445","-90.11947938499969",A,VACANT LOT,
ORL180387,"3117 INDUSTRIAL CT","New Orleans","LA","70117","29.974127077000446","-90.04165420199968",C,VACANT LOT,2334.31
ORL180428,"331 20TH ST","New Orleans","LA","70124","30.004198051000458","-90.11961914499966",A,VACANT LOT,
ORL181392,"3409 METROPOLITAN ST","New Orleans","LA","70126","29.99248187200044","-90.03572030999965",E,VACANT LOT,4541.24
ORL181443,"2029 ANDRY ST","New Orleans","LA","70117","29.971550986000466","-90.0152513439997",E,VACANT LOT,2483
ORL181458,"6203 N CLAIBORNE AVE","New Orleans","LA","70117","29.96425620700046","-90.00763085299968",E,VACANT LOT,5740.17
ORL181627,"5819 -21 LAW ST","New Orleans","LA","70117","29.96990075500048","-90.03053993999964",E,VACANT LOT,2227.05
ORL182178,"9115 PRITCHARD PL","New Orleans","LA","70118","29.966603708000434","-90.12526285699965",A,VACANT LOT,3575.01
ORL182762,"4618 LAINE AVE","New Orleans","LA","70126","30.01816816200045","-89.99061207199969",E,VACANT LOT,6924.57
ORL182845,"2131 ALABO ST","New Orleans","LA","70117","29.971400566000455","-90.00945129099966",E,VACANT LOT,3163.64
ORL182929,"1805 -07 ST FERDINAND ST","New Orleans","LA","70117","29.96990075500048","-90.03053993999964",D,VACANT LOT,3470.2
ORL183240,"4618 RHODES DR","New Orleans","LA","70126","30.01566787300044","-90.00070205699967",E,VACANT LOT,6087.21
ORL185478,"9022 -24 OLIVE ST","New Orleans","LA","70118","29.94982248500048","-90.12401838799968",A,VACANT LOT,3653.38
ORL186291,"7020 VICKSBURG ST","New Orleans","LA","70124","30.017964444000484","-90.10525225799967",A,VACANT LOT,4948.01
ORL186710,"1806 FLOOD ST","New Orleans","LA","70117","29.96870958800048","-90.01445068299967",E,VACANT LOT,3946.51
ORL187745,"6961 FOCH RD","New Orleans","LA","70126","30.02442184400047","-90.01970117099967",D,VACANT LOT,9124.26
ORL187792,"2610 S MIRO ST","New Orleans","LA","70125","29.94794570300047","-90.09671621799964",B,VACANT LOT,2705.62
ORL187915,"1903 TRICOU ST","New Orleans","LA","70117","29.96704786100048","-90.00532243899966",E,VACANT LOT,3371.99
ORL189193,"4621 4623 LYNHUBER DR","New Orleans","LA","70126","30.015873961000466","-90.01485930499967",D,VACANT LOT,5915.53
ORL189280,"6223 LAW ST","New Orleans","LA","70117","29.97396718100049","-90.00249051599968",E,VACANT LOT,4664.06
ORL189503,"209 16TH ST","New Orleans","LA","70124","30.002428543000462","-90.11772882799966",A,VACANT LOT,4772.01
ORL189588,"13501 TRAPPERS CT","New Orleans","LA","70129","30.05713297800048","-89.93125789699968",E,VACANT LOT,11242.15
ORL190827,"1437 ST MAURICE AVE","New Orleans","LA","70117","29.96313694100047","-90.00831307299967",E,VACANT LOT,3287.69
ORL192186,"414 40TH ST","New Orleans","LA","70124","30.01603267100046","-90.11971152999968",A,VACANT LOT,6616.21
ORL192189,"1928 NORTH ROBERTSON ST","New Orleans","LA","70116","29.972383626000465","-90.05991898199966",C,VACANT LOT,2803.6
ORL193394,"2423 -25 S GALVEZ ST","New Orleans","LA","70125","29.94421418200045","-90.10790573899965",B,VACANT LOT,1916.87
ORL193560,"1484 MANDOLIN ST","New Orleans","LA","70122","30.000932634000435","-90.07654927599964",D,STRUCTURE,4351.67
ORL193892,"1230 REYNES ST","New Orleans","LA","70117","29.964200540000434","-90.02177980999966",E,VACANT LOT,4323.14
ORL194193,"2110 EGANIA ST","New Orleans","LA","70117","29.972659594000447","-90.01611004099965",E,VACANT LOT,3321.94
ORL194484,"2204 LIZARDI ST","New Orleans","LA","70117","29.973660420000442","-90.01669040199965",E,VACANT LOT,3283.25
ORL194581,"3203 MONTEGUT ST","New Orleans","LA","70126","29.99083199000046","-90.03907100499964",E,VACANT LOT,7481.89
ORL194831,"1931 CHARBONNET ST","New Orleans","LA","70117","29.96959078900045","-90.01102063299965",E,VACANT LOT,7562.92
ORL195703,"4842 NIGHTHART ST","New Orleans","LA","70127","30.02553755800045","-89.95793184299964",E,VACANT LOT,8175.08
ORL196190,"4815 NOTTINGHAM DR","New Orleans","LA","70127","30.025054319000446","-89.95697957799968",E,VACANT LOT,5442.22
ORL197474,"2518 BENTON ST","New Orleans","LA","70117","29.97471454400045","-90.00657791299966",E,VACANT LOT,2121.69
ORL197920,"1328 S SALCEDO ST","New Orleans","LA","70125","29.95536247600046","-90.10200697499965",B,VACANT LOT,3444.07
ORL197926,"2505 WINTHROP","New Orleans","LA","70117","29.97474770700046","-90.00711326599969",E,VACANT LOT,2118.97
ORL198216,"4616 BRIGHT DR","New Orleans","LA","70127","30.022771962000434","-89.95852049499968",E,VACANT LOT,6580.24
ORL198375,"1850 LIZIRDI ST","New Orleans","LA","70117","29.970191284000464","-90.01784993899969",E,VACANT LOT,6608.2
ORL198382,"3323 NORTH DORGENOIS ST","New Orleans","LA","70117","29.981337762000464","-90.03666428499969",D,VACANT LOT,5028.49
ORL198688,"1213 LAMANCHE ST","New Orleans","LA","70117","29.962320883000473","-90.01427065299964",E,STRUCTURE,4597.03
ORL198751,"2327 -2327 12 CHARBONNET","New Orleans","LA","70117","29.96990075500048","-90.03053993999964",E,VACANT LOT,3782.09
ORL199059,"7630 DALEWOOD","New Orleans","LA","70126","30.03456868100045","-90.00892896599964",D,VACANT LOT,7550.27
ORL199267,"8619 FORSHEY ST","New Orleans","LA","70118","29.966152448000457","-90.11820259199965",A,VACANT LOT,3531.96
ORL199864,"2238 DESIRE ST","New Orleans","LA","70117","29.979029348000438","-90.03687037199967",D,VACANT LOT,5626.89
ORL200212,"4825 SANDALWOOD DR","New Orleans","LA","70127","30.023443522000434","-89.97019877299965",E,VACANT LOT,5744.94
ORL200324,"6116 N ROMAN ST","New Orleans","LA","70117","29.966474606000475","-90.00753017799968",E,VACANT LOT,6193.12
ORL200460,"5422 N ROBERTSON ST","New Orleans","LA","70117","29.965613541000437","-90.01649734299968",E,VACANT LOT,4167.38
ORL201165,"2127 EGANIA ST","New Orleans","LA","70117","29.972831333000443","-90.01598094099967",E,VACANT LOT,3758.07
ORL201210,"5416 N CLAIBORNE AVE","New Orleans","LA","70117","29.966394067000465","-90.01647602399964",E,VACANT LOT,3089.25
ORL202698,"2032 LAMANCHE ST","New Orleans","LA","70117","29.97086047500045","-90.01155006399966",E,VACANT LOT,4039.97
ORL203876,"2513 PORT ST","New Orleans","LA","70117","29.98349101900044","-90.04464128299969",D,VACANT LOT,11103.58
ORL204462,"2436 GORDON ST","New Orleans","LA","70117","29.973653313000455","-90.00583884099967",E,VACANT LOT,2122.75
ORL204787,"5715 -17 NORTH JOHNSON ST","New Orleans","LA","70117","29.96990075500048","-90.03053993999964",E,VACANT LOT,4123.4
ORL205652,"4250 DALE ST","New Orleans","LA","70126","30.01237758400049","-90.00993216099965",E,VACANT LOT,3325.66
ORL206400,"2227 ANDRY ST","New Orleans","LA","70117","29.973610675000486","-90.01457030799969",E,VACANT LOT,3828.41
ORL206672,"1918 -1920 ST MAURICE AVE","New Orleans","LA","70117","29.96990075500048","-90.03053993999964",E,VACANT LOT,4096.85
ORL208665,"4915 -17 DALE ST","New Orleans","LA","70126","30.018512677000444","-90.01959921599968",E,VACANT LOT,11861.98
ORL208799,"4800 - 4802 FRANCIS DR","New Orleans","LA","70126","30.018477293000444","-90.01447200299964",D,VACANT LOT,5474.88
ORL208898,"2832 LOUISA ST","New Orleans","LA","70126","29.986489944000482","-90.03669034199964",E,VACANT LOT,4597.24
ORL209159,"3900 THALIA ST","New Orleans","LA","70125","29.951886234000483","-90.09655395399966",B,VACANT LOT,4152.2
ORL210165,"5385 PASTEUR BLVD","New Orleans","LA","70122","30.01416367300044","-90.06274853599967",D,VACANT LOT,6169.44
ORL210694,"8007 MULLET ST","New Orleans","LA","70126","30.036522957000443","-90.01257220999969",D,VACANT LOT,5214.87
ORL210750,"5415 NORTH JOHNSON ST","New Orleans","LA","70117","29.97087705700045","-90.01502393699968",E,VACANT LOT,4305.81
ORL211046,"3023 LAUSSAT PL","New Orleans","LA","70117","29.984067826000455","-90.04054440999965",D,VACANT LOT,3240.45
ORL211123,"4766 ARTHUR DR","New Orleans","LA","70127","30.02113747700048","-89.98458224299969",E,VACANT LOT,5673.92
ORL211994,"2634 GORDON ST","New Orleans","LA","70117","29.975624170000458","-90.00488894499966",E,VACANT LOT,2795.72
ORL213754,"6427 NORTH VILLERE","New Orleans","LA","70117","29.96175710400047","-90.00597149599969",E,VACANT LOT,2609.29
ORL213912,"4118 NORTH JOHNSON ST","New Orleans","LA","70117","29.974483585000485","-90.03117691499966",D,VACANT LOT,2457.28
ORL214583,"11410 WILL STUTLEY DR","New Orleans","LA","70128","30.027812809000466","-89.95338015799967",E,VACANT LOT,7730.5
ORL215875,"4858 HICKERSON DR","New Orleans","LA","70127","30.02367685100046","-89.97651167699968",E,VACANT LOT,5932.71
ORL216330,"6927 WEST LAVERNE ST","New Orleans","LA","70126","30.02323151300044","-90.02134157799969",D,VACANT LOT,8155.12
ORL216860,"5513 ROSEMARY PL","New Orleans","LA","70124","29.99030729600048","-90.11316885199966",A,VACANT LOT,6061.86
ORL217419,"5912 BEECHCRAFT ST","New Orleans","LA","70126","30.014697842000487","-90.02040234199967",D,STRUCTURE,2220.04
ORL217638,"7134 FOCH RD","New Orleans","LA","70126","30.025209477000487","-90.02006004699967",D,VACANT LOT,8094.9
ORL217727,"4726 LANCELOT DR","New Orleans","LA","70127","30.02026693600044","-89.98523248299966",E,VACANT LOT,5647.61
ORL217942,"4675 GABRIEL DR","New Orleans","LA","70127","30.02015441700047","-89.98057893899966",E,VACANT LOT,5525.33
ORL218308,"5005 N ROCHEBLAVE ST","New Orleans","LA","70117","29.97586815900047","-90.0175443609997",E,VACANT LOT,3888.53
ORL218501,"1810 FLOOD ST","New Orleans","LA","70117","29.968799603000434","-90.01441988899967",E,VACANT LOT,3990
ORL219351,"1221 REYNES ST","New Orleans","LA","70117","29.963970765000454","-90.02179046999964",E,VACANT LOT,3986.2
ORL219444,"1807 TRICOU ST","New Orleans","LA","70117","29.966127575000485","-90.00576303899965",E,VACANT LOT,4589.82
ORL219522,"2106 BENTON ST","New Orleans","LA","70117","29.970583324000472","-90.00855824599967",E,VACANT LOT,3233.78
ORL219605,"428 37TH ST","New Orleans","LA","70124","30.013333402000455","-90.12028241499968",A,VACANT LOT,4524.46
ORL220314,"130 FILMORE AVE","New Orleans","LA","70124","30.01277317700044","-90.11323399399964",A,VACANT LOT,4095.89
ORL220577,"14059 QUAIL CREEK LN","New Orleans","LA","70128","30.06675382700047","-89.94786791499968",E,VACANT LOT,3654.82
ORL221636,"2233-35 ANNETTE ST","New Orleans","LA","70119","29.97833071700046","-90.06352855899968",D,VACANT LOT,3900.99
ORL223719,"4956 PECAN ST","New Orleans","LA","70126","30.02055830100045","-90.00345225599966",E,VACANT LOT,5616.72
ORL224162,"4932 MEADOWBANK DR","New Orleans","LA","70128","30.02759724700047","-89.94889242999966",E,VACANT LOT,5456
ORL224800,"6122 N ROMAN ST","New Orleans","LA","70117","29.966424861000462","-90.00739989299967",E,VACANT LOT,6766.38
ORL225612,"4834 GALAHAD DR","New Orleans","LA","70127","30.02253744900048","-89.98621199099966",E,VACANT LOT,5699.96
ORL226026,"1820 ANDRY ST","New Orleans","LA","70117","29.969410758000436","-90.0159998909997",E,VACANT LOT,3900.65
ORL227665,"8705 -07 PRITCHARD PL","New Orleans","LA","70118","29.94982248500048","-90.12401838799968",A,VACANT LOT,3592.14
ORL233719,"7180 E RENAISSANCE CT","New Orleans","LA","70128","30.055022250000434","-89.95435374199968",E,VACANT LOT,5251.35
ORL234113,"3417 EAGLE ST 3419 EAGLE ST","New Orleans","LA","70118","29.968169497000474","-90.11833998399965",A,VACANT LOT,4480.38
